{
"type": "FeatureCollection",
"name": "baseline_shoreline",
"crs": { "type": "name", "properties": { "name": "urn:ogc:def:crs:EPSG::32644" } },
"features": [
{ "type": "Feature", "properties": { }, "geometry": { "type": "MultiLineString", "coordinates": [ [ [ 509899.220942009938881, 1761567.715742633678019 ], [ 509908.830939862760715, 1761577.656618003500625 ], [ 509908.826532062026672, 1761587.593230688013136 ] ], [ [ 509908.826532062026672, 1761587.593230688013136 ], [ 509918.436517056659795, 1761597.534110426204279 ] ], [ [ 509918.436517056659795, 1761597.534110426204279 ], [ 509928.046493495523464, 1761607.474994426826015 ], [ 509937.660882079973817, 1761607.479269695933908 ], [ 509947.270845704246312, 1761617.420162121765316 ], [ 509956.88080076983897, 1761627.361058810725808 ], [ 509966.490747279429343, 1761637.301959763979539 ], [ 509976.100685233075637, 1761647.24286498175934 ], [ 509985.710614627867471, 1761657.183774463832378 ], [ 509985.70617241691798, 1761667.120387981412932 ], [ 509995.316088952764403, 1761677.061301832320169 ], [ 510004.92599693237571, 1761687.002219947054982 ] ], [ [ 510004.92599693237571, 1761687.002219947054982 ], [ 510014.535896353016142, 1761696.943142326548696 ] ], [ [ 510014.535896353016142, 1761696.943142326548696 ], [ 510024.145787216024473, 1761706.884068970335647 ] ], [ [ 510024.145787216024473, 1761706.884068970335647 ], [ 510033.755669521226082, 1761716.824999878648669 ], [ 510043.365543270017952, 1761726.765935051720589 ], [ 510052.975408459664322, 1761736.706874490482733 ], [ 510062.585265090048779, 1761746.647818192606792 ] ], [ [ 510062.585265090048779, 1761746.647818192606792 ], [ 510072.195113163848873, 1761756.588766160653904 ] ], [ [ 510072.195113163848873, 1761756.588766160653904 ], [ 510072.190632213198114, 1761766.525380700593814 ] ], [ [ 510072.190632213198114, 1761766.525380700593814 ], [ 510081.800467427063268, 1761776.466333037707955 ] ], [ [ 510081.800467427063268, 1761776.466333037707955 ], [ 510091.410294084227644, 1761786.407289639580995 ] ], [ [ 510091.410294084227644, 1761786.407289639580995 ], [ 510101.020112181897275, 1761796.348250506678596 ] ], [ [ 510101.020112181897275, 1761796.348250506678596 ], [ 510110.6344198800507, 1761796.35260068019852 ], [ 510120.24422516481718, 1761806.293569972272962 ], [ 510129.854021889972501, 1761816.234543530503288 ], [ 510139.468321097199805, 1761816.238906163489446 ], [ 510149.078105007938575, 1761826.179888147162274 ], [ 510158.687880361743737, 1761836.120874396525323 ], [ 510168.29764715442434, 1761846.061864911345765 ], [ 510177.907405389996711, 1761856.002859691623598 ], [ 510187.517155067122076, 1761865.943858737358823 ], [ 510187.512622515088879, 1761875.880474450299516 ], [ 510197.122359331173357, 1761885.821477866498753 ], [ 510206.732087589974981, 1761895.762485549319535 ], [ 510216.341807288757991, 1761905.703497496433556 ], [ 510225.951518428744748, 1761915.644513710169122 ], [ 510235.561221011332236, 1761925.585534188663587 ], [ 510235.556666921474971, 1761935.522150508593768 ] ], [ [ 509860.763319699035492, 1761567.698732942575589 ], [ 509870.373334576084744, 1761577.6395916743204 ], [ 509879.983340896025766, 1761587.580454669194296 ], [ 509889.597737931471784, 1761587.584709203802049 ], [ 509899.207731438218616, 1761597.525580622488633 ], [ 509908.81771638779901, 1761607.46645630383864 ], [ 509918.427692778815981, 1761617.407336250180379 ], [ 509918.423280604183674, 1761627.343949286499992 ], [ 509928.033244138059672, 1761637.284833600278944 ], [ 509937.643199115875177, 1761647.225722178583965 ], [ 509947.253145535010844, 1761657.166615020250902 ], [ 509947.24872043216601, 1761667.103228451684117 ], [ 509956.858653992414474, 1761677.044125662650913 ], [ 509966.468578995089047, 1761686.985027137212455 ], [ 509976.082933448604308, 1761686.989319132175297 ], [ 509985.692845637560822, 1761696.930229031248018 ], [ 509995.302749268768821, 1761706.871143194381148 ], [ 510004.912644343683496, 1761716.812061622273177 ], [ 510014.522530859452672, 1761726.752984315156937 ], [ 510024.132408816018142, 1761736.693911272799596 ], [ 510033.74674200854497, 1761736.698228206718341 ], [ 510043.356607152498327, 1761746.639163588173687 ], [ 510043.352139058231842, 1761756.575777980266139 ], [ 510052.961991343763657, 1761766.516717732418329 ], [ 510062.571835069917142, 1761776.457661747466773 ], [ 510072.181670237972867, 1761786.398610028903931 ], [ 510072.177189213398378, 1761796.335224817041308 ], [ 510081.787011521344539, 1761806.276177467079833 ], [ 510081.782526170136407, 1761816.212792442413047 ], [ 510091.392335619137157, 1761826.153749462217093 ], [ 510101.002136508468539, 1761836.09471074747853 ], [ 510110.616427097003907, 1761836.099061008775607 ], [ 510120.2262151731411, 1761846.040030719945207 ], [ 510129.835994688095525, 1761855.981004695873708 ], [ 510139.450276785588358, 1761855.985367417568341 ], [ 510149.064558904326987, 1761855.989734278060496 ], [ 510158.674321349826641, 1761865.930720841512084 ], [ 510158.669801630370785, 1761875.867336488794535 ], [ 510168.279551216284744, 1761885.808327422011644 ], [ 510177.889292242238298, 1761895.749322621151805 ], [ 510187.503557336283848, 1761895.753706124611199 ] ], [ [ 510187.503557336283848, 1761895.753706124611199 ], [ 510197.11328554735519, 1761905.694709750823677 ] ], [ [ 510197.11328554735519, 1761905.694709750823677 ], [ 510206.723005201027263, 1761915.635717642260715 ], [ 510216.332716294622514, 1761925.576729798689485 ], [ 510225.942418829305097, 1761935.517746221972629 ] ], [ [ 509870.37772524531465, 1761567.702979158144444 ], [ 509879.987735866219737, 1761577.643842049175873 ], [ 509889.602137178531848, 1761577.648096563061699 ], [ 509899.21653851022711, 1761577.652355214348063 ], [ 509908.826532062026672, 1761587.593230688013136 ] ], [ [ 509918.436517056659795, 1761597.534110426204279 ], [ 509928.046493492787704, 1761607.474994426826015 ], [ 509937.656461374426726, 1761617.415882693137974 ], [ 509947.266420697385911, 1761627.356775222811848 ], [ 509956.876371463062242, 1761637.297672015614808 ], [ 509966.486313671339303, 1761647.238573073409498 ], [ 509976.096247323555872, 1761657.179478395497426 ], [ 509976.091809389647096, 1761667.1160918911919 ], [ 509985.701730181579478, 1761677.057001582346857 ], [ 509995.31164241587976, 1761686.997915537329391 ], [ 510004.92599693237571, 1761687.002219947054982 ] ], [ [ 510024.145787216024473, 1761706.884068970335647 ], [ 510033.755669519887306, 1761716.824999878648669 ], [ 510043.365543267282192, 1761726.765935051720589 ], [ 510052.975408458267339, 1761736.706874490482733 ], [ 510062.585265090048779, 1761746.647818192606792 ] ], [ [ 510101.020112181897275, 1761796.348250506678596 ], [ 510110.629921721410938, 1761806.289215637836605 ], [ 510120.2397227040492, 1761816.230185035150498 ], [ 510129.849515127018094, 1761826.171158697456121 ], [ 510139.463810055458453, 1761826.175521353259683 ], [ 510149.073589664010797, 1761836.1165034417063 ], [ 510158.683360714116134, 1761846.057489795610309 ], [ 510168.293123207171448, 1761855.998480414971709 ], [ 510177.902877140440978, 1761865.939475299790502 ], [ 510177.898348865914159, 1761875.876090991310775 ], [ 510177.893820566532668, 1761885.812706764787436 ], [ 510187.503557336283848, 1761895.753706124611199 ] ], [ [ 510197.11328554735519, 1761905.694709750823677 ], [ 510206.727546408015769, 1761905.699101553997025 ], [ 510216.337261804146692, 1761915.640113606583327 ], [ 510225.94696864153957, 1761925.58112992439419 ], [ 510225.942418829305097, 1761935.517746221972629 ] ] ] } }
]
}
