{"type": "FeatureCollection", "features": [{"type": "Feature", "properties": {"type": "erosion", "rate": -28.389681944072546}, "geometry": {"type": "LineString", "coordinates": [[81.09249274921642, 15.93337327866374], [81.09268337936768, 15.93319481078319]]}}, {"type": "Feature", "properties": {"type": "erosion", "rate": -46.55612311691163}, "geometry": {"type": "LineString", "coordinates": [[81.09258258074483, 15.93355294172057], [81.09289519458652, 15.93326027302793]]}}, {"type": "Feature", "properties": {"type": "erosion", "rate": -8.530407014272855}, "geometry": {"type": "LineString", "coordinates": [[81.09267241227325, 15.933642773248987], [81.09272969213356, 15.933589148060687]]}}, {"type": "Feature", "properties": {"type": "accretion", "rate": 23.81214175743648}, "geometry": {"type": "LineString", "coordinates": [[81.09348089602896, 15.934451257004685], [81.09332100147215, 15.934600948230374]]}}, {"type": "Feature", "properties": {"type": "accretion", "rate": 5.388369403137084}, "geometry": {"type": "LineString", "coordinates": [[81.09357072755736, 15.934541088533098], [81.09353454555315, 15.934574961658834]]}}, {"type": "Feature", "properties": {"type": "accretion", "rate": 17.917501293697914}, "geometry": {"type": "LineString", "coordinates": [[81.09366055908578, 15.934630920061515], [81.09354024591853, 15.934743555527433]]}}, {"type": "Feature", "properties": {"type": "accretion", "rate": 12.026795141643756}, "geometry": {"type": "LineString", "coordinates": [[81.09401988519942, 15.934990246175165], [81.09393912698678, 15.935065850605675]]}}, {"type": "Feature", "properties": {"type": "accretion", "rate": 24.46092731874293}, "geometry": {"type": "LineString", "coordinates": [[81.09410971672783, 15.935080077703574], [81.09388116585903, 15.93508007758221]]}}, {"type": "Feature", "properties": {"type": "accretion", "rate": 18.528921151078407}, "geometry": {"type": "LineString", "coordinates": [[81.09410971672783, 15.935169909231984], [81.09398529747705, 15.935286388117703]]}}, {"type": "Feature", "properties": {"type": "accretion", "rate": 36.91487736676089}, "geometry": {"type": "LineString", "coordinates": [[81.09419954825624, 15.935259740760397], [81.09395166943939, 15.935491799679063]]}}, {"type": "Feature", "properties": {"type": "accretion", "rate": 38.304493030476955}, "geometry": {"type": "LineString", "coordinates": [[81.09428937978466, 15.93534957228881], [81.0940321696899, 15.93559036671868]]}}, {"type": "Feature", "properties": {"type": "accretion", "rate": 54.70229858517916}, "geometry": {"type": "LineString", "coordinates": [[81.09437921131307, 15.935439403817227], [81.09436488117908, 15.935933743061772]]}}, {"type": "Feature", "properties": {"type": "erosion", "rate": -48.221662732288934}, "geometry": {"type": "LineString", "coordinates": [[81.09508365198526, 15.935964181440482], [81.0954074552691, 15.935661044532546]]}}, {"type": "Feature", "properties": {"type": "accretion", "rate": 5.328386752019374}, "geometry": {"type": "LineString", "coordinates": [[81.09293151882616, 15.93381204827954], [81.09289573980477, 15.933845544417427]]}}, {"type": "Feature", "properties": {"type": "accretion", "rate": 18.85144888996596}, "geometry": {"type": "LineString", "coordinates": [[81.09349763637523, 15.934467997359954], [81.09337105209909, 15.93458650403896]]}}, {"type": "Feature", "properties": {"type": "accretion", "rate": 17.57639743224946}, "geometry": {"type": "LineString", "coordinates": [[81.09410971672783, 15.935080917908548], [81.09399169368258, 15.935191408999339]]}}, {"type": "Feature", "properties": {"type": "accretion", "rate": 17.253382983484805}, "geometry": {"type": "LineString", "coordinates": [[81.09475089983269, 15.935631429287048], [81.09463504533822, 15.935739889661305]]}}, {"type": "Feature", "properties": {"type": "accretion", "rate": 6.688712824766354}, "geometry": {"type": "LineString", "coordinates": [[81.09528048803776, 15.936250849015403], [81.09523557388607, 15.93629289635575]]}}, {"type": "Feature", "properties": {"type": "accretion", "rate": 14.85336581178498}, "geometry": {"type": "LineString", "coordinates": [[81.09537031960684, 15.93634068058448], [81.09527058039637, 15.936434053450942]]}}, {"type": "Feature", "properties": {"type": "erosion", "rate": -8.530407012978245}, "geometry": {"type": "LineString", "coordinates": [[81.09267241227325, 15.933642773248987], [81.09272969213356, 15.9335891480607]]}}, {"type": "Feature", "properties": {"type": "accretion", "rate": 17.91750129388204}, "geometry": {"type": "LineString", "coordinates": [[81.09366055908578, 15.934630920061515], [81.09354024591853, 15.93474355552743]]}}, {"type": "Feature", "properties": {"type": "accretion", "rate": 18.538603385432054}, "geometry": {"type": "LineString", "coordinates": [[81.09437921131307, 15.935439403817227], [81.09425472680026, 15.935555943483052]]}}, {"type": "Feature", "properties": {"type": "erosion", "rate": -73.16646172914173}, "geometry": {"type": "LineString", "coordinates": [[81.09528258865559, 15.936252949634483], [81.09530175813448, 15.935591751674057]]}}]}