{
"type": "FeatureCollection",
"name": "shoreline_2021",
"crs": { "type": "name", "properties": { "name": "urn:ogc:def:crs:EPSG::32644" } },
"features": [
{ "type": "Feature", "properties": { "year": 2021, "month": null }, "geometry": { "type": "LineString", "coordinates": [ [ 643589.170119880582206, 1889844.223800406325608 ], [ 643589.170119880582206, 1889844.223800406325608 ], [ 643598.660973553312942, 1889854.229973583249375 ], [ 643598.660973553312942, 1889854.229973583249375 ], [ 643608.151817998848855, 1889864.236151862656698 ], [ 643608.151817998848855, 1889864.236151862656698 ], [ 643608.082999201724306, 1889874.176147342892364 ], [ 643617.573829485569149, 1889884.18233111477457 ], [ 643617.573829485569149, 1889884.18233111477457 ], [ 643627.064650543499738, 1889894.188519990537316 ], [ 643627.064650543499738, 1889894.188519990537316 ], [ 643636.55546237656381, 1889904.19471396994777 ], [ 643636.55546237656381, 1889904.19471396994777 ], [ 643646.046264980803244, 1889914.200913053704426 ], [ 643646.046264980803244, 1889914.200913053704426 ], [ 643655.537058360292576, 1889924.207117240177467 ], [ 643655.537058360292576, 1889924.207117240177467 ], [ 643665.027842513634823, 1889934.21332653099671 ], [ 643665.027842513634823, 1889934.21332653099671 ], [ 643674.518617441994138, 1889944.219540925696492 ], [ 643674.518617441994138, 1889944.219540925696492 ], [ 643684.009383142692968, 1889954.225760424276814 ], [ 643693.569002838106826, 1889954.291986047290266 ], [ 643693.569002838106826, 1889954.291986047290266 ], [ 643703.059755022171885, 1889964.298215365037322 ], [ 643703.059755022171885, 1889964.298215365037322 ], [ 643702.990886864834465, 1889974.238214734010398 ], [ 643702.922018355689943, 1889984.178214185638353 ], [ 643712.412751442170702, 1889994.184449385851622 ], [ 643712.412751442170702, 1889994.184449385851622 ], [ 643721.903475300758146, 1890004.19068968994543 ], [ 643731.463073250837624, 1890004.256934479111806 ], [ 643731.463073250837624, 1890004.256934479111806 ], [ 643740.953783592442051, 1890014.263184601906687 ], [ 643740.953783592442051, 1890014.263184601906687 ], [ 643750.444484706036747, 1890024.269439830910414 ], [ 643760.004074371419847, 1890024.335698459297419 ], [ 643760.004074371419847, 1890024.335698459297419 ], [ 643769.494761969428509, 1890034.341963506769389 ], [ 643779.054347637691535, 1890034.408231260254979 ], [ 643779.054347637691535, 1890034.408231260254979 ], [ 643788.545021719997749, 1890044.414506128057837 ], [ 643788.545021719997749, 1890044.414506128057837 ], [ 643788.476109486306086, 1890054.354508915916085 ], [ 643797.966769403778017, 1890064.360789277590811 ], [ 643797.966769403778017, 1890064.360789277590811 ], [ 643797.897851881454699, 1890074.300792537862435 ], [ 643807.388497635256499, 1890084.307078393409029 ], [ 643807.388497635256499, 1890084.307078393409029 ], [ 643816.879134161863476, 1890094.313369353534654 ], [ 643816.879134161863476, 1890094.313369353534654 ], [ 643826.369761462789029, 1890104.319665419170633 ], [ 643826.369761462789029, 1890104.319665419170633 ], [ 643835.860379535122775, 1890114.325966588687152 ], [ 643835.860379535122775, 1890114.325966588687152 ], [ 643845.350988380261697, 1890124.332272864179686 ], [ 643845.350988380261697, 1890124.332272864179686 ], [ 643854.841587996808812, 1890134.338584244018421 ], [ 643854.841587996808812, 1890134.338584244018421 ], [ 643854.772640501032583, 1890144.278589923167601 ], [ 643854.703692653100006, 1890154.218595686368644 ], [ 643864.194273169501685, 1890164.224912950303406 ], [ 643864.194273169501685, 1890164.224912950303406 ], [ 643873.684844459872693, 1890174.23123531951569 ], [ 643873.684844459872693, 1890174.23123531951569 ], [ 643883.175406521302648, 1890184.237562793307006 ], [ 643883.175406521302648, 1890184.237562793307006 ], [ 643892.665959355072118, 1890194.243895372841507 ], [ 643892.665959355072118, 1890194.243895372841507 ], [ 643902.156502962694503, 1890204.250233058119193 ], [ 643902.156502962694503, 1890204.250233058119193 ], [ 643911.647037341143005, 1890214.256575848674402 ], [ 643911.647037341143005, 1890214.256575848674402 ], [ 643911.578059517778456, 1890224.196584030985832 ], [ 643921.068579731043428, 1890234.202932316344231 ], [ 643921.068579731043428, 1890234.202932316344231 ], [ 643920.999596617883071, 1890244.142940971534699 ], [ 643930.490102665964514, 1890254.149294751463458 ], [ 643930.490102665964514, 1890254.149294751463458 ], [ 643939.98059948743321, 1890264.155653637601063 ], [ 643949.540085005341098, 1890264.222007805947214 ], [ 643949.540085005341098, 1890264.222007805947214 ], [ 643959.030568305868655, 1890274.228376514744014 ], [ 643959.030568305868655, 1890274.228376514744014 ], [ 643968.52104237943422, 1890284.234750328585505 ], [ 643968.52104237943422, 1890284.234750328585505 ], [ 643968.45203457842581, 1890294.174760931171477 ], [ 643977.942494486342184, 1890304.18114024028182 ], [ 643977.942494486342184, 1890304.18114024028182 ], [ 643987.432945167412981, 1890314.187524655368179 ], [ 643987.432945167412981, 1890314.187524655368179 ], [ 643996.923386618727818, 1890324.193914177594706 ], [ 643996.923386618727818, 1890324.193914177594706 ], [ 644006.413818841916509, 1890334.200308803934604 ], [ 644006.413818841916509, 1890334.200308803934604 ], [ 644015.904241838026792, 1890344.206708538345993 ], [ 644015.904241838026792, 1890344.206708538345993 ], [ 644025.394655604381114, 1890354.213113377802074 ], [ 644025.394655604381114, 1890354.213113377802074 ], [ 644034.885060142260045, 1890364.219523323467001 ], [ 644034.885060142260045, 1890364.219523323467001 ], [ 644044.375455451663584, 1890374.225938376039267 ], [ 644044.375455451663584, 1890374.225938376039267 ], [ 644053.865841533755884, 1890384.232358534587547 ], [ 644063.425275564892218, 1890384.29876930010505 ], [ 644063.425275564892218, 1890384.29876930010505 ], [ 644072.915648126509041, 1890394.305199281312525 ], [ 644072.915648126509041, 1890394.305199281312525 ], [ 644082.406011459650472, 1890404.311634370358661 ], [ 644082.406011459650472, 1890404.311634370358661 ], [ 644082.336944402894005, 1890414.251649649580941 ], [ 644091.827293568989262, 1890424.258090234361589 ], [ 644091.827293568989262, 1890424.258090234361589 ], [ 644101.317633507424034, 1890434.264535925816745 ], [ 644101.317633507424034, 1890434.264535925816745 ], [ 644110.8079642157536, 1890444.270986723946407 ], [ 644110.8079642157536, 1890444.270986723946407 ], [ 644120.298285695142113, 1890454.277442629216239 ], [ 644120.298285695142113, 1890454.277442629216239 ], [ 644129.788597946753725, 1890464.283903640927747 ], [ 644129.788597946753725, 1890464.283903640927747 ], [ 644139.278900968143716, 1890474.290369760012254 ], [ 644139.278900968143716, 1890474.290369760012254 ], [ 644148.769194760359824, 1890484.296840985538438 ], [ 644148.769194760359824, 1890484.296840985538438 ], [ 644158.259479323402047, 1890494.30331731820479 ], [ 644158.259479323402047, 1890494.30331731820479 ], [ 644167.749754655873403, 1890504.309798758011311 ], [ 644167.749754655873403, 1890504.309798758011311 ], [ 644167.680642800172791, 1890514.249817629810423 ], [ 644167.611530591384508, 1890524.189836584730074 ], [ 644167.542418029741384, 1890534.129855623468757 ], [ 644167.47330511524342, 1890544.069874745327979 ], [ 644167.4041918477742, 1890554.009893948677927 ], [ 644167.335078227333724, 1890563.949913236312568 ], [ 644167.265964254038408, 1890573.889932607067749 ], [ 644167.196849927888252, 1890583.829952060012147 ], [ 644167.127735248650424, 1890593.769971597008407 ], [ 644167.058620216674171, 1890603.709991216426715 ], [ 644157.499283825978637, 1890603.643525189254433 ], [ 644157.430173026979901, 1890613.583544584689662 ], [ 644157.361061875126325, 1890623.523564063943923 ], [ 644157.291950370417908, 1890633.46358362515457 ], [ 644157.222838512738235, 1890643.403603269718587 ], [ 644147.663520760135725, 1890643.337140425108373 ], [ 644147.5944131356664, 1890653.277159846387804 ], [ 644138.035100264241919, 1890653.210701105184853 ], [ 644137.965996873099357, 1890663.150720302481204 ], [ 644137.896893129101954, 1890673.090739582898095 ], [ 644128.337589725153521, 1890673.024284638697281 ], [ 644128.268490214482881, 1890682.964303694432601 ], [ 644128.199390350957401, 1890692.904322834452614 ], [ 644128.130290134693496, 1890702.844342056894675 ], [ 644118.571000783122145, 1890702.777890602359548 ], [ 644118.501904800185002, 1890712.717909600585699 ], [ 644118.432808464509435, 1890722.657928682630882 ], [ 644108.873528581811115, 1890722.591481025563553 ], [ 644108.804436479695141, 1890732.531499883392826 ], [ 644108.735344024724327, 1890742.4715188248083 ], [ 644108.666251217015088, 1890752.411537848645821 ], [ 644118.156419593840837, 1890762.418005841551349 ], [ 644118.156419593840837, 1890762.418005841551349 ], [ 644127.646578741492704, 1890772.424478940665722 ], [ 644127.646578741492704, 1890772.424478940665722 ], [ 644137.136728657293133, 1890782.430957148550078 ], [ 644137.136728657293133, 1890782.430957148550078 ], [ 644146.626869342522696, 1890792.437440462876111 ], [ 644146.626869342522696, 1890792.437440462876111 ], [ 644156.11700079718139, 1890802.443928885273635 ], [ 644165.676245463080704, 1890802.510401051258668 ], [ 644165.676245463080704, 1890802.510401051258668 ], [ 644175.166363397147506, 1890812.516899299342185 ], [ 644175.166363397147506, 1890812.516899299342185 ], [ 644175.09723601443693, 1890822.456921053351834 ], [ 644175.028108278755099, 1890832.396942890482023 ], [ 644174.958980190102011, 1890842.336964810499921 ], [ 644174.889851748710498, 1890852.27698681387119 ], [ 644174.820722954114899, 1890862.217008900362998 ], [ 644174.751593806780875, 1890872.157031069975346 ], [ 644184.241672871517949, 1890882.163536765379831 ], [ 644184.241672871517949, 1890882.163536765379831 ], [ 644184.172538431594148, 1890892.103559408104047 ], [ 644184.103403638582677, 1890902.043582133948803 ], [ 644193.593463592929766, 1890912.050093717640266 ], [ 644193.593463592929766, 1890912.050093717640266 ], [ 644203.083514316007495, 1890922.056610409868881 ], [ 644212.642705421429127, 1890922.123108314350247 ], [ 644222.201896820566617, 1890922.189610630040988 ], [ 644231.761088515166193, 1890922.256117356009781 ], [ 644231.761088515166193, 1890922.256117356009781 ], [ 644241.251117133884691, 1890932.262653310783207 ], [ 644241.251117133884691, 1890932.262653310783207 ], [ 644241.181953408406116, 1890942.202678210800514 ], [ 644241.112789329723455, 1890952.14270319417119 ], [ 644241.043624897953123, 1890962.082728260429576 ], [ 644240.974460113211535, 1890972.02275340934284 ], [ 644240.905294975265861, 1890981.962778641609475 ], [ 644240.836129484232515, 1890991.902803957462311 ], [ 644250.326119230478071, 1891001.909347361652181 ], [ 644250.326119230478071, 1891001.909347361652181 ], [ 644259.816099744988605, 1891011.915895873913541 ], [ 644269.375251337653026, 1891011.982423008885235 ], [ 644269.375251337653026, 1891011.982423008885235 ], [ 644278.865218328894116, 1891021.988981348229572 ], [ 644288.424365928163752, 1891022.055517612723634 ], [ 644288.424365928163752, 1891022.055517612723634 ], [ 644297.914319395902567, 1891032.062085779150948 ], [ 644307.473462997702882, 1891032.1286311740987 ], [ 644307.473462997702882, 1891032.1286311740987 ], [ 644316.963402942055836, 1891042.13520916714333 ], [ 644326.522542548947968, 1891042.201763690682128 ], [ 644326.522542548947968, 1891042.201763690682128 ], [ 644336.012468969915062, 1891052.208351512206718 ], [ 644336.012468969915062, 1891052.208351512206718 ], [ 644345.50238615879789, 1891062.214944442501292 ], [ 644345.50238615879789, 1891062.214944442501292 ], [ 644354.992294117226265, 1891072.221542481798679 ], [ 644364.551421143580228, 1891072.288115572649986 ], [ 644364.551421143580228, 1891072.288115572649986 ], [ 644374.04131557571236, 1891082.294723439961672 ], [ 644374.04131557571236, 1891082.294723439961672 ], [ 644383.531200776807964, 1891092.301336416741833 ], [ 644393.090319515904412, 1891092.367923356359825 ], [ 644402.649438551743515, 1891092.434514707885683 ], [ 644412.208557881996967, 1891092.501110470853746 ], [ 644421.767677507945336, 1891092.567710645031184 ], [ 644431.326797429588623, 1891092.634315230650827 ], [ 644440.885917648207396, 1891092.700924227712676 ], [ 644450.445038161356933, 1891092.76753763621673 ], [ 644460.004158970201388, 1891092.83415545639582 ], [ 644469.563280076137744, 1891092.900777687085792 ], [ 644469.563280076137744, 1891092.900777687085792 ], [ 644479.053117420524359, 1891102.907438242575154 ], [ 644479.053117420524359, 1891102.907438242575154 ], [ 644488.54294553399086, 1891112.91410390753299 ], [ 644488.54294553399086, 1891112.91410390753299 ], [ 644488.473656184738502, 1891122.854138294700533 ], [ 644497.963470124988817, 1891132.860809459816664 ], [ 644497.963470124988817, 1891132.860809459816664 ], [ 644507.453274832689203, 1891142.867485735565424 ], [ 644507.453274832689203, 1891142.867485735565424 ], [ 644516.943070309236646, 1891152.874167120549828 ], [ 644516.943070309236646, 1891152.874167120549828 ], [ 644526.432856551953591, 1891162.880853615934029 ], [ 644526.432856551953591, 1891162.880853615934029 ], [ 644535.922633562004194, 1891172.887545221019536 ], [ 644535.922633562004194, 1891172.887545221019536 ], [ 644545.412401339621283, 1891182.89424193627201 ], [ 644545.412401339621283, 1891182.89424193627201 ], [ 644554.902159885736182, 1891192.90094376122579 ], [ 644554.902159885736182, 1891192.90094376122579 ], [ 644564.391909197787754, 1891202.907650697510689 ], [ 644564.391909197787754, 1891202.907650697510689 ], [ 644573.881649277056567, 1891212.914362742332742 ], [ 644573.881649277056567, 1891212.914362742332742 ], [ 644583.371380122029223, 1891222.921079898485914 ], [ 644583.371380122029223, 1891222.921079898485914 ], [ 644583.302041007089429, 1891232.861118276137859 ], [ 644592.791757680475712, 1891242.867840933380648 ], [ 644592.791757680475712, 1891242.867840933380648 ], [ 644592.722413270035759, 1891252.807879784610122 ], [ 644592.653068505576812, 1891262.747918718727306 ], [ 644602.142766061471775, 1891272.754647268215194 ], [ 644602.142766061471775, 1891272.754647268215194 ], [ 644611.632454384234734, 1891282.761380928335711 ], [ 644611.632454384234734, 1891282.761380928335711 ], [ 644621.122133473749273, 1891292.768119699088857 ], [ 644621.122133473749273, 1891292.768119699088857 ], [ 644630.611803331412375, 1891302.77486358047463 ], [ 644630.611803331412375, 1891302.77486358047463 ], [ 644630.542438446427695, 1891312.714904161868617 ], [ 644640.032094127731398, 1891322.721653544576839 ], [ 644640.032094127731398, 1891322.721653544576839 ], [ 644649.521740575437434, 1891332.72840803861618 ], [ 644649.521740575437434, 1891332.72840803861618 ], [ 644649.452365452772938, 1891342.668449484510347 ], [ 644658.941997725167312, 1891352.675209479406476 ], [ 644658.941997725167312, 1891352.675209479406476 ], [ 644658.872617306536995, 1891362.615251400275156 ], [ 644668.36223540478386, 1891372.622016897192225 ], [ 644668.36223540478386, 1891372.622016897192225 ], [ 644677.85184426791966, 1891382.628787506371737 ], [ 644677.85184426791966, 1891382.628787506371737 ], [ 644677.78245361126028, 1891392.568830291507766 ], [ 644687.272048297221772, 1891402.575606402009726 ], [ 644687.272048297221772, 1891402.575606402009726 ], [ 644696.761633750866167, 1891412.582387623842806 ], [ 644706.320615455158986, 1891412.649129998637363 ], [ 644706.320615455158986, 1891412.649129998637363 ], [ 644715.81018738320563, 1891422.655921051977202 ], [ 644715.81018738320563, 1891422.655921051977202 ], [ 644725.299750077305362, 1891432.662717216648161 ], [ 644725.299750077305362, 1891432.662717216648161 ], [ 644734.789303537341766, 1891442.669518492184579 ], [ 644744.348272662842646, 1891442.736279439646751 ], [ 644753.907242083223537, 1891442.803044799016789 ], [ 644753.907242083223537, 1891442.803044799016789 ], [ 644763.396777725894935, 1891452.809860626934096 ], [ 644772.955743151018396, 1891452.87663511862047 ], [ 644772.955743151018396, 1891452.87663511862047 ], [ 644782.445265269372612, 1891462.883460778510198 ], [ 644792.004226697841659, 1891462.950244402512908 ], [ 644792.004226697841659, 1891462.950244402512908 ], [ 644801.49373528896831, 1891472.957079894607887 ], [ 644801.49373528896831, 1891472.957079894607887 ], [ 644810.983234645915218, 1891482.963920498266816 ], [ 644820.542187790153548, 1891483.030717975459993 ], [ 644820.542187790153548, 1891483.030717975459993 ], [ 644830.031673621153459, 1891493.037568411557004 ], [ 644830.031673621153459, 1891493.037568411557004 ], [ 644839.521150217857212, 1891503.044423959916458 ], [ 644839.521150217857212, 1891503.044423959916458 ], [ 644849.010617580031976, 1891513.051284619839862 ], [ 644858.569558146060444, 1891513.118100671097636 ], [ 644858.569558146060444, 1891513.118100671097636 ], [ 644868.059011982288212, 1891523.124971163924783 ], [ 644877.617948551778682, 1891523.191796348197386 ], [ 644877.617948551778682, 1891523.191796348197386 ], [ 644887.107388861826621, 1891533.198676673695445 ], [ 644896.666321436408907, 1891533.265510991448537 ], [ 644906.225254307501018, 1891533.332349721342325 ], [ 644906.225254307501018, 1891533.332349721342325 ], [ 644915.714676799834706, 1891543.339244600152597 ], [ 644925.273605676018633, 1891543.406092463061213 ], [ 644925.273605676018633, 1891543.406092463061213 ], [ 644934.763014643453062, 1891553.412997176172212 ], [ 644944.32193952484522, 1891553.479854172328487 ], [ 644944.32193952484522, 1891553.479854172328487 ], [ 644953.811334964702837, 1891563.486768719274551 ], [ 644963.370255851303227, 1891563.553634848678485 ], [ 644963.370255851303227, 1891563.553634848678485 ], [ 644972.85963776614517, 1891573.560559227596968 ], [ 644972.85963776614517, 1891573.560559227596968 ], [ 644982.349010444944724, 1891583.567488720873371 ], [ 644991.907923045218922, 1891583.634368704631925 ], [ 644991.907923045218922, 1891583.634368704631925 ], [ 645001.397282196208835, 1891593.641308031743392 ], [ 645001.397282196208835, 1891593.641308031743392 ], [ 645010.88663211511448, 1891603.648252470884472 ], [ 645010.88663211511448, 1891603.648252470884472 ], [ 645020.375972797628492, 1891613.655202023219317 ], [ 645029.934872820042074, 1891613.722100582672283 ], [ 645039.493773139431141, 1891613.789003555430099 ], [ 645039.493773139431141, 1891613.789003555430099 ], [ 645048.983096005162224, 1891623.795967663172632 ], [ 645048.983096005162224, 1891623.795967663172632 ], [ 645058.472409634618089, 1891633.802936884341761 ], [ 645058.472409634618089, 1891633.802936884341761 ], [ 645067.961714028846473, 1891643.809911218238994 ], [ 645067.961714028846473, 1891643.809911218238994 ], [ 645067.892126034712419, 1891653.749968807445839 ], [ 645067.822537685511634, 1891663.690026480704546 ], [ 645067.752948981127702, 1891673.630084236618131 ], [ 645067.683359921560623, 1891683.570142074720934 ], [ 645077.172635305789299, 1891693.577123090159148 ], [ 645077.172635305789299, 1891693.577123090159148 ], [ 645077.103040947462432, 1891703.517181403469294 ], [ 645086.592302153818309, 1891713.524167923955247 ], [ 645086.592302153818309, 1891713.524167923955247 ], [ 645086.522702496498823, 1891723.464226712007076 ], [ 645086.453102483879775, 1891733.404285584343597 ], [ 645095.942344565526582, 1891743.411278001498431 ], [ 645095.942344565526582, 1891743.411278001498431 ], [ 645105.431577410316095, 1891753.418275532312691 ], [ 645105.431577410316095, 1891753.418275532312691 ], [ 645114.920801020576619, 1891763.425278176786378 ], [ 645114.920801020576619, 1891763.425278176786378 ], [ 645114.851185820880346, 1891773.365338307572529 ], [ 645114.781570266000926, 1891783.305398521479219 ], [ 645114.71195435593836, 1891793.245458817807958 ], [ 645114.642338090576231, 1891803.185519197257236 ], [ 645124.131532690022141, 1891813.192528524203226 ], [ 645124.131532690022141, 1891813.192528524203226 ], [ 645124.061911125201732, 1891823.132589377928525 ], [ 645133.551091543049552, 1891833.139604210620746 ], [ 645133.551091543049552, 1891833.139604210620746 ], [ 645133.481464678770863, 1891843.07966554001905 ], [ 645133.411837459192611, 1891853.019726952770725 ], [ 645133.342209884314798, 1891862.959788449108601 ], [ 645133.272581954253837, 1891872.899850027170032 ], [ 645133.2029536687769, 1891882.839911689050496 ], [ 645123.644174275919795, 1891882.772956250002608 ], [ 645123.574550224235281, 1891892.713017686270177 ], [ 645123.504925817484036, 1891902.653079205192626 ], [ 645113.946155898622237, 1891902.586127561284229 ], [ 645113.876535725547001, 1891912.526188854826614 ], [ 645113.806915197288617, 1891922.466250231256709 ], [ 645104.248154755216092, 1891922.399302382487804 ], [ 645104.178538460982963, 1891932.339363532606512 ], [ 645094.619782906374894, 1891932.272419787943363 ], [ 645094.550170846050605, 1891942.212480712914839 ], [ 645084.991420176345855, 1891942.145541072590277 ], [ 645084.921812350046821, 1891952.085601771483198 ], [ 645075.36306656524539, 1891952.018666235264391 ], [ 645075.293462973088026, 1891961.958726708777249 ], [ 645065.734722075867467, 1891961.89179527759552 ], [ 645065.665122717851773, 1891971.831855524796993 ], [ 645065.595523004652932, 1891981.771915854653344 ], [ 645056.036791583057493, 1891981.704988219076768 ], [ 645055.967196104000323, 1891991.645048324018717 ], [ 645055.897600269992836, 1892001.585108511149883 ], [ 645055.828004080918618, 1892011.525168781867251 ], [ 645055.758407536661252, 1892021.465229135472327 ], [ 645065.247519112192094, 1892031.472218752140179 ], [ 645065.247519112192094, 1892031.472218752140179 ], [ 645065.177917268360034, 1892041.412279580486938 ], [ 645065.108315069344826, 1892051.352340491954237 ], [ 645065.038712515262887, 1892061.292401486076415 ], [ 645064.969109605997801, 1892071.232462564716116 ], [ 645064.899506341665983, 1892081.172523725312203 ], [ 645064.829902722267434, 1892091.112584969028831 ], [ 645064.760298747685738, 1892101.052646295633167 ], [ 645064.690694417920895, 1892110.992707705590874 ], [ 645074.179757199133746, 1892120.999705570284277 ], [ 645074.179757199133746, 1892120.999705570284277 ], [ 645074.110147569561377, 1892130.939767455449328 ], [ 645074.040537584805861, 1892140.879829423502088 ], [ 645073.970927244983613, 1892150.819891474675387 ], [ 645073.901316549978219, 1892160.759953608503565 ], [ 645073.831705499906093, 1892170.700015825685114 ], [ 645073.76209409465082, 1892180.640078125987202 ], [ 645073.6924823342124, 1892190.580140509176999 ], [ 645073.622870218590833, 1892200.520202975487337 ], [ 645073.553257747902535, 1892210.460265524918213 ], [ 645083.042266788892448, 1892220.467272031353787 ], [ 645083.042266788892448, 1892220.467272031353787 ], [ 645092.531266590463929, 1892230.474283651681617 ], [ 645092.531266590463929, 1892230.474283651681617 ], [ 645092.461643874528818, 1892240.41434706794098 ], [ 645101.950629491708241, 1892250.421364195412025 ], [ 645101.950629491708241, 1892250.421364195412025 ], [ 645111.439605872146785, 1892260.428386437008157 ], [ 645111.439605872146785, 1892260.428386437008157 ], [ 645120.928573015728034, 1892270.435413793893531 ], [ 645120.928573015728034, 1892270.435413793893531 ], [ 645120.858935109106824, 1892280.375478468369693 ], [ 645130.347888067830354, 1892290.38251133216545 ], [ 645130.347888067830354, 1892290.38251133216545 ], [ 645139.836831788299605, 1892300.389549309853464 ], [ 645149.395419013220817, 1892300.456526551861316 ], [ 645158.954006536514498, 1892300.523508207639679 ], [ 645168.512594355503097, 1892300.590494276955724 ], [ 645178.071182471700013, 1892300.657484760740772 ], [ 645187.629770885105245, 1892300.72447965783067 ], [ 645197.188359596999362, 1892300.791478969156742 ], [ 645197.188359596999362, 1892300.791478969156742 ], [ 645206.677268320228904, 1892310.798550399718806 ], [ 645206.677268320228904, 1892310.798550399718806 ], [ 645216.166167806368321, 1892320.805626946035773 ], [ 645216.166167806368321, 1892320.805626946035773 ], [ 645225.655058054137044, 1892330.812708606244996 ], [ 645225.655058054137044, 1892330.812708606244996 ], [ 645235.14393906458281, 1892340.819795381976292 ], [ 645235.14393906458281, 1892340.819795381976292 ], [ 645244.632810835144483, 1892350.82688727369532 ], [ 645244.632810835144483, 1892350.82688727369532 ], [ 645254.121673366986215, 1892360.833984280703589 ], [ 645263.68023661756888, 1892360.901016345014796 ], [ 645263.68023661756888, 1892360.901016345014796 ], [ 645273.169085619272664, 1892370.908123190514743 ], [ 645282.727644874248654, 1892370.975164391566068 ], [ 645282.727644874248654, 1892370.975164391566068 ], [ 645292.216480342904106, 1892380.982281076256186 ], [ 645301.775035602389835, 1892381.049331415211782 ], [ 645301.775035602389835, 1892381.049331415211782 ], [ 645311.263857539393939, 1892391.056457938160747 ], [ 645311.263857539393939, 1892391.056457938160747 ], [ 645320.752670237561688, 1892401.063589577795938 ], [ 645330.311217208742164, 1892401.13065377715975 ], [ 645330.311217208742164, 1892401.13065377715975 ], [ 645339.80001637514215, 1892411.137795256217942 ], [ 645349.358559352345765, 1892411.204868592787534 ], [ 645349.358559352345765, 1892411.204868592787534 ], [ 645358.847344986861572, 1892421.212019910803065 ], [ 645358.847344986861572, 1892421.212019910803065 ], [ 645368.336121382308193, 1892431.21917634550482 ], [ 645368.336121382308193, 1892431.21917634550482 ], [ 645377.824888538685627, 1892441.226337895728648 ], [ 645377.824888538685627, 1892441.226337895728648 ], [ 645377.755120651447214, 1892451.166412330465391 ], [ 645387.243873623665422, 1892461.173579388996586 ], [ 645387.243873623665422, 1892461.173579388996586 ], [ 645387.174100434174761, 1892471.113654299871996 ], [ 645396.662839219439775, 1892481.12082686740905 ], [ 645396.662839219439775, 1892481.12082686740905 ] ] } },
{ "type": "Feature", "properties": { "year": 2021, "month": null }, "geometry": { "type": "LineString", "coordinates": [ [ 645473.130948581034318, 1892481.657766376622021 ], [ 645473.200763441040181, 1892471.717688597273082 ], [ 645473.270577944698744, 1892461.777610900811851 ], [ 645473.340392092359252, 1892451.837533287936822 ], [ 645473.340392092359252, 1892451.837533287936822 ], [ 645463.851672810036689, 1892441.830324108013883 ], [ 645463.851672810036689, 1892441.830324108013883 ], [ 645454.36294428713154, 1892431.823120043613017 ], [ 645454.36294428713154, 1892431.823120043613017 ], [ 645444.874206526437774, 1892421.815921095665544 ], [ 645444.874206526437774, 1892421.815921095665544 ], [ 645435.385459526674822, 1892411.808727265335619 ], [ 645435.385459526674822, 1892411.808727265335619 ], [ 645425.896703287842683, 1892401.801538550760597 ], [ 645425.896703287842683, 1892401.801538550760597 ], [ 645416.40793780866079, 1892391.794354952173308 ], [ 645416.40793780866079, 1892391.794354952173308 ], [ 645406.919163093320094, 1892381.787176470272243 ], [ 645406.919163093320094, 1892381.787176470272243 ], [ 645397.430379137746058, 1892371.780003104126081 ], [ 645397.430379137746058, 1892371.780003104126081 ], [ 645387.941585943335667, 1892361.772834854666144 ], [ 645387.941585943335667, 1892361.772834854666144 ], [ 645378.452783508808352, 1892351.765671720495448 ], [ 645378.452783508808352, 1892351.765671720495448 ], [ 645368.963971836841665, 1892341.758513702312484 ], [ 645368.963971836841665, 1892341.758513702312484 ], [ 645359.475150926271453, 1892331.751360801048577 ], [ 645359.475150926271453, 1892331.751360801048577 ], [ 645349.986320777097717, 1892321.744213015306741 ], [ 645349.986320777097717, 1892321.744213015306741 ], [ 645340.427736487705261, 1892321.677142461994663 ], [ 645330.938892807345837, 1892311.670004514744505 ], [ 645330.938892807345837, 1892311.670004514744505 ], [ 645321.450039888499305, 1892301.662871683947742 ], [ 645321.450039888499305, 1892301.662871683947742 ], [ 645311.891447312780656, 1892301.595814991509542 ], [ 645302.402580862864852, 1892291.588691998505965 ], [ 645302.402580862864852, 1892291.588691998505965 ], [ 645292.913705174461938, 1892281.581574121955782 ], [ 645292.913705174461938, 1892281.581574121955782 ], [ 645283.355104310787283, 1892281.514531289692968 ], [ 645273.866215091547929, 1892271.507423251401633 ], [ 645273.866215091547929, 1892271.507423251401633 ], [ 645264.377316632540897, 1892261.500320329330862 ], [ 645264.377316632540897, 1892261.500320329330862 ], [ 645254.888408936676569, 1892251.493222521618009 ], [ 645254.888408936676569, 1892251.493222521618009 ], [ 645245.399492002674378, 1892241.486129828728735 ], [ 645245.399492002674378, 1892241.486129828728735 ], [ 645235.910565830534324, 1892231.479042251594365 ], [ 645235.910565830534324, 1892231.479042251594365 ], [ 645226.421630418975838, 1892221.471959789749235 ], [ 645226.491316682775505, 1892211.531892213970423 ], [ 645226.491316682775505, 1892211.531892213970423 ], [ 645217.002367089153267, 1892201.524815259268507 ], [ 645217.072048051981255, 1892191.584748158464208 ], [ 645217.141728659393266, 1892181.644681140547618 ], [ 645217.141728659393266, 1892181.644681140547618 ], [ 645207.652759937336668, 1892171.637610085075721 ], [ 645207.72243524400983, 1892161.697543542366475 ], [ 645207.792110195150599, 1892151.757477083010599 ], [ 645207.86178479087539, 1892141.817410707008094 ], [ 645207.931459031067789, 1892131.877344413427636 ], [ 645207.931459031067789, 1892131.877344413427636 ], [ 645198.442461292026564, 1892121.870280040893704 ], [ 645198.512130231712945, 1892111.930214222986251 ], [ 645198.581798815866932, 1892101.990148488432169 ], [ 645198.651467044604942, 1892092.050082836300135 ], [ 645198.72113491804339, 1892082.110017267521471 ], [ 645198.790802435833029, 1892072.169951781863347 ], [ 645198.860469598323107, 1892062.229886378161609 ], [ 645198.930136405280791, 1892052.289821058744565 ], [ 645198.999802856938913, 1892042.349755821982399 ], [ 645208.558511197334155, 1892042.416751511394978 ], [ 645208.628181882784702, 1892032.476686048088595 ], [ 645208.697852212935686, 1892022.536620668368414 ], [ 645218.256570030818693, 1892022.603620152920485 ], [ 645218.326244594762102, 1892012.663554547121748 ], [ 645227.884967299294658, 1892012.730558134848252 ], [ 645227.954646097263321, 1892002.790492303436622 ], [ 645228.024324539583176, 1891992.850426554679871 ], [ 645237.583056721603498, 1891992.917433937778696 ], [ 645237.652739397832192, 1891982.977367962710559 ], [ 645237.722421718528494, 1891973.037302071228623 ], [ 645237.792103683575988, 1891963.097236262168735 ], [ 645237.861785293207504, 1891953.157170535530895 ], [ 645237.931466547306627, 1891943.217104893643409 ], [ 645237.931466547306627, 1891943.217104893643409 ], [ 645228.442387728253379, 1891933.21003380510956 ], [ 645228.442387728253379, 1891933.21003380510956 ], [ 645218.953299673739821, 1891923.202967831864953 ], [ 645218.953299673739821, 1891923.202967831864953 ], [ 645209.464202382834628, 1891913.195906972046942 ], [ 645209.53386844729539, 1891903.255842589074746 ], [ 645209.53386844729539, 1891903.255842589074746 ], [ 645200.044756976538338, 1891893.248787236399949 ], [ 645200.114417740958743, 1891883.308723327703774 ], [ 645200.18407814996317, 1891873.368659502826631 ], [ 645200.253738203435205, 1891863.428595761302859 ], [ 645200.323397901491262, 1891853.488532101502642 ], [ 645200.393057244014926, 1891843.548468525521457 ], [ 645200.462716231239028, 1891833.608405033359304 ], [ 645200.462716231239028, 1891833.608405033359304 ], [ 645190.973565854597837, 1891823.601357147097588 ], [ 645191.043219541897997, 1891813.661294130142778 ], [ 645191.043219541897997, 1891813.661294130142778 ], [ 645181.554054986103438, 1891803.654251750092953 ], [ 645181.623703373712488, 1891793.714189207181334 ], [ 645181.69335140590556, 1891783.774126747855917 ], [ 645181.762999082566239, 1891773.834064371883869 ], [ 645181.832646403927356, 1891763.894002077868208 ], [ 645181.902293369988911, 1891753.95393986813724 ], [ 645191.461134201847017, 1891754.020917767193168 ], [ 645191.530785401118919, 1891744.080855330917984 ], [ 645201.089631120325066, 1891744.147837333846837 ], [ 645201.159286553040147, 1891734.20777467219159 ], [ 645201.228941630222835, 1891724.267712092027068 ], [ 645201.298596351989545, 1891714.327649595914409 ], [ 645201.368250718223862, 1891704.387587182223797 ], [ 645201.437904729042202, 1891694.447524851886556 ], [ 645201.50755838456098, 1891684.507462604437023 ], [ 645201.577211684430949, 1891674.567400440340862 ], [ 645211.136089819017798, 1891674.634384692646563 ], [ 645211.205747351981699, 1891664.694322302006185 ], [ 645211.275404529646039, 1891654.754259994486347 ], [ 645220.834292139858007, 1891654.821248041000217 ], [ 645220.903953550616279, 1891644.881185508100316 ], [ 645220.973614605725743, 1891634.941123057156801 ], [ 645221.043275305419229, 1891625.001060690032318 ], [ 645221.112935649580322, 1891615.060998406028375 ], [ 645221.112935649580322, 1891615.060998406028375 ], [ 645211.623685085447505, 1891605.053949703229591 ], [ 645211.623685085447505, 1891605.053949703229591 ], [ 645202.134425287600607, 1891595.046906115021557 ], [ 645202.134425287600607, 1891595.046906115021557 ], [ 645192.575510739698075, 1891594.979928747983649 ], [ 645183.08623741439078, 1891584.972894995473325 ], [ 645183.08623741439078, 1891584.972894995473325 ], [ 645173.596954854205251, 1891574.965866355225444 ], [ 645173.596954854205251, 1891574.965866355225444 ], [ 645164.107663059025072, 1891564.958842830266804 ], [ 645164.107663059025072, 1891564.958842830266804 ], [ 645154.618362027569674, 1891554.951824417104945 ], [ 645154.618362027569674, 1891554.951824417104945 ], [ 645145.129051762865856, 1891544.944811118301004 ], [ 645145.198672556667589, 1891535.004751970758662 ], [ 645145.198672556667589, 1891535.004751970758662 ], [ 645135.70934811362531, 1891524.99774417723529 ], [ 645135.70934811362531, 1891524.99774417723529 ], [ 645126.220014435821213, 1891514.990741497371346 ], [ 645126.220014435821213, 1891514.990741497371346 ], [ 645116.661065558670089, 1891514.923801901517436 ], [ 645107.102116980124265, 1891514.856866718502715 ], [ 645097.612765486817807, 1891504.849878593813628 ], [ 645097.612765486817807, 1891504.849878593813628 ], [ 645088.123404757701792, 1891494.842895582318306 ], [ 645088.123404757701792, 1891494.842895582318306 ], [ 645078.56444789248053, 1891494.775974253425375 ], [ 645069.005491325631738, 1891494.709057337604463 ], [ 645059.446535055758432, 1891494.642144833458588 ], [ 645049.957152218790725, 1891484.635181098012254 ], [ 645049.957152218790725, 1891484.635181098012254 ], [ 645040.398191953310743, 1891484.568277727114037 ], [ 645030.839231986203231, 1891484.501378769055009 ], [ 645021.28027231595479, 1891484.434484222671017 ], [ 645011.721312942565419, 1891484.367594088427722 ], [ 645002.231903704931028, 1891474.360654350370169 ], [ 645002.231903704931028, 1891474.360654350370169 ], [ 644992.742485235678032, 1891464.353719724342227 ], [ 644992.742485235678032, 1891464.353719724342227 ], [ 644983.253057530615479, 1891454.346790211042389 ], [ 644983.322597129736096, 1891444.406737060984597 ], [ 644983.322597129736096, 1891444.406737060984597 ], [ 644973.83315524761565, 1891434.399813051335514 ], [ 644973.83315524761565, 1891434.399813051335514 ], [ 644964.343704130034894, 1891424.392894154880196 ], [ 644964.343704130034894, 1891424.392894154880196 ], [ 644954.854243779554963, 1891414.385980370687321 ], [ 644954.854243779554963, 1891414.385980370687321 ], [ 644945.364774195244536, 1891404.379071698756889 ], [ 644945.364774195244536, 1891404.379071698756889 ], [ 644935.875295376987197, 1891394.372168138856068 ], [ 644935.875295376987197, 1891394.372168138856068 ], [ 644926.31629738130141, 1891394.305320492014289 ], [ 644916.826805037911981, 1891384.298426764784381 ], [ 644916.826805037911981, 1891384.298426764784381 ], [ 644907.33730346057564, 1891374.291538149816915 ], [ 644907.33730346057564, 1891374.291538149816915 ], [ 644897.847792649525218, 1891364.284654647577554 ], [ 644897.847792649525218, 1891364.284654647577554 ], [ 644888.288782078190707, 1891364.21782557410188 ], [ 644878.799257742241025, 1891354.210951903369278 ], [ 644878.799257742241025, 1891354.210951903369278 ], [ 644869.309724172460847, 1891344.204083345131949 ], [ 644869.309724172460847, 1891344.204083345131949 ], [ 644859.75070531538222, 1891344.13726812414825 ], [ 644850.261158219422214, 1891334.130409397417679 ], [ 644850.261158219422214, 1891334.130409397417679 ], [ 644840.771601891377941, 1891324.123555782949552 ], [ 644840.771601891377941, 1891324.123555782949552 ], [ 644831.212574748322368, 1891324.056754414457828 ], [ 644821.723004895495251, 1891314.049910632194951 ], [ 644821.723004895495251, 1891314.049910632194951 ], [ 644812.233425807789899, 1891304.043071960564703 ], [ 644812.233425807789899, 1891304.043071960564703 ], [ 644802.674390378873795, 1891303.976284444797784 ], [ 644793.115355246351101, 1891303.909501339774579 ], [ 644783.556320411735214, 1891303.842722648056224 ], [ 644773.997285870835185, 1891303.775948367547244 ], [ 644764.438251627609134, 1891303.7091784987133 ], [ 644754.879217680776492, 1891303.642413041787222 ], [ 644745.320184030337259, 1891303.575651997001842 ], [ 644735.830565670272335, 1891293.568851477233693 ], [ 644735.830565670272335, 1891293.568851477233693 ], [ 644726.271528024692088, 1891293.502099564066157 ], [ 644716.78189614135772, 1891283.495308875571936 ], [ 644716.78189614135772, 1891283.495308875571936 ], [ 644707.292255024658516, 1891273.488523298176005 ], [ 644707.292255024658516, 1891273.488523298176005 ], [ 644697.733209091471508, 1891273.421785236569121 ], [ 644688.243554450105876, 1891263.415009489748627 ], [ 644688.243554450105876, 1891263.415009489748627 ], [ 644678.753890577121638, 1891253.408238854724914 ], [ 644678.823276275536045, 1891243.468197231879458 ], [ 644678.892661619698629, 1891233.528155692620203 ], [ 644678.962046609842218, 1891223.588114236015826 ], [ 644678.962046609842218, 1891223.588114236015826 ], [ 644669.472358677303419, 1891213.581349884392694 ], [ 644669.472358677303419, 1891213.581349884392694 ], [ 644659.982661510352045, 1891203.574590643169358 ], [ 644659.982661510352045, 1891203.574590643169358 ], [ 644650.492955112014897, 1891193.567836512811482 ], [ 644650.492955112014897, 1891193.567836512811482 ], [ 644641.00323948089499, 1891183.561087493319064 ], [ 644641.072604350512847, 1891173.621047683758661 ], [ 644641.141968866111711, 1891163.681007957085967 ], [ 644641.211333027575165, 1891153.740968314465135 ], [ 644650.77043223194778, 1891153.807676209835336 ], [ 644650.839800626737997, 1891143.867636341834441 ], [ 644650.909168667392805, 1891133.927596556022763 ], [ 644660.468277342501096, 1891133.994308247230947 ], [ 644660.537649616366252, 1891124.054268237669021 ], [ 644660.607021535979584, 1891114.114228310529143 ], [ 644660.676393101573922, 1891104.174188466742635 ], [ 644660.676393101573922, 1891104.174188466742635 ], [ 644651.186637288890779, 1891094.167438246542588 ], [ 644651.186637288890779, 1891094.167438246542588 ], [ 644641.696872243774123, 1891084.160693136975169 ], [ 644641.696872243774123, 1891084.160693136975169 ], [ 644632.137741224840283, 1891084.093991808360443 ], [ 644622.647962655173615, 1891074.087256527738646 ], [ 644622.647962655173615, 1891074.087256527738646 ], [ 644613.08882764109876, 1891074.020564330276102 ], [ 644603.5296929233009, 1891073.953876543790102 ], [ 644593.970558501547202, 1891073.887193168746307 ], [ 644584.480757826357149, 1891063.880477156955749 ], [ 644584.480757826357149, 1891063.880477156955749 ], [ 644574.921619410859421, 1891063.813802912365645 ], [ 644565.362481290008873, 1891063.747133079217747 ], [ 644555.803343465202488, 1891063.680467657279223 ], [ 644546.313520684605464, 1891053.673770911758766 ], [ 644546.313520684605464, 1891053.673770911758766 ], [ 644536.823688673204742, 1891043.667079276405275 ], [ 644536.823688673204742, 1891043.667079276405275 ], [ 644527.333847429836169, 1891033.660392752382904 ], [ 644527.333847429836169, 1891033.660392752382904 ], [ 644517.774697027634829, 1891033.593745898688212 ], [ 644508.284842259716243, 1891023.587069201748818 ], [ 644508.284842259716243, 1891023.587069201748818 ], [ 644498.794978261343203, 1891013.580397615209222 ], [ 644498.794978261343203, 1891013.580397615209222 ], [ 644489.235819572699256, 1891013.513764610746875 ], [ 644479.745942051289603, 1891003.507102852221578 ], [ 644479.745942051289603, 1891003.507102852221578 ], [ 644470.186779368435964, 1891003.440478978445753 ], [ 644460.696888322825544, 1890993.433827047934756 ], [ 644460.696888322825544, 1890993.433827047934756 ], [ 644451.137721643317491, 1890993.367212303448468 ], [ 644441.64781707606744, 1890983.360570201184601 ], [ 644441.64781707606744, 1890983.360570201184601 ], [ 644432.1579032758018, 1890973.353933208389208 ], [ 644432.1579032758018, 1890973.353933208389208 ], [ 644422.598728309734724, 1890973.287332312436774 ], [ 644413.10880098794587, 1890963.280705147655681 ], [ 644413.10880098794587, 1890963.280705147655681 ], [ 644403.549622026388533, 1890963.214113381691277 ], [ 644393.990443359129131, 1890963.147526026703417 ], [ 644384.43126498896163, 1890963.080943082924932 ], [ 644374.872086914256215, 1890963.014364549890161 ], [ 644365.312909136642702, 1890962.947790428530425 ], [ 644355.753731653210707, 1890962.881220718380064 ], [ 644346.263769351062365, 1890952.874626973411068 ], [ 644346.263769351062365, 1890952.874626973411068 ], [ 644336.773797818808816, 1890942.868038337444887 ], [ 644336.843007412273437, 1890932.928010365460068 ], [ 644336.912216652533971, 1890922.987982476130128 ], [ 644336.981425539357588, 1890913.04795467061922 ], [ 644346.540625365683809, 1890913.114514021668583 ], [ 644346.609838485950604, 1890903.174485991941765 ], [ 644346.609838485950604, 1890903.174485991941765 ], [ 644337.119842253159732, 1890893.167899307562038 ], [ 644337.119842253159732, 1890893.167899307562038 ], [ 644327.560633548768237, 1890893.101344981696457 ], [ 644318.001425138791092, 1890893.034795066341758 ], [ 644308.442217025556602, 1890892.968249562894925 ], [ 644298.883009207667783, 1890892.901708469726145 ], [ 644289.392986578866839, 1890882.895145766437054 ], [ 644289.392986578866839, 1890882.895145766437054 ], [ 644279.902954717399552, 1890872.888588172849268 ], [ 644279.972134317853488, 1890862.948562625329942 ], [ 644279.972134317853488, 1890862.948562625329942 ], [ 644270.482088286895305, 1890852.942010529572144 ], [ 644270.551262594293803, 1890843.001985456096008 ], [ 644270.620436548488215, 1890833.061960465274751 ], [ 644270.689610149594955, 1890823.121935557574034 ], [ 644270.758783397497609, 1890813.181910732993856 ], [ 644280.318027021829039, 1890813.24843613570556 ], [ 644280.387204502942041, 1890803.308411086443812 ], [ 644280.456381630850956, 1890793.368386121001095 ], [ 644280.5255584056722, 1890783.428361238678917 ], [ 644280.594734827289358, 1890773.48833643947728 ], [ 644280.663910895702429, 1890763.548311722232029 ], [ 644290.223177748965099, 1890763.614840000402182 ], [ 644290.292358050588518, 1890753.674815058708191 ], [ 644299.851629784447141, 1890753.741347440285608 ], [ 644299.920814319164492, 1890743.801322275307029 ], [ 644299.989998500561342, 1890733.861297193448991 ], [ 644309.549279702594504, 1890733.927833370864391 ], [ 644309.618468117201701, 1890723.987808064557612 ], [ 644309.687656178371981, 1890714.047782841837034 ], [ 644319.246946848463267, 1890714.114322815556079 ], [ 644319.316139142727479, 1890704.174297367921099 ], [ 644328.87543469585944, 1890704.240841444814578 ], [ 644328.944631223101169, 1890694.300815773429349 ], [ 644338.503931656712666, 1890694.36736395326443 ], [ 644348.06323238578625, 1890694.433916543843225 ], [ 644357.62253341183532, 1890694.500473545398563 ], [ 644367.181834732182324, 1890694.567034956766292 ], [ 644376.741136346710846, 1890694.633600778644904 ], [ 644386.300438258214854, 1890694.700171011732891 ], [ 644395.859740465413779, 1890694.76674565509893 ], [ 644405.41904296958819, 1890694.833324709674343 ], [ 644414.978345768060535, 1890694.899908174294978 ], [ 644424.537648862227798, 1890694.966496049193665 ], [ 644434.096952252089977, 1890695.033088334603235 ], [ 644443.656255939160474, 1890695.099685030989349 ], [ 644443.656255939160474, 1890695.099685030989349 ], [ 644453.146303772111423, 1890705.106315805576742 ], [ 644462.705603463109583, 1890705.172921630553901 ], [ 644462.705603463109583, 1890705.172921630553901 ], [ 644472.195637776632793, 1890715.179562232224271 ], [ 644472.195637776632793, 1890715.179562232224271 ], [ 644481.685662857023999, 1890725.186207943130285 ], [ 644491.244954262860119, 1890725.252827614778653 ], [ 644491.244954262860119, 1890725.252827614778653 ], [ 644500.734965823590755, 1890735.259483153466135 ], [ 644500.734965823590755, 1890735.259483153466135 ], [ 644510.224968153866939, 1890745.266143799759448 ], [ 644510.224968153866939, 1890745.266143799759448 ], [ 644519.714961254852824, 1890755.272809555521235 ], [ 644529.274240085156634, 1890755.339447793550789 ], [ 644529.274240085156634, 1890755.339447793550789 ], [ 644538.764219663687982, 1890765.346123377559707 ], [ 644538.764219663687982, 1890765.346123377559707 ], [ 644548.254190011532046, 1890775.352804070571437 ], [ 644548.254190011532046, 1890775.352804070571437 ], [ 644557.744151129969396, 1890785.359489872353151 ], [ 644567.303417384973727, 1890785.426146676298231 ], [ 644567.303417384973727, 1890785.426146676298231 ], [ 644576.793364980723709, 1890795.432842306327075 ], [ 644576.793364980723709, 1890795.432842306327075 ], [ 644586.283303344389424, 1890805.439543045824394 ], [ 644586.283303344389424, 1890805.439543045824394 ], [ 644595.773232479696162, 1890815.446248895023018 ], [ 644595.773232479696162, 1890815.446248895023018 ], [ 644605.263152382918634, 1890825.452959853922948 ], [ 644605.263152382918634, 1890825.452959853922948 ], [ 644614.753063054871745, 1890835.459675921592861 ], [ 644614.753063054871745, 1890835.459675921592861 ], [ 644624.242964495904744, 1890845.466397100128233 ], [ 644624.242964495904744, 1890845.466397100128233 ], [ 644633.732856707065366, 1890855.47312338813208 ], [ 644633.732856707065366, 1890855.47312338813208 ], [ 644643.222739685792476, 1890865.479854785837233 ], [ 644643.222739685792476, 1890865.479854785837233 ], [ 644652.712613433250226, 1890875.486591293942183 ], [ 644652.712613433250226, 1890875.486591293942183 ], [ 644652.643254599301144, 1890885.426628919318318 ], [ 644662.133114174706861, 1890895.433370928512886 ], [ 644662.133114174706861, 1890895.433370928512886 ], [ 644671.622964520007372, 1890905.440118046710268 ], [ 644671.622964520007372, 1890905.440118046710268 ], [ 644681.112805632525124, 1890915.446870275773108 ], [ 644681.112805632525124, 1890915.446870275773108 ], [ 644690.602637512143701, 1890925.453627614304423 ], [ 644690.602637512143701, 1890925.453627614304423 ], [ 644700.092460161540657, 1890935.460390063468367 ], [ 644700.092460161540657, 1890935.460390063468367 ], [ 644709.582273580832407, 1890945.467157622566447 ], [ 644719.141471187816933, 1890945.533889929065481 ], [ 644728.700669090962037, 1890945.600626646075398 ], [ 644728.700669090962037, 1890945.600626646075398 ], [ 644738.19046469614841, 1890955.607408754760399 ], [ 644738.19046469614841, 1890955.607408754760399 ], [ 644747.680251070880331, 1890965.614195973146707 ], [ 644747.680251070880331, 1890965.614195973146707 ], [ 644757.170028212596662, 1890975.620988302165642 ], [ 644757.170028212596662, 1890975.620988302165642 ], [ 644766.659796122461557, 1890985.627785742282867 ], [ 644766.659796122461557, 1890985.627785742282867 ], [ 644776.149554800475016, 1890995.63458829279989 ], [ 644776.149554800475016, 1890995.63458829279989 ], [ 644785.639304247917607, 1891005.641395954182371 ], [ 644785.639304247917607, 1891005.641395954182371 ], [ 644795.129044460598379, 1891015.648208725964651 ], [ 644795.129044460598379, 1891015.648208725964651 ], [ 644804.618775442708284, 1891025.65502660907805 ], [ 644804.618775442708284, 1891025.65502660907805 ], [ 644814.108497192617506, 1891035.661849602824077 ], [ 644814.108497192617506, 1891035.661849602824077 ], [ 644823.59820971195586, 1891045.668677707202733 ], [ 644823.59820971195586, 1891045.668677707202733 ], [ 644833.087912997463718, 1891055.675510922679678 ], [ 644833.087912997463718, 1891055.675510922679678 ], [ 644842.577607051003724, 1891065.682349250419065 ], [ 644842.577607051003724, 1891065.682349250419065 ], [ 644852.067291872110218, 1891075.689192687859759 ], [ 644852.067291872110218, 1891075.689192687859759 ], [ 644861.556967462180182, 1891085.696041236864403 ], [ 644861.556967462180182, 1891085.696041236864403 ], [ 644871.046633818536066, 1891095.702894897432998 ], [ 644871.046633818536066, 1891095.702894897432998 ], [ 644880.536290942458436, 1891105.709753669099882 ], [ 644880.536290942458436, 1891105.709753669099882 ], [ 644890.025938833947293, 1891115.716617552563548 ], [ 644890.025938833947293, 1891115.716617552563548 ], [ 644899.515577492769808, 1891125.723486547358334 ], [ 644899.515577492769808, 1891125.723486547358334 ], [ 644909.005206919042394, 1891135.730360652785748 ], [ 644909.005206919042394, 1891135.730360652785748 ], [ 644918.494827112648636, 1891145.737239870708436 ], [ 644918.494827112648636, 1891145.737239870708436 ], [ 644927.98443807347212, 1891155.744124199496582 ], [ 644927.98443807347212, 1891155.744124199496582 ], [ 644937.474039802909829, 1891165.751013640780002 ], [ 644937.474039802909829, 1891165.751013640780002 ], [ 644946.963632298167795, 1891175.757908193860203 ], [ 644946.963632298167795, 1891175.757908193860203 ], [ 644956.453215560643002, 1891185.764807858271524 ], [ 644956.453215560643002, 1891185.764807858271524 ], [ 644965.942789590219036, 1891195.771712634479627 ], [ 644965.942789590219036, 1891195.771712634479627 ], [ 644975.432354387943633, 1891205.778622522950172 ], [ 644975.432354387943633, 1891205.778622522950172 ], [ 644984.921909951488487, 1891215.785537523217499 ], [ 644984.921909951488487, 1891215.785537523217499 ], [ 644994.411456281784922, 1891225.792457635514438 ], [ 644994.411456281784922, 1891225.792457635514438 ], [ 645003.900993377668783, 1891235.79938286030665 ], [ 645003.900993377668783, 1891235.79938286030665 ], [ 645013.390521243098192, 1891245.806313196662813 ], [ 645013.390521243098192, 1891245.806313196662813 ], [ 645022.880039873998612, 1891255.813248645979911 ], [ 645022.880039873998612, 1891255.813248645979911 ], [ 645032.369549271417782, 1891265.820189206162468 ], [ 645032.369549271417782, 1891265.820189206162468 ], [ 645041.859049435588531, 1891275.827134879538789 ], [ 645041.859049435588531, 1891275.827134879538789 ], [ 645051.348540367791429, 1891285.834085666108876 ], [ 645051.348540367791429, 1891285.834085666108876 ], [ 645060.838022064999677, 1891295.841041564475745 ], [ 645060.838022064999677, 1891295.841041564475745 ], [ 645070.32749452884309, 1891305.848002575337887 ], [ 645070.32749452884309, 1891305.848002575337887 ], [ 645079.816957758972421, 1891315.854968698695302 ], [ 645079.816957758972421, 1891315.854968698695302 ], [ 645089.306411757017486, 1891325.861939934780821 ], [ 645089.306411757017486, 1891325.861939934780821 ], [ 645098.795856519951485, 1891335.868916283827275 ], [ 645098.795856519951485, 1891335.868916283827275 ], [ 645108.285292047890835, 1891345.875897745369002 ], [ 645108.285292047890835, 1891345.875897745369002 ], [ 645117.774718343280256, 1891355.882884319638833 ], [ 645117.774718343280256, 1891355.882884319638833 ], [ 645127.26413540635258, 1891365.889876007335261 ], [ 645127.26413540635258, 1891365.889876007335261 ], [ 645136.753543234081008, 1891375.8968728070613 ], [ 645136.753543234081008, 1891375.8968728070613 ], [ 645146.242941827978939, 1891385.903874720912427 ], [ 645146.242941827978939, 1891385.903874720912427 ], [ 645155.732331187697127, 1891395.910881747258827 ], [ 645155.732331187697127, 1891395.910881747258827 ], [ 645165.221711314865388, 1891405.917893886798993 ], [ 645165.221711314865388, 1891405.917893886798993 ], [ 645174.711082206573337, 1891415.924911139300093 ], [ 645174.711082206573337, 1891415.924911139300093 ], [ 645184.200443864217959, 1891425.931933505693451 ], [ 645184.200443864217959, 1891425.931933505693451 ], [ 645193.689796287450008, 1891435.93896098411642 ], [ 645193.689796287450008, 1891435.93896098411642 ], [ 645203.179139478015713, 1891445.94599357736297 ], [ 645203.179139478015713, 1891445.94599357736297 ], [ 645212.668473431491293, 1891455.953031283104792 ], [ 645212.668473431491293, 1891455.953031283104792 ], [ 645222.157798151951283, 1891465.960074102738872 ], [ 645222.157798151951283, 1891465.960074102738872 ], [ 645231.6471136379987, 1891475.967122036265209 ], [ 645231.6471136379987, 1891475.967122036265209 ], [ 645241.136419891030528, 1891485.97417508228682 ], [ 645241.136419891030528, 1891485.97417508228682 ], [ 645250.625716908136383, 1891495.98123324313201 ], [ 645250.625716908136383, 1891495.98123324313201 ], [ 645260.115004690596834, 1891505.988296517403796 ], [ 645260.115004690596834, 1891505.988296517403796 ], [ 645269.604283238528296, 1891515.995364905102178 ], [ 645279.163236871827394, 1891516.062375097535551 ], [ 645279.163236871827394, 1891516.062375097535551 ], [ 645288.652501894161105, 1891526.069453320698813 ], [ 645288.652501894161105, 1891526.069453320698813 ], [ 645298.141757681849413, 1891536.076536657987162 ], [ 645298.141757681849413, 1891536.076536657987162 ], [ 645307.631004234775901, 1891546.08362510916777 ], [ 645307.631004234775901, 1891546.08362510916777 ], [ 645317.12024155294057, 1891556.090718674706295 ], [ 645326.679178318940103, 1891556.157752166502178 ], [ 645326.679178318940103, 1891556.157752166502178 ], [ 645336.16840211127419, 1891566.164855567971244 ], [ 645336.16840211127419, 1891566.164855567971244 ], [ 645336.098688484402373, 1891576.104921147925779 ], [ 645345.587898097583093, 1891586.112030056072399 ], [ 645345.587898097583093, 1891586.112030056072399 ], [ 645355.077098477166146, 1891596.119144078809768 ], [ 645355.077098477166146, 1891596.119144078809768 ], [ 645364.56628962024115, 1891606.126263215206563 ], [ 645364.56628962024115, 1891606.126263215206563 ], [ 645374.055471528205089, 1891616.133387466659769 ], [ 645374.055471528205089, 1891616.133387466659769 ], [ 645383.544644200941548, 1891626.140516832238063 ], [ 645383.544644200941548, 1891626.140516832238063 ], [ 645393.033807639963925, 1891636.147651312639937 ], [ 645393.033807639963925, 1891636.147651312639937 ], [ 645402.522961842129007, 1891646.154790906934068 ], [ 645402.522961842129007, 1891646.154790906934068 ], [ 645412.012106808833778, 1891656.161935616517439 ], [ 645412.012106808833778, 1891656.161935616517439 ], [ 645421.501242538914084, 1891666.169085440924391 ], [ 645421.501242538914084, 1891666.169085440924391 ], [ 645430.990369036328048, 1891676.176240380620584 ], [ 645440.549254312179983, 1891676.243330535944551 ], [ 645440.549254312179983, 1891676.243330535944551 ], [ 645450.038367281667888, 1891686.250495311571285 ], [ 645450.038367281667888, 1891686.250495311571285 ], [ 645459.527471015579067, 1891696.257665202720091 ], [ 645469.0863480088301, 1891696.324769215891138 ], [ 645478.645225298358127, 1891696.391877641202882 ], [ 645488.204102885909379, 1891696.458990479819477 ], [ 645497.762980771251023, 1891696.526107730576769 ] ] } },
{ "type": "Feature", "properties": { "year": 2021, "month": null }, "geometry": { "type": "LineString", "coordinates": [ [ 644423.568223233451135, 1890834.126906041521579 ], [ 644414.008984348853119, 1890834.06031386135146 ], [ 644404.449745760066435, 1890833.993726092390716 ], [ 644394.890507465461269, 1890833.927142733940855 ], [ 644385.331269467948005, 1890833.860563786933199 ], [ 644375.772031766013242, 1890833.793989250436425 ], [ 644375.702807359513827, 1890843.734017621492967 ], [ 644366.1435745410854, 1890843.667447188403457 ], [ 644366.074354367796332, 1890853.607475334545597 ], [ 644366.005133841070347, 1890863.547503564273939 ], [ 644365.935912960907444, 1890873.48753187735565 ], [ 644365.86669172742404, 1890883.427560272393748 ], [ 644356.307477549882606, 1890883.360993021167815 ], [ 644365.797470140503719, 1890893.367588751483709 ], [ 644365.797470140503719, 1890893.367588751483709 ], [ 644375.287453498574905, 1890903.374189591035247 ], [ 644384.846659093978815, 1890903.440766279352829 ], [ 644394.405864984961227, 1890903.507347378181294 ], [ 644403.96507117303554, 1890903.573932888451964 ], [ 644413.524277655407786, 1890903.640522810164839 ], [ 644413.524277655407786, 1890903.640522810164839 ], [ 644423.014234619215131, 1890913.647147631738335 ], [ 644432.573437106329948, 1890913.713746682275087 ], [ 644442.132639890303835, 1890913.780350144254044 ], [ 644451.691842968808487, 1890913.846958017209545 ], [ 644451.761106543242931, 1890903.906926605151966 ], [ 644461.320314504206181, 1890903.9735385812819 ], [ 644461.389582311734557, 1890894.033506945241243 ], [ 644461.458849765593186, 1890884.093475391389802 ], [ 644461.528116865782067, 1890874.153443920891732 ], [ 644461.597383612417616, 1890864.213412533979863 ], [ 644461.597383612417616, 1890864.213412533979863 ], [ 644452.107419111067429, 1890854.206770791206509 ], [ 644452.107419111067429, 1890854.206770791206509 ], [ 644442.617445378564298, 1890844.200134157203138 ], [ 644442.617445378564298, 1890844.200134157203138 ], [ 644433.058210487826727, 1890844.133532847510651 ], [ 644423.568223233451135, 1890834.126906041521579 ], [ 644423.568223233451135, 1890834.126906041521579 ] ] } }
]
}
