{
"type": "FeatureCollection",
"name": "shoreline_2024",
"crs": { "type": "name", "properties": { "name": "urn:ogc:def:crs:EPSG::32644" } },
"features": [
{ "type": "Feature", "properties": { "year": 2024, "month": null }, "geometry": { "type": "LineString", "coordinates": [ [ 643964.79411679925397, 1890820.995441752485931 ], [ 643974.353346393909305, 1890821.06182631617412 ], [ 643983.912576284608804, 1890821.128215290838853 ], [ 643993.471806468907744, 1890821.194608676480129 ], [ 644003.031036947853863, 1890821.261006472399458 ], [ 644003.100081773591228, 1890811.320990241132677 ], [ 644012.659317135345191, 1890811.387392141390592 ], [ 644022.218552789301611, 1890811.45379845215939 ], [ 644031.777788739535026, 1890811.520209174836054 ], [ 644041.337024984648451, 1890811.58662430732511 ], [ 644041.406087803654373, 1890801.646606931462884 ], [ 644050.965328930178657, 1890801.713026168290526 ], [ 644060.524570353096351, 1890801.779449815861881 ], [ 644070.083812069497071, 1890801.845877874642611 ], [ 644079.643054080894217, 1890801.912310343701392 ], [ 644089.202296387404203, 1890801.978747223271057 ], [ 644098.761538990307599, 1890802.045188514050096 ], [ 644108.320781886810437, 1890802.111634215572849 ], [ 644117.8800250783097, 1890802.178084328304976 ], [ 644127.439268563641235, 1890802.244538851082325 ], [ 644127.439268563641235, 1890802.244538851082325 ], [ 644136.929403663030826, 1890812.251018228707835 ], [ 644136.929403663030826, 1890812.251018228707835 ], [ 644146.419529530336149, 1890822.257502713007852 ], [ 644146.419529530336149, 1890822.257502713007852 ], [ 644146.350415554246865, 1890832.197523629525676 ], [ 644155.840527251362801, 1890842.204013612354174 ], [ 644155.840527251362801, 1890842.204013612354174 ], [ 644155.771407982916571, 1890852.144035001285374 ], [ 644165.261505509726703, 1890862.150530481478199 ], [ 644165.261505509726703, 1890862.150530481478199 ], [ 644165.192380948923528, 1890872.090552343754098 ], [ 644165.123256035149097, 1890882.030574288917705 ], [ 644174.613334453199059, 1890892.037075658096001 ], [ 644174.613334453199059, 1890892.037075658096001 ], [ 644174.544204246951267, 1890901.977098076371476 ], [ 644184.03426849283278, 1890911.983604941982776 ], [ 644184.03426849283278, 1890911.983604941982776 ], [ 644183.965132993878797, 1890921.92362783360295 ], [ 644193.455183068872429, 1890931.930140198441222 ], [ 644193.455183068872429, 1890931.930140198441222 ], [ 644193.38604227732867, 1890941.870163562707603 ], [ 644193.31690113269724, 1890951.810187010793015 ], [ 644193.247759635327384, 1890961.750210541766137 ], [ 644193.178617784753442, 1890971.690234155626968 ], [ 644202.668638868955895, 1890981.696753188036382 ], [ 644202.668638868955895, 1890981.696753188036382 ], [ 644212.158650723169558, 1890991.703277329681441 ], [ 644212.158650723169558, 1890991.703277329681441 ], [ 644221.648653344251215, 1891001.709806578699499 ], [ 644231.207808342529461, 1891001.776315761962906 ], [ 644240.766963637433946, 1891001.842829355737194 ], [ 644250.326119229081087, 1891001.909347361652181 ], [ 644259.88527511479333, 1891001.975869778543711 ], [ 644269.444431295851246, 1891002.042396605946124 ], [ 644279.003587772138417, 1891002.108927845256403 ], [ 644288.562744545284659, 1891002.175463495077565 ], [ 644298.121901612612419, 1891002.242003556806594 ], [ 644298.191094978363253, 1890992.301976315677166 ], [ 644307.75025692791678, 1890992.368520480580628 ], [ 644317.309419173048809, 1890992.435069057391956 ], [ 644326.868581715039909, 1890992.501622044946998 ], [ 644336.427744549699128, 1890992.568179444177076 ], [ 644336.496955909999087, 1890982.628151056356728 ], [ 644346.056123628513888, 1890982.69471255899407 ], [ 644346.125339222257026, 1890972.754683947190642 ], [ 644355.684511823230423, 1890972.82124955416657 ], [ 644355.753731650533155, 1890962.881220718380064 ], [ 644365.312909135362133, 1890962.947790428530425 ], [ 644365.382133196108043, 1890953.007761368295178 ], [ 644374.94131556188222, 1890953.074335182784125 ], [ 644384.500498223351315, 1890953.140913408249617 ], [ 644394.059681180515327, 1890953.207496044458821 ], [ 644394.12891864834819, 1890943.267466144636273 ], [ 644403.688106489251368, 1890943.334052884951234 ], [ 644403.757348190410994, 1890933.394022761145607 ], [ 644403.826589538133703, 1890923.45399272069335 ], [ 644403.895830532419495, 1890913.513962763128802 ], [ 644403.895830532419495, 1890913.513962763128802 ], [ 644394.405864984961227, 1890903.507347378181294 ], [ 644394.405864984961227, 1890903.507347378181294 ], [ 644384.846659093978815, 1890903.440766279352829 ], [ 644375.356680025579408, 1890893.434160721255466 ], [ 644375.356680025579408, 1890893.434160721255466 ], [ 644365.797470139106736, 1890893.367588751483709 ], [ 644356.238260546931997, 1890893.301021192921326 ], [ 644346.748263665125705, 1890883.294430180219933 ], [ 644346.748263665125705, 1890883.294430180219933 ], [ 644337.189050078624859, 1890883.227871750947088 ], [ 644327.6298367890995, 1890883.161317731952295 ], [ 644318.070623792242259, 1890883.094768124399707 ], [ 644308.511411092244089, 1890883.028222927125171 ], [ 644299.021387814660557, 1890873.021655896911398 ], [ 644299.021387814660557, 1890873.021655896911398 ], [ 644289.462171119055711, 1890872.95511982915923 ], [ 644279.972134317853488, 1890862.948562625329942 ], [ 644279.972134317853488, 1890862.948562625329942 ], [ 644270.412913626409136, 1890862.882035686867312 ], [ 644260.853693230310455, 1890862.815513159148395 ], [ 644251.363638616981916, 1890852.808970499783754 ], [ 644251.363638616981916, 1890852.808970499783754 ], [ 644241.804414223646745, 1890852.742457100655884 ], [ 644232.314346088096499, 1890842.735924267675728 ], [ 644232.314346088096499, 1890842.735924267675728 ], [ 644222.755117701599374, 1890842.669419997604564 ], [ 644213.265036043943837, 1890832.662896990310401 ], [ 644213.265036043943837, 1890832.662896990310401 ], [ 644203.774945153971203, 1890822.656379090622067 ], [ 644203.844086296157911, 1890812.716356416232884 ], [ 644203.91322708548978, 1890802.776333823334426 ], [ 644203.91322708548978, 1890802.776333823334426 ], [ 644194.42311708710622, 1890792.769821813097224 ], [ 644194.492252583848312, 1890782.829799694241956 ], [ 644194.561387727735564, 1890772.889777658972889 ], [ 644194.630522518535145, 1890762.949755706358701 ], [ 644194.699656956363469, 1890753.009733836166561 ], [ 644194.699656956363469, 1890753.009733836166561 ], [ 644185.209517969982699, 1890743.00322849326767 ], [ 644185.278647115454078, 1890733.063207097351551 ], [ 644185.278647115454078, 1890733.063207097351551 ], [ 644175.78849395934958, 1890723.056707251584157 ], [ 644175.78849395934958, 1890723.056707251584157 ], [ 644166.298331571510062, 1890713.050212513422593 ], [ 644166.298331571510062, 1890713.050212513422593 ], [ 644156.808159954845905, 1890703.043722883798182 ], [ 644156.808159954845905, 1890703.043722883798182 ], [ 644147.317979107843712, 1890693.037238361081108 ], [ 644147.317979107843712, 1890693.037238361081108 ], [ 644137.75868458126206, 1890692.970778392860666 ], [ 644128.199390348279849, 1890692.904322834452614 ], [ 644118.709191690431908, 1890682.897852853871882 ], [ 644118.709191690431908, 1890682.897852853871882 ], [ 644109.218983801198192, 1890672.891387981595472 ], [ 644109.288073786650784, 1890662.951369621558115 ], [ 644109.357163419481367, 1890653.011351344641298 ], [ 644109.426252699457109, 1890643.071333151543513 ], [ 644118.98556927149184, 1890643.137778353644535 ], [ 644119.054662784794345, 1890633.197759936796501 ], [ 644128.613984236842953, 1890633.26420924323611 ], [ 644138.173305986681953, 1890633.330662960652262 ], [ 644147.73262803023681, 1890633.397121087182313 ], [ 644157.291950369020924, 1890633.46358362515457 ], [ 644157.361061873845756, 1890623.523564063943923 ], [ 644166.920389093691483, 1890623.590030705090612 ], [ 644166.989504831610247, 1890613.650010918965563 ], [ 644176.548836934263818, 1890613.716481663286686 ], [ 644176.617956905276515, 1890603.776461653644219 ], [ 644186.177293887827545, 1890603.842936501838267 ], [ 644186.246418091701344, 1890593.902916268212721 ], [ 644195.805759955430403, 1890593.969395220046863 ], [ 644195.874888392630965, 1890584.029374762205407 ], [ 644205.434235137538053, 1890584.095857816981152 ], [ 644205.503367807599716, 1890574.155837135855108 ], [ 644215.062719435198233, 1890574.222324293572456 ], [ 644215.131856338120997, 1890564.282303388230503 ], [ 644224.691212845500559, 1890564.348794649820775 ], [ 644224.760353981284425, 1890554.408773520030081 ], [ 644234.319715368561447, 1890554.475268884561956 ], [ 644234.388860737206414, 1890544.535247531719506 ], [ 644243.948227007174864, 1890544.601746998960152 ], [ 644244.017376608564518, 1890534.66172542097047 ], [ 644253.576747761107981, 1890534.728228992316872 ], [ 644253.645901595242321, 1890524.788207190576941 ], [ 644263.205277627566829, 1890524.854714864166453 ], [ 644263.274435694329441, 1890514.914692838676274 ], [ 644272.833816607948393, 1890514.98120461567305 ], [ 644272.90297890745569, 1890505.041182366199791 ], [ 644282.462364702252671, 1890505.107698245672509 ], [ 644282.531531234271824, 1890495.167675771517679 ], [ 644292.090921911643818, 1890495.234195753699169 ], [ 644292.160092676291242, 1890485.29417305579409 ], [ 644301.719488233327866, 1890485.360697141615674 ], [ 644301.788663230603561, 1890475.420674219727516 ], [ 644311.348063668934628, 1890475.487202408025041 ], [ 644320.907464402960613, 1890475.553735006833449 ], [ 644330.466865433729254, 1890475.620272015687078 ], [ 644340.026266757398844, 1890475.686813434585929 ], [ 644340.026266757398844, 1890475.686813434585929 ], [ 644349.516470452188514, 1890485.693383722798899 ], [ 644349.516470452188514, 1890485.693383722798899 ], [ 644349.447272173129022, 1890495.633408264722675 ], [ 644349.378073540516198, 1890505.573432889766991 ], [ 644349.308874554699287, 1890515.513457597699016 ], [ 644349.239675215561874, 1890525.453482388984412 ], [ 644349.170475522987545, 1890535.393507262924686 ], [ 644358.660645292606205, 1890545.400084611261263 ], [ 644358.660645292606205, 1890545.400084611261263 ], [ 644358.591440307325684, 1890555.340109958546236 ], [ 644368.081595909548923, 1890565.346692805411294 ], [ 644368.081595909548923, 1890565.346692805411294 ], [ 644368.012385631562211, 1890575.286718626273796 ], [ 644377.502527063363232, 1890585.293306971201673 ], [ 644377.502527063363232, 1890585.293306971201673 ], [ 644377.433311492553912, 1890595.233333266107365 ], [ 644386.923438755096868, 1890605.239927109563723 ], [ 644386.923438755096868, 1890605.239927109563723 ], [ 644396.413556787883863, 1890615.246526061324403 ], [ 644396.413556787883863, 1890615.246526061324403 ], [ 644405.903665591962636, 1890625.253130122553557 ], [ 644405.903665591962636, 1890625.253130122553557 ], [ 644415.393765164772049, 1890635.259739290457219 ], [ 644415.393765164772049, 1890635.259739290457219 ], [ 644415.324529482517391, 1890645.199767229845747 ], [ 644424.814614885603078, 1890655.206381897907704 ], [ 644424.814614885603078, 1890655.206381897907704 ], [ 644434.304691058583558, 1890665.213001674041152 ], [ 644434.304691058583558, 1890665.213001674041152 ], [ 644443.794758001458831, 1890675.219626559410244 ], [ 644443.794758001458831, 1890675.219626559410244 ], [ 644453.284815714112483, 1890685.226256552152336 ], [ 644453.284815714112483, 1890685.226256552152336 ], [ 644462.774864196544513, 1890695.232891655061394 ], [ 644472.334168769535609, 1890695.299501583445817 ], [ 644481.893473639735021, 1890695.366115921875462 ], [ 644491.452778804465197, 1890695.43273467104882 ], [ 644491.452778804465197, 1890695.43273467104882 ], [ 644500.942805185215548, 1890705.439389036502689 ], [ 644500.942805185215548, 1890705.439389036502689 ], [ 644510.432822335627861, 1890715.446048511657864 ], [ 644510.432822335627861, 1890715.446048511657864 ], [ 644519.922830256982706, 1890725.452713095350191 ], [ 644529.482122846413404, 1890725.519350409274921 ], [ 644529.482122846413404, 1890725.519350409274921 ], [ 644538.972117245430127, 1890735.526024821447209 ], [ 644538.972117245430127, 1890735.526024821447209 ], [ 644548.462102412595414, 1890745.532704341225326 ], [ 644548.462102412595414, 1890745.532704341225326 ], [ 644548.392798632383347, 1890755.472737501142547 ], [ 644557.882769631338306, 1890765.479422522243112 ], [ 644557.882769631338306, 1890765.479422522243112 ], [ 644557.813460556906648, 1890775.419456155970693 ], [ 644557.744151128688827, 1890785.359489872353151 ], [ 644557.674841346452013, 1890795.29952367185615 ], [ 644557.605531210429035, 1890805.239557554712519 ], [ 644567.095473215915263, 1890815.24624924804084 ], [ 644567.095473215915263, 1890815.24624924804084 ], [ 644576.585405990481377, 1890825.252946050837636 ], [ 644586.144654491450638, 1890825.319612907245755 ], [ 644595.70390328974463, 1890825.38628417509608 ], [ 644595.70390328974463, 1890825.38628417509608 ], [ 644605.193818252300844, 1890835.392995524918661 ], [ 644614.753063054871745, 1890835.459675921592861 ], [ 644614.753063054871745, 1890835.459675921592861 ], [ 644624.242964495904744, 1890845.466397100128233 ], [ 644624.242964495904744, 1890845.466397100128233 ], [ 644633.732856707065366, 1890855.47312338813208 ], [ 644633.732856707065366, 1890855.47312338813208 ], [ 644643.222739685792476, 1890865.479854785837233 ], [ 644643.222739685792476, 1890865.479854785837233 ], [ 644643.153385792626068, 1890875.419892020756379 ], [ 644643.084031545440666, 1890885.359929338330403 ], [ 644643.014676944119856, 1890895.29996673995629 ], [ 644642.945321988780051, 1890905.240004224004224 ], [ 644652.435175971593708, 1890915.246742295334116 ], [ 644652.435175971593708, 1890915.246742295334116 ], [ 644661.925020724302158, 1890925.253485477529466 ], [ 644661.925020724302158, 1890925.253485477529466 ], [ 644671.414856246905401, 1890935.26023376872763 ], [ 644671.414856246905401, 1890935.26023376872763 ], [ 644680.904682536493056, 1890945.266987170558423 ], [ 644680.904682536493056, 1890945.266987170558423 ], [ 644690.394499594462104, 1890955.273745682789013 ], [ 644699.953692022012547, 1890955.340469474904239 ], [ 644709.512884747004136, 1890955.40719767799601 ], [ 644709.512884747004136, 1890955.40719767799601 ], [ 644719.002683992148377, 1890965.413970738882199 ], [ 644728.561872721649706, 1890965.480708072893322 ], [ 644728.561872721649706, 1890965.480708072893322 ], [ 644738.051658444455825, 1890975.487490963190794 ], [ 644738.051658444455825, 1890975.487490963190794 ], [ 644747.541434936691076, 1890985.494278963888064 ], [ 644747.541434936691076, 1890985.494278963888064 ], [ 644757.031202194513753, 1890995.501072076149285 ], [ 644757.031202194513753, 1890995.501072076149285 ], [ 644766.520960221765563, 1891005.507870298577473 ], [ 644766.520960221765563, 1891005.507870298577473 ], [ 644766.451541740447283, 1891015.447912701172754 ], [ 644766.382122904760763, 1891025.387955186655745 ], [ 644766.312703714706004, 1891035.327997755492106 ], [ 644775.802437685662881, 1891045.334802261553705 ], [ 644775.802437685662881, 1891045.334802261553705 ], [ 644785.292162425816059, 1891055.341611879412085 ], [ 644794.851311946869828, 1891055.408382865367457 ], [ 644804.410461764549837, 1891055.475158262765035 ], [ 644804.410461764549837, 1891055.475158262765035 ], [ 644813.900168689666316, 1891065.48198243114166 ], [ 644813.900168689666316, 1891065.48198243114166 ], [ 644823.389866384095512, 1891075.48881170945242 ], [ 644823.389866384095512, 1891075.48881170945242 ], [ 644832.879554844694212, 1891085.495646099094301 ], [ 644842.438692086841911, 1891085.562440067296848 ], [ 644851.997829625499435, 1891085.629238446243107 ], [ 644851.997829625499435, 1891085.629238446243107 ], [ 644861.487500272458419, 1891095.636087387334555 ], [ 644861.487500272458419, 1891095.636087387334555 ], [ 644870.977161687100306, 1891105.64294143859297 ], [ 644870.977161687100306, 1891105.64294143859297 ], [ 644870.907689202344045, 1891115.582988063804805 ], [ 644870.838216362870298, 1891125.523034771205857 ], [ 644880.327858661068603, 1891135.529894716804847 ], [ 644880.327858661068603, 1891135.529894716804847 ], [ 644889.817491726600565, 1891145.53675977489911 ], [ 644889.817491726600565, 1891145.53675977489911 ], [ 644899.307115560746752, 1891155.543629943393171 ], [ 644908.866222768323496, 1891155.610456950962543 ], [ 644918.42533027252648, 1891155.67728836950846 ], [ 644918.42533027252648, 1891155.67728836950846 ], [ 644927.914936291286722, 1891165.684173090616241 ], [ 644927.914936291286722, 1891165.684173090616241 ], [ 644937.404533078544773, 1891175.691062923055142 ], [ 644937.404533078544773, 1891175.691062923055142 ], [ 644937.335025999462232, 1891185.631112288217992 ], [ 644946.824608610244468, 1891195.638007624074817 ], [ 644946.824608610244468, 1891195.638007624074817 ], [ 644956.314181988011114, 1891205.644908072426915 ], [ 644965.873268037568778, 1891205.711763091851026 ], [ 644965.873268037568778, 1891205.711763091851026 ], [ 644975.362827893113717, 1891215.718673371244222 ], [ 644975.362827893113717, 1891215.718673371244222 ], [ 644984.852378514129668, 1891225.725588763831183 ], [ 644994.411456280504353, 1891225.792457635514438 ], [ 644994.411456280504353, 1891225.792457635514438 ], [ 645003.900993377668783, 1891235.79938286030665 ], [ 645003.900993377668783, 1891235.79938286030665 ], [ 645013.390521243098192, 1891245.806313196662813 ], [ 645013.390521243098192, 1891245.806313196662813 ], [ 645022.880039873998612, 1891255.813248645979911 ], [ 645022.880039873998612, 1891255.813248645979911 ], [ 645032.369549271417782, 1891265.820189206162468 ], [ 645032.369549271417782, 1891265.820189206162468 ], [ 645041.859049435588531, 1891275.827134879538789 ], [ 645041.859049435588531, 1891275.827134879538789 ], [ 645051.348540367791429, 1891285.834085666108876 ], [ 645051.348540367791429, 1891285.834085666108876 ], [ 645051.278974333545193, 1891295.774139648769051 ], [ 645060.768451088108122, 1891305.781095938989893 ], [ 645060.768451088108122, 1891305.781095938989893 ], [ 645070.257918607676402, 1891315.788057341938838 ], [ 645079.816957757691853, 1891315.854968698695302 ], [ 645079.816957757691853, 1891315.854968698695302 ], [ 645089.306411755620502, 1891325.861939934780821 ], [ 645089.306411755620502, 1891325.861939934780821 ], [ 645098.795856518670917, 1891335.868916283827275 ], [ 645098.795856518670917, 1891335.868916283827275 ], [ 645108.285292047890835, 1891345.875897745369002 ], [ 645108.285292047890835, 1891345.875897745369002 ], [ 645117.774718343280256, 1891355.882884319638833 ], [ 645117.774718343280256, 1891355.882884319638833 ], [ 645127.26413540635258, 1891365.889876007335261 ], [ 645136.823153399745934, 1891365.956815380137414 ], [ 645136.823153399745934, 1891365.956815380137414 ], [ 645146.312556936754845, 1891375.963816901436076 ], [ 645146.312556936754845, 1891375.963816901436076 ], [ 645146.242941827978939, 1891385.903874720912427 ], [ 645155.732331187697127, 1891395.910881747258827 ], [ 645155.732331187697127, 1891395.910881747258827 ], [ 645165.221711314865388, 1891405.917893886798993 ], [ 645165.221711314865388, 1891405.917893886798993 ], [ 645174.711082205292769, 1891415.924911139300093 ], [ 645174.711082205292769, 1891415.924911139300093 ], [ 645184.200443862820975, 1891425.931933505693451 ], [ 645193.759436111780815, 1891425.998901204904541 ], [ 645193.759436111780815, 1891425.998901204904541 ], [ 645203.248784245690331, 1891436.005933405132964 ], [ 645203.248784245690331, 1891436.005933405132964 ], [ 645203.179139476735145, 1891445.94599357736297 ], [ 645212.668473431491293, 1891455.953031283104792 ], [ 645212.668473431491293, 1891455.953031283104792 ], [ 645222.157798151951283, 1891465.960074102738872 ], [ 645222.157798151951283, 1891465.960074102738872 ], [ 645231.6471136379987, 1891475.967122036265209 ], [ 645241.206084434408695, 1891476.03411334217526 ], [ 645241.206084434408695, 1891476.03411334217526 ], [ 645250.695386395324022, 1891486.041171110467985 ], [ 645250.695386395324022, 1891486.041171110467985 ], [ 645250.625716908136383, 1891495.98123324313201 ], [ 645260.115004690596834, 1891505.988296517403796 ], [ 645260.115004690596834, 1891505.988296517403796 ], [ 645269.604283238528296, 1891515.995364905102178 ], [ 645279.16323687043041, 1891516.06237509730272 ], [ 645279.16323687043041, 1891516.06237509730272 ], [ 645288.652501892764121, 1891526.069453320698813 ], [ 645288.652501892764121, 1891526.069453320698813 ], [ 645298.141757680452429, 1891536.076536657987162 ], [ 645298.141757680452429, 1891536.076536657987162 ], [ 645307.631004233378917, 1891546.08362510916777 ], [ 645307.631004233378917, 1891546.08362510916777 ], [ 645317.12024155294057, 1891556.090718674706295 ], [ 645317.12024155294057, 1891556.090718674706295 ], [ 645317.050537458388135, 1891566.030783554306254 ], [ 645326.539760597515851, 1891576.03788262559101 ], [ 645326.539760597515851, 1891576.03788262559101 ], [ 645336.028974501532502, 1891586.044986811932176 ], [ 645345.587898097583093, 1891586.112030056072399 ], [ 645345.587898097583093, 1891586.112030056072399 ], [ 645355.077098477166146, 1891596.119144078344107 ], [ 645355.077098477166146, 1891596.119144078344107 ], [ 645364.56628962024115, 1891606.126263215206563 ], [ 645364.56628962024115, 1891606.126263215206563 ], [ 645374.055471528205089, 1891616.133387466659769 ], [ 645374.055471528205089, 1891616.133387466659769 ], [ 645383.544644199660979, 1891626.140516832238063 ], [ 645383.544644199660979, 1891626.140516832238063 ], [ 645393.033807638450526, 1891636.147651312407106 ], [ 645393.033807638450526, 1891636.147651312407106 ], [ 645402.522961840732023, 1891646.154790906934068 ], [ 645402.522961840732023, 1891646.154790906934068 ], [ 645412.012106807553209, 1891656.161935616517439 ], [ 645412.012106807553209, 1891656.161935616517439 ], [ 645421.501242538914084, 1891666.169085440924391 ], [ 645431.060132106998935, 1891666.236170874210075 ], [ 645431.060132106998935, 1891666.236170874210075 ], [ 645440.549254312179983, 1891676.243330535944551 ], [ 645440.549254312179983, 1891676.243330535944551 ], [ 645450.038367281667888, 1891686.250495311571285 ], [ 645450.038367281667888, 1891686.250495311571285 ] ] } },
{ "type": "Feature", "properties": { "year": 2024, "month": null }, "geometry": { "type": "LineString", "coordinates": [ [ 644752.815451620728709, 1890230.051358773140237 ], [ 644752.746069952379912, 1890239.991394083946943 ], [ 644743.186545847798698, 1890239.924670426407829 ], [ 644733.627022041007876, 1890239.857951177284122 ], [ 644724.067498530494049, 1890239.791236339369789 ], [ 644714.507975316373631, 1890239.724525910336524 ], [ 644704.948452397366054, 1890239.657819891115651 ], [ 644695.38892977591604, 1890239.591118281241506 ], [ 644685.829407450859435, 1890239.524421081645414 ], [ 644676.269885421963409, 1890239.457728291163221 ], [ 644666.710363688180223, 1890239.391039910260588 ], [ 644657.15084225172177, 1890239.324355938937515 ], [ 644647.591321113170125, 1890239.257676377892494 ], [ 644638.031800269265659, 1890239.191001226892695 ], [ 644628.472279720241204, 1890239.124330484541133 ], [ 644618.912759468774311, 1890239.057664152001962 ], [ 644609.353239513467997, 1890238.991002229508013 ], [ 644599.793719854205847, 1890238.924344716360793 ], [ 644590.234200489823706, 1890238.857691613025963 ], [ 644580.674681422766298, 1890238.791042919037864 ], [ 644571.115162651869468, 1890238.724398634629324 ], [ 644561.555644177016802, 1890238.657758760498837 ], [ 644551.996125996811315, 1890238.591123295482248 ], [ 644542.436608115327545, 1890238.524492240510881 ], [ 644532.877090528607368, 1890238.457865595119074 ], [ 644523.317573237698525, 1890238.391243359073997 ], [ 644513.758056241436861, 1890238.324625533074141 ], [ 644504.19853954249993, 1890238.258012116188183 ], [ 644494.639023139490746, 1890238.191403109580278 ], [ 644485.079507032292895, 1890238.124798512319103 ], [ 644475.519991219625808, 1890238.058198324637488 ], [ 644465.960475704167038, 1890237.991602546535432 ], [ 644456.400960484752432, 1890237.925011178245768 ], [ 644446.841445560916327, 1890237.858424219535664 ], [ 644437.281930932891555, 1890237.791841670172289 ], [ 644427.722416600794531, 1890237.725263531319797 ], [ 644418.162902564392425, 1890237.658689801348373 ], [ 644408.603388823685236, 1890237.59212048095651 ], [ 644399.043875377392396, 1890237.525555570377037 ], [ 644389.484362228075042, 1890237.458995069609955 ], [ 644379.924849374569021, 1890237.392438978422433 ], [ 644370.365336816641502, 1890237.32588729634881 ], [ 644360.805824553011917, 1890237.259340025018901 ], [ 644360.736630522878841, 1890247.199362798128277 ], [ 644351.177123141475022, 1890247.132819628342986 ], [ 644351.10793334315531, 1890257.072842177236453 ], [ 644351.03874319139868, 1890267.012864809250459 ], [ 644350.969552686321549, 1890276.952887524152175 ], [ 644350.900361827807501, 1890286.892910322640091 ], [ 644341.340873082866892, 1890286.826370333554223 ], [ 644341.271686456399038, 1890296.766392906662077 ], [ 644331.712202593684196, 1890296.69985702005215 ], [ 644322.152719023753889, 1890296.633325542090461 ], [ 644312.662408621399663, 1890286.626776823308319 ], [ 644312.662408621399663, 1890286.626776823308319 ], [ 644303.172088990686461, 1890276.620233211200684 ], [ 644303.241256569745019, 1890266.680212032515556 ], [ 644303.310423795250244, 1890256.740190936718136 ], [ 644303.379590667667799, 1890246.800169924506918 ], [ 644303.379590667667799, 1890246.800169924506918 ], [ 644293.889246993465349, 1890236.793632590444759 ], [ 644293.889246993465349, 1890236.793632590444759 ], [ 644284.329737094347365, 1890236.727120595984161 ], [ 644274.770227491972037, 1890236.660613010404631 ], [ 644265.21071818494238, 1890236.594109835103154 ], [ 644255.651209173491225, 1890236.527611068915576 ], [ 644246.091700456105173, 1890236.461116712074727 ], [ 644236.532192035345361, 1890236.39462676551193 ], [ 644226.972683911444619, 1890236.328141228761524 ], [ 644217.41317608137615, 1890236.261660101357847 ], [ 644207.853668545372784, 1890236.195183382835239 ], [ 644198.294161305995658, 1890236.128711075056344 ], [ 644188.734654361964203, 1890236.062243175925687 ], [ 644179.175147713162005, 1890235.995779687073082 ], [ 644169.615641358308494, 1890235.929320607800037 ], [ 644160.056135299964808, 1890235.862865937873721 ], [ 644150.496629536850378, 1890235.796415677759796 ], [ 644140.937124068965204, 1890235.729969826992601 ], [ 644131.377618894912302, 1890235.663528386270627 ], [ 644121.818114018649794, 1890235.597091354895383 ], [ 644112.258609436219558, 1890235.530658732634038 ], [ 644102.699105148902163, 1890235.464230521116406 ], [ 644093.139601155300625, 1890235.397806718014181 ], [ 644083.580097458092496, 1890235.331387325655669 ], [ 644074.020594056113623, 1890235.264972342178226 ], [ 644064.461090949014761, 1890235.198561768513173 ], [ 644054.90158813551534, 1890235.13215560442768 ], [ 644045.342085618525743, 1890235.065753849921748 ], [ 644035.782583396416157, 1890234.999356505228207 ], [ 644026.223081469302997, 1890234.932963569881395 ], [ 644016.663579838466831, 1890234.866575044346973 ], [ 644007.104078499833122, 1890234.800190928159282 ], [ 643997.544577457476407, 1890234.73381122155115 ], [ 643987.985076709999703, 1890234.667435925221071 ], [ 643987.916061500785872, 1890244.607446725480258 ], [ 643978.35656563192606, 1890244.541075532091781 ], [ 643978.287554655456915, 1890254.481086108600721 ], [ 643978.218543326598592, 1890264.421096768928692 ], [ 643987.70901375846006, 1890274.427479625679553 ], [ 643987.70901375846006, 1890274.427479625679553 ], [ 643997.199474961031228, 1890284.43386758887209 ], [ 644006.75895307736937, 1890284.500248828204349 ], [ 644016.31843149010092, 1890284.566634477581829 ], [ 644025.877910195034929, 1890284.633024536306038 ], [ 644035.437389196245931, 1890284.699419004842639 ], [ 644044.996868492336944, 1890284.76581788319163 ], [ 644054.556348083424382, 1890284.832221171353012 ], [ 644064.115827970905229, 1890284.898628869792446 ], [ 644073.675308151985519, 1890284.965040976880118 ], [ 644073.675308151985519, 1890284.965040976880118 ], [ 644083.165725804050453, 1890294.971471776720136 ], [ 644083.165725804050453, 1890294.971471776720136 ], [ 644092.656134227872826, 1890304.977907682769001 ], [ 644102.215606124838814, 1890305.044333633501083 ], [ 644102.215606124838814, 1890305.044333633501083 ], [ 644111.706001030164771, 1890315.050779363140464 ], [ 644111.706001030164771, 1890315.050779363140464 ], [ 644121.196386707248166, 1890325.057230199221522 ], [ 644121.196386707248166, 1890325.057230199221522 ], [ 644130.686763154459186, 1890335.063686141278595 ], [ 644130.686763154459186, 1890335.063686141278595 ], [ 644140.177130375988781, 1890345.070147190941498 ], [ 644149.736585405888036, 1890345.136596417985857 ], [ 644159.296040731016546, 1890345.203050054609776 ], [ 644168.855496351374313, 1890345.269508101046085 ], [ 644178.41495226835832, 1890345.335970557527617 ], [ 644178.484062709962018, 1890335.395952790277079 ], [ 644188.043523506028578, 1890335.46241934876889 ], [ 644197.602984597557224, 1890335.528890318470076 ], [ 644207.162445984315127, 1890335.595365696819499 ], [ 644216.721907667582855, 1890335.661845485214144 ], [ 644226.2813696450321, 1890335.728329684119672 ], [ 644235.840831916313618, 1890335.794818292139098 ], [ 644245.400294484337792, 1890335.861311310203746 ], [ 644254.959757349221036, 1890335.927808738080785 ], [ 644254.959757349221036, 1890335.927808738080785 ], [ 644264.450068798032589, 1890345.934331107418984 ], [ 644264.450068798032589, 1890345.934331107418984 ], [ 644264.380916734808125, 1890355.87435172079131 ], [ 644264.311764318379574, 1890365.814372417749837 ], [ 644264.242611548863351, 1890375.754393198527396 ], [ 644264.173458426259458, 1890385.69441406102851 ], [ 644254.614018194610253, 1890385.627910687355325 ], [ 644254.544869304285385, 1890395.567931326571852 ], [ 644254.475720060872845, 1890405.507952048676088 ], [ 644244.916289294254966, 1890405.441452470608056 ], [ 644244.847144283237867, 1890415.38147296779789 ], [ 644235.28771839896217, 1890415.314977492438629 ], [ 644235.218577620340511, 1890425.254997767275199 ], [ 644225.659156618523411, 1890425.188506394857541 ], [ 644225.590020072413608, 1890435.128526444314048 ], [ 644216.030603950028308, 1890435.062039175070822 ], [ 644215.961471636546776, 1890445.002059001242742 ], [ 644206.402060393709689, 1890444.935575834941119 ], [ 644206.332932312856428, 1890454.875595436664298 ], [ 644196.773525952361524, 1890454.809116373304278 ], [ 644196.704402104136534, 1890464.749135750811547 ], [ 644187.145000624586828, 1890464.68266079085879 ], [ 644187.075881009106524, 1890474.622679944615811 ], [ 644177.516484410502017, 1890474.556209087371826 ], [ 644177.447369027766399, 1890484.496228016912937 ], [ 644167.887977308710106, 1890484.429761263309047 ], [ 644167.818866158719175, 1890494.369779969099909 ], [ 644158.259479322005063, 1890494.30331731820479 ], [ 644158.190372404875234, 1890504.243335800012574 ], [ 644148.630990449106321, 1890504.176877252757549 ], [ 644148.561887764837593, 1890514.116895510582253 ], [ 644139.002510690130293, 1890514.050441066501662 ], [ 644138.933412238839082, 1890523.990459100808948 ], [ 644129.374040043563582, 1890523.924008759437129 ], [ 644129.304945825249888, 1890533.864026569761336 ], [ 644119.745578513713554, 1890533.797580332029611 ], [ 644110.186211495893076, 1890533.731138504575938 ], [ 644110.117126096505672, 1890543.671155785210431 ], [ 644100.557763959630392, 1890543.604718060931191 ], [ 644100.488682793220505, 1890553.544735116651282 ], [ 644090.929325536009856, 1890553.478301495546475 ], [ 644090.860248602810316, 1890563.418318327749148 ], [ 644081.300896227825433, 1890563.351888810750097 ], [ 644081.231823527836241, 1890573.291905419202521 ], [ 644071.672476033796556, 1890573.225480005610734 ], [ 644071.603407567017712, 1890583.16549639031291 ], [ 644062.044064954039641, 1890583.099075079895556 ], [ 644052.484722634544596, 1890583.032658179989085 ], [ 644042.925380611442961, 1890582.966245690826327 ], [ 644033.366038883337751, 1890582.899837611475959 ], [ 644033.296988407615572, 1890592.839852852746844 ], [ 644023.737651560455561, 1890592.773448877269402 ], [ 644023.66860531817656, 1890602.713463894557208 ], [ 644014.1092733531259, 1890602.647064023185521 ], [ 644014.040231344406493, 1890612.587078816955909 ], [ 644004.480904257623479, 1890612.520683048292994 ], [ 644004.41186648234725, 1890622.460697619477287 ], [ 643994.852544277673587, 1890622.394305955152959 ], [ 643994.783510735956952, 1890632.334320301888511 ], [ 643994.714476841734722, 1890642.27433473104611 ], [ 643994.645442595006898, 1890652.214349244954064 ], [ 643994.576407995773479, 1890662.154363840585575 ], [ 643994.507373044034466, 1890672.094378520036116 ], [ 643984.948074064799584, 1890672.027989733032882 ], [ 643984.87904334673658, 1890681.968004188267514 ], [ 643984.810012276167981, 1890691.908018727321178 ], [ 643984.740980853326619, 1890701.84803334902972 ], [ 643984.671949077746831, 1890711.788048053858802 ], [ 643984.602916949894279, 1890721.728062841575593 ], [ 643984.533884469419718, 1890731.668077713111416 ], [ 643974.974613300990313, 1890731.601691497722641 ], [ 643974.905585054424591, 1890741.541706145042554 ], [ 643974.836556455353275, 1890751.481720875483006 ], [ 643974.767527503892779, 1890761.421735689975321 ], [ 643965.20827039075084, 1890761.355352965183556 ], [ 643965.139245673199184, 1890771.295367555459961 ] ] } }
]
}
