{
"type": "FeatureCollection",
"name": "shoreline_2020",
"crs": { "type": "name", "properties": { "name": "urn:ogc:def:crs:EPSG::32644" } },
"features": [
{ "type": "Feature", "properties": { "year": 2020, "month": null }, "geometry": { "type": "LineString", "coordinates": [ [ 643589.376544548314996, 1889814.403816800331697 ], [ 643598.936225483193994, 1889814.469994052546099 ], [ 643608.495906710973941, 1889814.536175712943077 ], [ 643618.055588232818991, 1889814.602361782453954 ], [ 643627.615270048729144, 1889814.668552260380238 ], [ 643627.615270048729144, 1889814.668552260380238 ], [ 643637.106121368473396, 1889824.674743128707632 ], [ 643637.106121368473396, 1889824.674743128707632 ], [ 643646.596963459742256, 1889834.680939100449905 ], [ 643646.596963459742256, 1889834.680939100449905 ], [ 643656.08779632661026, 1889844.687140175141394 ], [ 643656.08779632661026, 1889844.687140175141394 ], [ 643656.018955311621539, 1889854.627137018134817 ], [ 643665.509774016798474, 1889864.633343585766852 ], [ 643665.509774016798474, 1889864.633343585766852 ], [ 643675.000583497341722, 1889874.639555257512257 ], [ 643675.000583497341722, 1889874.639555257512257 ], [ 643684.491383750573732, 1889884.64577203290537 ], [ 643684.491383750573732, 1889884.64577203290537 ], [ 643684.422527576098219, 1889894.585770125733688 ], [ 643684.353671049815603, 1889904.525768301216885 ], [ 643693.844452204881236, 1889914.53199095861055 ], [ 643693.844452204881236, 1889914.53199095861055 ], [ 643703.335224133799784, 1889924.538218719419092 ], [ 643703.335224133799784, 1889924.538218719419092 ], [ 643712.8259868377354, 1889934.544451584806666 ], [ 643712.8259868377354, 1889934.544451584806666 ], [ 643712.757115151267499, 1889944.48445101082325 ], [ 643712.688243113108911, 1889954.424450519261882 ], [ 643712.61937072314322, 1889964.364450111752376 ], [ 643712.550497981254011, 1889974.304449786664918 ], [ 643712.4816248875577, 1889984.244449544465169 ], [ 643712.412751442170702, 1889994.184449385618791 ], [ 643712.343877644976601, 1890004.124449309660122 ], [ 643721.834596567088738, 1890014.130690002813935 ], [ 643721.834596567088738, 1890014.130690002813935 ], [ 643721.765717481728643, 1890024.070690399035811 ], [ 643731.256422240636311, 1890034.076936585828662 ], [ 643731.256422240636311, 1890034.076936585828662 ], [ 643740.747117772931233, 1890044.083187876502052 ], [ 643750.306697971886024, 1890044.149442708818242 ], [ 643750.306697971886024, 1890044.149442708818242 ], [ 643759.797379988362081, 1890054.155703819356859 ], [ 643759.797379988362081, 1890054.155703819356859 ], [ 643769.288052776595578, 1890064.161970034474507 ], [ 643769.288052776595578, 1890064.161970034474507 ], [ 643778.778716337867081, 1890074.168241353938356 ], [ 643778.778716337867081, 1890074.168241353938356 ], [ 643788.269370673457161, 1890084.17451777914539 ], [ 643797.828934007091448, 1890084.240795881487429 ], [ 643797.828934007091448, 1890084.240795881487429 ], [ 643807.319574824068695, 1890094.247082126326859 ], [ 643816.879134161863476, 1890094.313369353301823 ], [ 643826.438693795586005, 1890094.379660990089178 ], [ 643835.998253722325899, 1890094.445957035524771 ], [ 643845.557813943829387, 1890094.512257491238415 ], [ 643855.117374458466657, 1890094.578562355600297 ], [ 643864.676935269031674, 1890094.644871629308909 ], [ 643874.236496375524439, 1890094.711185313062742 ], [ 643874.236496375524439, 1890094.711185313062742 ], [ 643883.727097933879122, 1890104.717509671812877 ], [ 643883.727097933879122, 1890104.717509671812877 ], [ 643893.217690264806151, 1890114.723839135607705 ], [ 643893.217690264806151, 1890114.723839135607705 ], [ 643893.148725134087726, 1890124.663845874834806 ], [ 643893.079759650980122, 1890134.603852696716785 ], [ 643893.010793815599754, 1890144.543859601486474 ], [ 643892.941827627946623, 1890154.483866589842364 ], [ 643892.872861088137142, 1890164.423873661551625 ], [ 643892.803894195938483, 1890174.36388081475161 ], [ 643892.73492695169989, 1890184.303888052469119 ], [ 643902.225475496612489, 1890194.310225348221138 ], [ 643902.225475496612489, 1890194.310225348221138 ], [ 643911.71601481246762, 1890204.31656774901785 ], [ 643911.71601481246762, 1890204.31656774901785 ], [ 643921.20654490054585, 1890214.322915254859254 ], [ 643930.766052754595876, 1890214.389259072486311 ], [ 643930.766052754595876, 1890214.389259072486311 ], [ 643940.256569326040335, 1890224.395616400055587 ], [ 643949.8160731846001, 1890224.46196934231557 ], [ 643959.375577336526476, 1890224.528326694155112 ], [ 643968.935081784613431, 1890224.594688456039876 ], [ 643978.49458652746398, 1890224.661054626805708 ], [ 643978.49458652746398, 1890224.661054626805708 ], [ 643987.985076709999703, 1890234.66743592498824 ], [ 643987.985076709999703, 1890234.66743592498824 ], [ 643987.916061500785872, 1890244.607446725480258 ], [ 643987.847045939182863, 1890254.547457608859986 ], [ 643987.778030025074258, 1890264.487468575360253 ], [ 643987.70901375846006, 1890274.427479625679553 ], [ 643997.199474961031228, 1890284.433867588639259 ], [ 643997.199474961031228, 1890284.433867588639259 ], [ 644006.689926935359836, 1890294.44026065710932 ], [ 644016.249400762841105, 1890294.506646612891927 ], [ 644016.249400762841105, 1890294.506646612891927 ], [ 644025.739839218556881, 1890304.513049503788352 ], [ 644025.739839218556881, 1890304.513049503788352 ], [ 644035.230268446262926, 1890314.519457500893623 ], [ 644035.230268446262926, 1890314.519457500893623 ], [ 644044.720688445609994, 1890324.525870605139062 ], [ 644044.720688445609994, 1890324.525870605139062 ], [ 644054.21109921799507, 1890334.532288814662024 ], [ 644054.21109921799507, 1890334.532288814662024 ], [ 644063.701500759227201, 1890344.538712130859494 ], [ 644073.26095342845656, 1890344.605126078706235 ], [ 644073.26095342845656, 1890344.605126078706235 ], [ 644082.751341452240013, 1890354.61155921779573 ], [ 644082.751341452240013, 1890354.61155921779573 ], [ 644092.241720247548074, 1890364.617997463094071 ], [ 644092.241720247548074, 1890364.617997463094071 ], [ 644101.732089815661311, 1890374.624440815765411 ], [ 644111.291529908776283, 1890374.690873323939741 ], [ 644111.291529908776283, 1890374.690873323939741 ], [ 644120.781885956646875, 1890384.697326499503106 ], [ 644120.781885956646875, 1890384.697326499503106 ], [ 644120.712801263434812, 1890394.637342839734629 ], [ 644120.64371621736791, 1890404.577359264018014 ], [ 644120.574630818562582, 1890414.517375770956278 ], [ 644130.064962823991664, 1890424.523835222469643 ], [ 644130.064962823991664, 1890424.523835222469643 ], [ 644139.555285599199124, 1890434.530299781821668 ], [ 644139.555285599199124, 1890434.530299781821668 ], [ 644149.04559914546553, 1890444.53676944761537 ], [ 644149.04559914546553, 1890444.53676944761537 ], [ 644148.976498578442261, 1890454.476787207415327 ], [ 644148.907397658680566, 1890464.416805050568655 ], [ 644148.838296385947615, 1890474.356822976144031 ], [ 644148.769194760359824, 1890484.296840985072777 ], [ 644148.700092781800777, 1890494.236859077587724 ], [ 644158.190372406272218, 1890504.243335799779743 ], [ 644158.190372406272218, 1890504.243335799779743 ], [ 644158.121265136287548, 1890514.183354364940897 ], [ 644167.611530591384508, 1890524.189836584730074 ], [ 644167.611530591384508, 1890524.189836584730074 ], [ 644167.542418029741384, 1890534.129855623003095 ], [ 644167.47330511524342, 1890544.069874744629487 ], [ 644167.4041918477742, 1890554.009893948677927 ], [ 644167.335078227333724, 1890563.949913235846907 ], [ 644167.265964254038408, 1890573.889932606834918 ], [ 644167.196849927888252, 1890583.829952059779316 ], [ 644167.127735248650424, 1890593.769971596542746 ], [ 644167.058620216674171, 1890603.709991216426715 ], [ 644166.989504831610247, 1890613.650010918267071 ], [ 644166.920389093691483, 1890623.590030704624951 ], [ 644166.851273002917878, 1890633.530050573404878 ], [ 644166.782156559289433, 1890643.470070524606854 ], [ 644176.27235352084972, 1890653.476562532130629 ], [ 644176.27235352084972, 1890653.476562532130629 ], [ 644185.762541251257062, 1890663.483059647725895 ], [ 644195.321851012529805, 1890663.549540748121217 ], [ 644204.881161069031805, 1890663.616026258794591 ], [ 644204.950296563096344, 1890653.676004913402721 ], [ 644214.509611502289772, 1890653.742494527483359 ], [ 644214.578751229564659, 1890643.802472957409918 ], [ 644224.138071048888378, 1890643.868966675363481 ], [ 644224.207215009257197, 1890633.928944881772622 ], [ 644233.766539709991775, 1890633.995442702900618 ], [ 644233.835687903221697, 1890624.05542068509385 ], [ 644243.395017486764118, 1890624.12192260962911 ], [ 644252.954347364371642, 1890624.188428944442421 ], [ 644262.513677537208423, 1890624.254939690232277 ], [ 644272.073008004110307, 1890624.321454845834523 ], [ 644281.632338767871261, 1890624.387974412180483 ], [ 644281.632338767871261, 1890624.387974412180483 ], [ 644291.122494118637405, 1890634.394522249465808 ], [ 644300.68182088714093, 1890634.461050944169983 ], [ 644310.241147951106541, 1890634.527584048686549 ], [ 644319.800475310650654, 1890634.594121563946828 ], [ 644329.359802966937423, 1890634.66066348948516 ], [ 644329.359802966937423, 1890634.66066348948516 ], [ 644338.849931924021803, 1890644.667235305532813 ], [ 644338.849931924021803, 1890644.667235305532813 ], [ 644348.340051651233807, 1890654.67381223035045 ], [ 644348.340051651233807, 1890654.67381223035045 ], [ 644357.830162149388343, 1890664.680394263006747 ], [ 644357.830162149388343, 1890664.680394263006747 ], [ 644367.320263416389935, 1890674.686981404200196 ], [ 644376.879574203281663, 1890674.753546611405909 ], [ 644376.879574203281663, 1890674.753546611405909 ], [ 644386.369661949458532, 1890684.760143579449505 ], [ 644386.369661949458532, 1890684.760143579449505 ], [ 644395.859740465413779, 1890694.76674565509893 ], [ 644395.859740465413779, 1890694.76674565509893 ], [ 644395.79051183431875, 1890704.706773477606475 ], [ 644405.280576181598008, 1890714.713381053181365 ], [ 644405.280576181598008, 1890714.713381053181365 ], [ 644414.77063129702583, 1890724.719993736129254 ], [ 644414.77063129702583, 1890724.719993736129254 ], [ 644424.260677182115614, 1890734.726611528545618 ], [ 644424.260677182115614, 1890734.726611528545618 ], [ 644433.750713836634532, 1890744.733234429266304 ], [ 644433.750713836634532, 1890744.733234429266304 ], [ 644443.240741261979565, 1890754.739862438524142 ], [ 644443.240741261979565, 1890754.739862438524142 ], [ 644443.171487578190863, 1890764.679892297601327 ], [ 644452.661500831600279, 1890774.686525807250291 ], [ 644452.661500831600279, 1890774.686525807250291 ], [ 644462.151504854205996, 1890784.693164424505085 ], [ 644471.710768151562661, 1890784.7597771207802 ], [ 644471.710768151562661, 1890784.7597771207802 ], [ 644481.20075865148101, 1890794.766425565816462 ], [ 644481.20075865148101, 1890794.766425565816462 ], [ 644481.131485207471997, 1890804.706456987187266 ], [ 644490.621461537666619, 1890814.713110932148993 ], [ 644490.621461537666619, 1890814.713110932148993 ], [ 644490.552182799670845, 1890824.653142827097327 ], [ 644490.482903707888909, 1890834.5931748051662 ], [ 644490.413624262437224, 1890844.533206865889952 ], [ 644490.344344463432208, 1890854.473239010432735 ], [ 644490.275064310524613, 1890864.413271237397566 ], [ 644480.715837115305476, 1890864.346647258615121 ], [ 644480.646561195375398, 1890874.286679260898381 ], [ 644471.087338884128258, 1890874.220059385290369 ], [ 644471.018067197175696, 1890884.16009116359055 ], [ 644461.458849765593186, 1890884.093475391389802 ], [ 644451.899632631218992, 1890884.026864029699937 ], [ 644442.340415792539716, 1890883.960257079917938 ], [ 644432.781199248274788, 1890883.893654540413991 ], [ 644423.221983001101762, 1890883.827056412352249 ], [ 644423.152733894065022, 1890893.767086735693738 ], [ 644413.593522529350594, 1890893.70049271103926 ], [ 644413.524277655407786, 1890903.640522809699178 ], [ 644413.455032428028062, 1890913.580552991712466 ], [ 644413.38578684697859, 1890923.520583256613463 ], [ 644422.875733930268325, 1890933.527208859566599 ], [ 644422.875733930268325, 1890933.527208859566599 ], [ 644432.36567178205587, 1890943.533839571056888 ], [ 644441.924860805738717, 1890943.600443955510855 ], [ 644451.484050123952329, 1890943.667052750941366 ], [ 644451.484050123952329, 1890943.667052750941366 ], [ 644460.973970161983743, 1890953.673698009457439 ], [ 644460.973970161983743, 1890953.673698009457439 ], [ 644470.463880970026366, 1890963.680348377674818 ], [ 644480.023062000283971, 1890963.746971021872014 ], [ 644489.582243327982724, 1890963.813598076580092 ], [ 644499.141424951376393, 1890963.880229542963207 ], [ 644508.700606870581396, 1890963.946865420090035 ], [ 644508.769899734295905, 1890954.006831747246906 ], [ 644518.329086537705734, 1890954.073471728013828 ], [ 644518.39838363439776, 1890944.133437829790637 ], [ 644527.957575319218449, 1890944.200081913964823 ], [ 644528.026876649004407, 1890934.260047791991383 ], [ 644528.096177625004202, 1890924.320013752672821 ], [ 644528.165478247217834, 1890914.379979797173291 ], [ 644537.724683988257311, 1890914.446627368917689 ], [ 644537.79398884344846, 1890904.506593188038096 ], [ 644537.863293344737031, 1890894.566559090511873 ], [ 644547.422508555231616, 1890894.633210458094254 ], [ 644547.491817289381288, 1890884.693176135420799 ], [ 644557.051037383964285, 1890884.759831606643274 ], [ 644557.120350350975059, 1890874.819797059521079 ], [ 644566.6795753268525, 1890874.886456633452326 ], [ 644566.74889252660796, 1890864.94642186164856 ], [ 644576.308122385060415, 1890865.01308553875424 ], [ 644585.867352538276464, 1890865.079753627069294 ], [ 644595.426582990214229, 1890865.146426125895232 ], [ 644604.985813736915588, 1890865.213103036163375 ], [ 644614.545044779544696, 1890865.279784357175231 ], [ 644614.545044779544696, 1890865.279784357175231 ], [ 644624.034931398578919, 1890875.286506708012894 ], [ 644633.594158448278904, 1890875.353197158779949 ], [ 644633.594158448278904, 1890875.353197158779949 ], [ 644643.084031545440666, 1890885.359929338330403 ], [ 644643.084031545440666, 1890885.359929338330403 ], [ 644652.573895411333069, 1890895.366666628513485 ], [ 644652.573895411333069, 1890895.366666628513485 ], [ 644662.063750045839697, 1890905.373409027932212 ], [ 644671.622964520007372, 1890905.440118046477437 ], [ 644671.622964520007372, 1890905.440118046477437 ], [ 644681.112805632525124, 1890915.446870275773108 ], [ 644681.112805632525124, 1890915.446870275773108 ], [ 644690.602637512143701, 1890925.453627613838762 ], [ 644690.602637512143701, 1890925.453627613838762 ], [ 644700.092460161540657, 1890935.460390063468367 ], [ 644700.092460161540657, 1890935.460390063468367 ], [ 644709.582273580832407, 1890945.467157622100785 ], [ 644719.141471187816933, 1890945.53388992859982 ], [ 644728.700669090962037, 1890945.600626645842567 ], [ 644728.700669090962037, 1890945.600626645842567 ], [ 644738.19046469614841, 1890955.607408754527569 ], [ 644738.19046469614841, 1890955.607408754527569 ], [ 644747.680251070880331, 1890965.614195973146707 ], [ 644757.239440689445473, 1890965.680946540087461 ], [ 644766.798630604287609, 1890965.747701518703252 ], [ 644766.798630604287609, 1890965.747701518703252 ], [ 644776.288399165030569, 1890975.754503285745159 ], [ 644776.288399165030569, 1890975.754503285745159 ], [ 644776.218977159936912, 1890985.694545747479424 ], [ 644785.708731548744254, 1890995.701353018404916 ], [ 644785.708731548744254, 1890995.701353018404916 ], [ 644795.198476702906191, 1891005.708165398566052 ], [ 644795.198476702906191, 1891005.708165398566052 ], [ 644804.688212626380846, 1891015.714982890058309 ], [ 644804.688212626380846, 1891015.714982890058309 ], [ 644814.177939318004064, 1891025.721805492648855 ], [ 644814.177939318004064, 1891025.721805492648855 ], [ 644823.667656778823584, 1891035.72863320610486 ], [ 644823.667656778823584, 1891035.72863320610486 ], [ 644833.157365006161854, 1891045.735466029960662 ], [ 644833.157365006161854, 1891045.735466029960662 ], [ 644842.64706400106661, 1891055.742303965380415 ], [ 644842.64706400106661, 1891055.742303965380415 ], [ 644852.136753764003515, 1891065.749147011898458 ], [ 644852.136753764003515, 1891065.749147011898458 ], [ 644861.626434295903891, 1891075.755995170213282 ], [ 644861.626434295903891, 1891075.755995170213282 ], [ 644871.116105594090186, 1891085.762848438695073 ], [ 644871.116105594090186, 1891085.762848438695073 ], [ 644880.605767659842968, 1891095.769706819206476 ], [ 644880.605767659842968, 1891095.769706819206476 ], [ 644890.095420493278652, 1891105.776570310583338 ], [ 644890.095420493278652, 1891105.776570310583338 ], [ 644899.585064094047993, 1891115.783438914222643 ], [ 644899.585064094047993, 1891115.783438914222643 ], [ 644909.074698462267406, 1891125.790312628494576 ], [ 644909.074698462267406, 1891125.790312628494576 ], [ 644918.564323597936891, 1891135.797191454330459 ], [ 644918.564323597936891, 1891135.797191454330459 ], [ 644928.053939500940032, 1891145.804075392195955 ], [ 644937.613052187254652, 1891145.87091532535851 ], [ 644947.172165169031359, 1891145.937759670196101 ], [ 644947.172165169031359, 1891145.937759670196101 ], [ 644956.661763258161955, 1891155.944658159743994 ], [ 644956.661763258161955, 1891155.944658159743994 ], [ 644956.592247713822871, 1891165.88470797566697 ], [ 644956.522731814649887, 1891175.824757875408977 ], [ 644956.453215560643002, 1891185.764807858271524 ], [ 644965.942789590219036, 1891195.771712634479627 ], [ 644965.942789590219036, 1891195.771712634479627 ], [ 644975.432354388060048, 1891205.77862252225168 ], [ 644975.432354388060048, 1891205.77862252225168 ], [ 644984.921909951488487, 1891215.785537523217499 ], [ 644984.921909951488487, 1891215.785537523217499 ], [ 644994.411456281784922, 1891225.792457635048777 ], [ 645003.970534343738109, 1891225.859330918872729 ], [ 645013.529612705111504, 1891225.926208614138886 ], [ 645023.0886913620634, 1891225.99309072108008 ], [ 645032.647770315990783, 1891226.059977239696309 ], [ 645042.206849566777237, 1891226.126868169987574 ], [ 645042.206849566777237, 1891226.126868169987574 ], [ 645051.696365212323144, 1891236.133816997520626 ], [ 645051.696365212323144, 1891236.133816997520626 ], [ 645051.626800953526981, 1891246.073870564810932 ], [ 645061.116302421782166, 1891256.080824896227568 ], [ 645061.116302421782166, 1891256.080824896227568 ], [ 645061.046732865273952, 1891266.020878938492388 ], [ 645060.977162953699008, 1891275.960933063877746 ], [ 645060.907592686824501, 1891285.900987272849306 ], [ 645060.838022064999677, 1891295.841041564475745 ], [ 645060.768451088108122, 1891305.781095938524231 ], [ 645070.257918609073386, 1891315.788057341706008 ], [ 645070.257918609073386, 1891315.788057341706008 ], [ 645079.747376896440983, 1891325.795023856684566 ], [ 645089.306411757017486, 1891325.861939934780821 ], [ 645098.865446913288906, 1891325.928860424086452 ], [ 645108.424482365371659, 1891325.99578532576561 ], [ 645117.983518115943298, 1891326.062714639585465 ], [ 645127.542554164887406, 1891326.129648365080357 ], [ 645137.101590509526432, 1891326.196586502483115 ], [ 645146.660627151490189, 1891326.263529051560909 ], [ 645156.219664090545848, 1891326.330476012546569 ], [ 645156.219664090545848, 1891326.330476012546569 ], [ 645165.709078820189461, 1891336.337485407479107 ], [ 645165.709078820189461, 1891336.337485407479107 ], [ 645175.198484314838424, 1891346.344499915605411 ], [ 645175.198484314838424, 1891346.344499915605411 ], [ 645175.12885650829412, 1891356.284558412618935 ], [ 645175.05922834656667, 1891366.22461699298583 ], [ 645174.989599829306826, 1891376.164675656473264 ], [ 645174.91997095674742, 1891386.104734401917085 ], [ 645174.850341728655621, 1891396.044793231412768 ], [ 645174.780712145380676, 1891405.984852143796161 ], [ 645174.711082206573337, 1891415.924911139067262 ], [ 645184.200443864217959, 1891425.931933505227789 ], [ 645184.200443864217959, 1891425.931933505227789 ], [ 645193.689796287450008, 1891435.93896098411642 ], [ 645203.248784247087315, 1891436.005933405132964 ], [ 645212.807772501255386, 1891436.072910238523036 ], [ 645222.366761053912342, 1891436.139891483820975 ], [ 645231.925749904010445, 1891436.20687714102678 ], [ 645241.484739052713849, 1891436.273867210606113 ], [ 645241.484739052713849, 1891436.273867210606113 ], [ 645250.974060788168572, 1891446.280923409853131 ], [ 645250.974060788168572, 1891446.280923409853131 ], [ 645250.904392723343335, 1891456.220985210500658 ], [ 645260.393700280692428, 1891466.228046915726736 ], [ 645260.393700280692428, 1891466.228046915726736 ], [ 645269.882998603745364, 1891476.235113734379411 ], [ 645279.441970589687116, 1891476.302122689550743 ], [ 645289.000942871673033, 1891476.369136057095602 ], [ 645298.559915451100096, 1891476.436153836548328 ], [ 645298.559915451100096, 1891476.436153836548328 ], [ 645308.049191667465493, 1891486.443239934276789 ], [ 645308.049191667465493, 1891486.443239934276789 ], [ 645307.979494651313871, 1891496.383303922368214 ], [ 645307.909797279397026, 1891506.323367993580177 ], [ 645307.840099551831372, 1891516.263432148145512 ], [ 645307.770401468500495, 1891526.203496385132894 ], [ 645307.70070302952081, 1891536.143560706172138 ], [ 645307.631004234775901, 1891546.08362510916777 ], [ 645317.12024155294057, 1891556.090718674240634 ], [ 645317.12024155294057, 1891556.090718674240634 ], [ 645326.609469636110589, 1891566.09781735483557 ], [ 645326.609469636110589, 1891566.09781735483557 ], [ 645336.098688484402373, 1891576.104921147925779 ], [ 645336.098688484402373, 1891576.104921147925779 ], [ 645345.587898097583093, 1891586.112030055839568 ], [ 645345.587898097583093, 1891586.112030055839568 ], [ 645355.077098477166146, 1891596.119144078344107 ], [ 645355.077098477166146, 1891596.119144078344107 ], [ 645364.56628962024115, 1891606.126263214973733 ], [ 645364.56628962024115, 1891606.126263214973733 ], [ 645374.055471528205089, 1891616.133387466194108 ], [ 645374.055471528205089, 1891616.133387466194108 ], [ 645383.544644200941548, 1891626.140516832238063 ], [ 645383.544644200941548, 1891626.140516832238063 ], [ 645393.03380763984751, 1891636.147651311941445 ], [ 645393.03380763984751, 1891636.147651311941445 ], [ 645402.522961842129007, 1891646.154790906701237 ], [ 645402.522961842129007, 1891646.154790906701237 ], [ 645412.012106808833778, 1891656.161935616517439 ], [ 645412.012106808833778, 1891656.161935616517439 ], [ 645421.501242538914084, 1891666.169085440225899 ], [ 645421.501242538914084, 1891666.169085440225899 ], [ 645430.990369036328048, 1891676.176240380620584 ], [ 645430.990369036328048, 1891676.176240380620584 ], [ 645440.4794862967683, 1891686.183400433976203 ], [ 645440.4794862967683, 1891686.183400433976203 ], [ 645449.968594321515411, 1891696.190565601922572 ], [ 645449.968594321515411, 1891696.190565601922572 ] ] } }
]
}
