{
"type": "FeatureCollection",
"name": "shoreline_2017",
"crs": { "type": "name", "properties": { "name": "urn:ogc:def:crs:EPSG::32644" } },
"features": [
{ "type": "Feature", "properties": { "year": 2017, "month": null }, "geometry": { "type": "LineString", "coordinates": [ [ 643588.826071737566963, 1889893.92377474415116 ], [ 643598.385715998942032, 1889893.989954442484304 ], [ 643607.945360552985221, 1889894.056138549465686 ], [ 643617.505005401093513, 1889894.122327065793797 ], [ 643627.064650543499738, 1889894.188519990537316 ], [ 643636.624295981135219, 1889894.254717323929071 ], [ 643646.183941710391082, 1889894.320919066667557 ], [ 643655.743587735225447, 1889894.387125217588618 ], [ 643665.303234054124914, 1889894.45333577785641 ], [ 643665.303234054124914, 1889894.45333577785641 ], [ 643674.794028726755641, 1889904.459548617014661 ], [ 643674.794028726755641, 1889904.459548617014661 ], [ 643674.725176433101296, 1889914.399546569911763 ], [ 643674.656323787756264, 1889924.339544605230913 ], [ 643684.147099360707216, 1889934.345763326156884 ], [ 643684.147099360707216, 1889934.345763326156884 ], [ 643693.637865707394667, 1889944.351987150963396 ], [ 643693.637865707394667, 1889944.351987150963396 ], [ 643703.128622827818617, 1889954.358216078719124 ], [ 643712.688243113108911, 1889954.424450519727543 ], [ 643722.247863691416569, 1889954.49068936961703 ], [ 643722.247863691416569, 1889954.49068936961703 ], [ 643731.738603005069308, 1889964.49693283252418 ], [ 643731.738603005069308, 1889964.49693283252418 ], [ 643731.669721094192937, 1889974.436933120014146 ], [ 643741.160446245106868, 1889984.443182075861841 ], [ 643741.160446245106868, 1889984.443182075861841 ], [ 643741.091559046064503, 1889994.383182835299522 ], [ 643750.582270032726228, 1890004.389437284553424 ], [ 643750.582270032726228, 1890004.389437284553424 ], [ 643760.072971795219928, 1890014.395696838386357 ], [ 643769.632566338288598, 1890014.461959570413455 ], [ 643769.632566338288598, 1890014.461959570413455 ], [ 643779.123254582635127, 1890024.468228944344446 ], [ 643779.123254582635127, 1890024.468228944344446 ], [ 643788.613933601649478, 1890034.474503422621638 ], [ 643788.613933601649478, 1890034.474503422621638 ], [ 643798.104603392421268, 1890044.480783005477861 ], [ 643798.104603392421268, 1890044.480783005477861 ], [ 643807.59526395634748, 1890054.487067693611607 ], [ 643807.59526395634748, 1890054.487067693611607 ], [ 643817.085915293428116, 1890064.493357485625893 ], [ 643817.085915293428116, 1890064.493357485625893 ], [ 643826.576557404827327, 1890074.49965238221921 ], [ 643826.576557404827327, 1890074.49965238221921 ], [ 643836.067190287867561, 1890084.505952385021374 ], [ 643836.067190287867561, 1890084.505952385021374 ], [ 643835.998253722325899, 1890094.445957035990432 ], [ 643845.488872441463172, 1890104.452262532897294 ], [ 643845.488872441463172, 1890104.452262532897294 ], [ 643854.979481931892224, 1890114.458573133684695 ], [ 643854.979481931892224, 1890114.458573133684695 ], [ 643864.470082196639851, 1890124.464888840448111 ], [ 643864.470082196639851, 1890124.464888840448111 ], [ 643873.960673235240392, 1890134.471209651790559 ], [ 643873.960673235240392, 1890134.471209651790559 ], [ 643883.451255045365542, 1890144.4775355681777 ], [ 643883.451255045365542, 1890144.4775355681777 ], [ 643892.941827627946623, 1890154.483866590308025 ], [ 643902.501362109323964, 1890154.550195339601487 ], [ 643902.501362109323964, 1890154.550195339601487 ], [ 643911.99192117433995, 1890164.556536182994023 ], [ 643921.551451658713631, 1890164.62287405738607 ], [ 643921.551451658713631, 1890164.62287405738607 ], [ 643931.041997205931693, 1890174.629224722273648 ], [ 643931.041997205931693, 1890174.629224722273648 ], [ 643930.9730116216233, 1890184.569233184447512 ], [ 643940.463543005287647, 1890194.57558934413828 ], [ 643940.463543005287647, 1890194.57558934413828 ], [ 643949.954065159894526, 1890204.58195060910657 ], [ 643959.513578481972218, 1890204.648307347437367 ], [ 643959.513578481972218, 1890204.648307347437367 ], [ 643969.004087118664756, 1890214.65467843436636 ], [ 643969.004087118664756, 1890214.65467843436636 ], [ 643978.49458652746398, 1890224.661054626805708 ], [ 643978.49458652746398, 1890224.661054626805708 ], [ 643987.985076709999703, 1890234.667435925221071 ], [ 643987.985076709999703, 1890234.667435925221071 ], [ 643997.475557663245127, 1890244.673822329379618 ], [ 643997.475557663245127, 1890244.673822329379618 ], [ 644006.96602938848082, 1890254.680213838815689 ], [ 644006.96602938848082, 1890254.680213838815689 ], [ 644016.456491887103766, 1890264.686610455159098 ], [ 644016.456491887103766, 1890264.686610455159098 ], [ 644025.946945156436414, 1890274.693012177478522 ], [ 644025.946945156436414, 1890274.693012177478522 ], [ 644035.4373891975265, 1890284.699419004842639 ], [ 644035.4373891975265, 1890284.699419004842639 ], [ 644044.927824010606855, 1890294.705830939114094 ], [ 644044.927824010606855, 1890294.705830939114094 ], [ 644054.418249596841633, 1890304.712247979594395 ], [ 644054.418249596841633, 1890304.712247979594395 ], [ 644063.908665952039883, 1890314.71867012581788 ], [ 644063.908665952039883, 1890314.71867012581788 ], [ 644073.399073080392554, 1890324.725097379414365 ], [ 644073.399073080392554, 1890324.725097379414365 ], [ 644082.88947098038625, 1890334.731529738288373 ], [ 644082.88947098038625, 1890334.731529738288373 ], [ 644092.379859651904553, 1890344.737967204768211 ], [ 644092.379859651904553, 1890344.737967204768211 ], [ 644101.870239096460864, 1890354.744409777224064 ], [ 644101.870239096460864, 1890354.744409777224064 ], [ 644111.360609311028384, 1890364.750857456121594 ], [ 644111.360609311028384, 1890364.750857456121594 ], [ 644120.850970297120512, 1890374.757310241693631 ], [ 644120.850970297120512, 1890374.757310241693631 ], [ 644130.341322055784985, 1890384.763768134173006 ], [ 644130.341322055784985, 1890384.763768134173006 ], [ 644139.831664584693499, 1890394.770231133094057 ], [ 644149.391096687293611, 1890394.836681894492358 ], [ 644158.950529085239395, 1890394.90313706593588 ], [ 644158.950529085239395, 1890394.90313706593588 ], [ 644168.440853803185746, 1890404.90961460606195 ], [ 644168.440853803185746, 1890404.90961460606195 ], [ 644168.371745476615615, 1890414.849632647354156 ], [ 644177.862056030076928, 1890424.856115684146062 ], [ 644177.862056030076928, 1890424.856115684146062 ], [ 644187.35235735331662, 1890434.862603827146813 ], [ 644187.35235735331662, 1890434.862603827146813 ], [ 644196.842649447498843, 1890444.869097078684717 ], [ 644196.842649447498843, 1890444.869097078684717 ], [ 644206.332932312856428, 1890454.875595436664298 ], [ 644206.332932312856428, 1890454.875595436664298 ], [ 644215.823205950437114, 1890464.882098902249709 ], [ 644215.823205950437114, 1890464.882098902249709 ], [ 644225.313470357679762, 1890474.888607474276796 ], [ 644225.313470357679762, 1890474.888607474276796 ], [ 644234.803725535748526, 1890484.895121154142544 ], [ 644234.803725535748526, 1890484.895121154142544 ], [ 644244.293971485923976, 1890494.901639941846952 ], [ 644244.293971485923976, 1890494.901639941846952 ], [ 644253.784208205528557, 1890504.908163836225867 ], [ 644253.784208205528557, 1890504.908163836225867 ], [ 644263.274435695726424, 1890514.914692838676274 ], [ 644272.833816607948393, 1890514.98120461567305 ], [ 644272.833816607948393, 1890514.98120461567305 ], [ 644282.32403057848569, 1890524.987743443343788 ], [ 644282.32403057848569, 1890524.987743443343788 ], [ 644282.254862986737862, 1890534.927766165696084 ], [ 644291.745062790228985, 1890544.934310491662472 ], [ 644291.745062790228985, 1890544.934310491662472 ], [ 644301.235253362683579, 1890554.940859923837706 ], [ 644301.235253362683579, 1890554.940859923837706 ], [ 644310.725434705731459, 1890564.947414465015754 ], [ 644310.725434705731459, 1890564.947414465015754 ], [ 644310.656251943437383, 1890574.88743844255805 ], [ 644320.146419117576443, 1890584.893998480867594 ], [ 644320.146419117576443, 1890584.893998480867594 ], [ 644329.636577063240111, 1890594.900563627947122 ], [ 644329.636577063240111, 1890594.900563627947122 ], [ 644339.12672577786725, 1890604.90713388286531 ], [ 644339.12672577786725, 1890604.90713388286531 ], [ 644348.616865262622014, 1890614.913709245622158 ], [ 644348.616865262622014, 1890614.913709245622158 ], [ 644358.106995518901385, 1890624.920289717614651 ], [ 644358.106995518901385, 1890624.920289717614651 ], [ 644367.597116543911397, 1890634.926875297212973 ], [ 644367.597116543911397, 1890634.926875297212973 ], [ 644367.527903792099096, 1890644.8669016987551 ], [ 644377.018010646221228, 1890654.873492777114734 ], [ 644377.018010646221228, 1890654.873492777114734 ], [ 644386.508108271635137, 1890664.880088963545859 ], [ 644396.067424237262458, 1890664.946662684669718 ], [ 644405.62674050021451, 1890665.01324081607163 ], [ 644405.62674050021451, 1890665.01324081607163 ], [ 644415.11682031431701, 1890675.019851547665894 ], [ 644415.11682031431701, 1890675.019851547665894 ], [ 644424.60689089843072, 1890685.026467386633158 ], [ 644424.60689089843072, 1890685.026467386633158 ], [ 644434.096952252089977, 1890695.033088334603235 ], [ 644434.096952252089977, 1890695.033088334603235 ], [ 644443.587004377041012, 1890705.039714391110465 ], [ 644453.146303772111423, 1890705.106315805576742 ], [ 644462.705603463109583, 1890705.172921630553901 ], [ 644462.705603463109583, 1890705.172921630553901 ], [ 644472.195637776632793, 1890715.179562232689932 ], [ 644472.195637776632793, 1890715.179562232689932 ], [ 644481.685662857023999, 1890725.186207943130285 ], [ 644481.685662857023999, 1890725.186207943130285 ], [ 644491.175678708241321, 1890735.192858762806281 ], [ 644491.175678708241321, 1890735.192858762806281 ], [ 644500.665685328887776, 1890745.199514691485092 ], [ 644500.665685328887776, 1890745.199514691485092 ], [ 644510.155682719079778, 1890755.206175728701055 ], [ 644510.155682719079778, 1890755.206175728701055 ], [ 644519.645670879865065, 1890765.212841875618324 ], [ 644529.204945123870857, 1890765.279480421449989 ], [ 644529.204945123870857, 1890765.279480421449989 ], [ 644538.694919762085192, 1890775.286156395915896 ], [ 644538.694919762085192, 1890775.286156395915896 ], [ 644548.184885169728659, 1890785.292837478918955 ], [ 644548.184885169728659, 1890785.292837478918955 ], [ 644557.674841347848997, 1890795.29952367185615 ], [ 644567.234103016322479, 1890795.366180784069002 ], [ 644567.234103016322479, 1890795.366180784069002 ], [ 644576.724045671755448, 1890805.372876804322004 ], [ 644576.724045671755448, 1890805.372876804322004 ], [ 644586.21397909487132, 1890815.379577935207635 ], [ 644586.21397909487132, 1890815.379577935207635 ], [ 644595.70390328974463, 1890825.38628417532891 ], [ 644595.70390328974463, 1890825.38628417532891 ], [ 644605.193818252300844, 1890835.392995524918661 ], [ 644605.193818252300844, 1890835.392995524918661 ], [ 644614.683723983820528, 1890845.399711984209716 ], [ 644614.683723983820528, 1890845.399711984209716 ], [ 644614.614384558750317, 1890855.339748129947111 ], [ 644624.104276118334383, 1890865.346470089163631 ], [ 644624.104276118334383, 1890865.346470089163631 ], [ 644633.594158448278904, 1890875.35319715924561 ], [ 644633.594158448278904, 1890875.35319715924561 ], [ 644643.084031545440666, 1890885.359929338796064 ], [ 644643.084031545440666, 1890885.359929338796064 ], [ 644652.573895411333069, 1890895.366666628979146 ], [ 644652.573895411333069, 1890895.366666628979146 ], [ 644662.063750045839697, 1890905.373409028397873 ], [ 644662.063750045839697, 1890905.373409028397873 ], [ 644671.553595450241119, 1890915.380156537285075 ], [ 644681.112805632525124, 1890915.446870275773108 ], [ 644681.112805632525124, 1890915.446870275773108 ], [ 644690.602637512143701, 1890925.453627614304423 ], [ 644690.602637512143701, 1890925.453627614304423 ], [ 644700.092460161540657, 1890935.460390063701198 ], [ 644700.092460161540657, 1890935.460390063701198 ], [ 644709.582273580832407, 1890945.467157622566447 ], [ 644709.582273580832407, 1890945.467157622566447 ], [ 644719.072077767108567, 1890955.473930292762816 ], [ 644719.072077767108567, 1890955.473930292762816 ], [ 644728.561872721649706, 1890965.480708073358983 ], [ 644728.561872721649706, 1890965.480708073358983 ], [ 644738.051658444455825, 1890975.487490963190794 ], [ 644738.051658444455825, 1890975.487490963190794 ], [ 644747.541434936691076, 1890985.494278963888064 ], [ 644747.541434936691076, 1890985.494278963888064 ], [ 644757.031202195794322, 1890995.501072076382115 ], [ 644757.031202195794322, 1890995.501072076382115 ], [ 644766.520960223046131, 1891005.507870298577473 ], [ 644766.520960223046131, 1891005.507870298577473 ], [ 644776.01070901833009, 1891015.514673631172627 ], [ 644776.01070901833009, 1891015.514673631172627 ], [ 644785.500448582926765, 1891025.521482075098902 ], [ 644785.500448582926765, 1891025.521482075098902 ], [ 644785.431020218646154, 1891035.461525260936469 ], [ 644785.361591500113718, 1891045.401568528497592 ], [ 644785.292162427096628, 1891055.341611879412085 ], [ 644794.781877932371572, 1891065.348426608368754 ], [ 644794.781877932371572, 1891065.348426608368754 ], [ 644804.271584206609987, 1891075.355246447492391 ], [ 644804.271584206609987, 1891075.355246447492391 ], [ 644813.761281248531304, 1891085.362071397714317 ], [ 644813.761281248531304, 1891085.362071397714317 ], [ 644823.250969059532508, 1891095.368901459500194 ], [ 644823.250969059532508, 1891095.368901459500194 ], [ 644832.740647636703216, 1891105.375736632151529 ], [ 644832.740647636703216, 1891105.375736632151529 ], [ 644842.230316981323995, 1891115.382576915668324 ], [ 644842.230316981323995, 1891115.382576915668324 ], [ 644851.719977093511261, 1891125.38942231121473 ], [ 644851.719977093511261, 1891125.38942231121473 ], [ 644861.209627974429168, 1891135.396272817160934 ], [ 644861.209627974429168, 1891135.396272817160934 ], [ 644870.699269621400163, 1891145.40312843513675 ], [ 644870.699269621400163, 1891145.40312843513675 ], [ 644870.62979571800679, 1891155.343175391666591 ], [ 644880.119423190248199, 1891165.350036511896178 ], [ 644880.119423190248199, 1891165.350036511896178 ], [ 644889.609041429706849, 1891175.356902744853869 ], [ 644899.168139165849425, 1891175.42372595705092 ], [ 644899.168139165849425, 1891175.42372595705092 ], [ 644908.657743881689385, 1891185.430602021049708 ], [ 644918.216837623738684, 1891185.497434365097433 ], [ 644927.775931662647054, 1891185.564271121285856 ], [ 644937.335025999462232, 1891185.631112288450822 ], [ 644946.894120631623082, 1891185.697957868222147 ], [ 644946.894120631623082, 1891185.697957868222147 ], [ 644956.383698951802216, 1891195.70485792378895 ], [ 644956.383698951802216, 1891195.70485792378895 ], [ 644965.873268038965762, 1891205.711763091851026 ], [ 644965.873268038965762, 1891205.711763091851026 ], [ 644975.362827894510701, 1891215.718673371477053 ], [ 644975.362827894510701, 1891215.718673371477053 ], [ 644984.852378515526652, 1891225.725588763831183 ], [ 644984.852378515526652, 1891225.725588763831183 ], [ 644994.341919903410599, 1891235.732509267982095 ], [ 644994.341919903410599, 1891235.732509267982095 ], [ 645003.831452056765556, 1891245.73943488416262 ], [ 645003.831452056765556, 1891245.73943488416262 ], [ 645013.320974979666062, 1891255.746365612372756 ], [ 645013.320974979666062, 1891255.746365612372756 ], [ 645022.810488667804748, 1891265.753301452845335 ], [ 645022.810488667804748, 1891265.753301452845335 ], [ 645032.299993122695014, 1891275.760242405580357 ], [ 645041.859049435588531, 1891275.827134879538789 ], [ 645041.859049435588531, 1891275.827134879538789 ], [ 645051.348540367791429, 1891285.834085666108876 ], [ 645060.907592686824501, 1891285.900987272849306 ], [ 645060.907592686824501, 1891285.900987272849306 ], [ 645070.397070093546063, 1891295.907947891857475 ], [ 645070.397070093546063, 1891295.907947891857475 ], [ 645079.886538266553544, 1891305.914913623826578 ], [ 645089.445582302752882, 1891305.981829083291814 ], [ 645089.445582302752882, 1891305.981829083291814 ], [ 645098.935036951559596, 1891315.988804648863152 ], [ 645098.935036951559596, 1891315.988804648863152 ], [ 645108.424482365371659, 1891325.99578532576561 ], [ 645108.424482365371659, 1891325.99578532576561 ], [ 645117.913918546866626, 1891336.002771116793156 ], [ 645117.913918546866626, 1891336.002771116793156 ], [ 645127.40334549616091, 1891346.009762020083144 ], [ 645127.40334549616091, 1891346.009762020083144 ], [ 645136.892763210111298, 1891356.016758036101237 ], [ 645136.892763210111298, 1891356.016758036101237 ], [ 645146.382171690347604, 1891366.023759165778756 ], [ 645146.382171690347604, 1891366.023759165778756 ], [ 645155.871570936636999, 1891376.030765407718718 ], [ 645155.871570936636999, 1891376.030765407718718 ], [ 645165.360960950376466, 1891386.037776763085276 ], [ 645165.360960950376466, 1891386.037776763085276 ], [ 645174.850341728655621, 1891396.04479323187843 ], [ 645174.850341728655621, 1891396.04479323187843 ], [ 645174.780712145380676, 1891405.984852144261822 ], [ 645184.270078746369109, 1891415.991874117869884 ], [ 645184.270078746369109, 1891415.991874117869884 ], [ 645193.759436113061383, 1891425.998901204904541 ], [ 645203.318428660626523, 1891426.065873316954821 ], [ 645203.318428660626523, 1891426.065873316954821 ], [ 645212.807772501255386, 1891436.072910238988698 ], [ 645212.807772501255386, 1891436.072910238988698 ], [ 645222.297107108868659, 1891446.079952274216339 ], [ 645222.297107108868659, 1891446.079952274216339 ], [ 645231.786432482069358, 1891456.086999422870576 ], [ 645231.786432482069358, 1891456.086999422870576 ], [ 645241.275748622370884, 1891466.09405168518424 ], [ 645241.275748622370884, 1891466.09405168518424 ], [ 645241.206084434408695, 1891476.03411334217526 ], [ 645250.695386395324022, 1891486.041171111399308 ], [ 645250.695386395324022, 1891486.041171111399308 ], [ 645260.184679121593945, 1891496.048233992420137 ], [ 645260.184679121593945, 1891496.048233992420137 ], [ 645269.673962613334879, 1891506.055301988497376 ], [ 645279.232920834678225, 1891506.122311871033162 ], [ 645288.79187935218215, 1891506.189326166873798 ], [ 645288.79187935218215, 1891506.189326166873798 ], [ 645298.281145027605817, 1891516.196408719057217 ], [ 645298.281145027605817, 1891516.196408719057217 ], [ 645307.770401468500495, 1891526.203496385598555 ], [ 645307.770401468500495, 1891526.203496385598555 ], [ 645317.259648674633354, 1891536.21058916603215 ], [ 645317.259648674633354, 1891536.21058916603215 ], [ 645326.748886646004394, 1891546.217687061289325 ], [ 645326.748886646004394, 1891546.217687061289325 ], [ 645336.238115382497199, 1891556.224790070205927 ], [ 645336.238115382497199, 1891556.224790070205927 ], [ 645345.727334883995354, 1891566.231898193713278 ], [ 645345.727334883995354, 1891566.231898193713278 ], [ 645355.216545152012259, 1891576.239011430414394 ], [ 645355.216545152012259, 1891576.239011430414394 ], [ 645364.70574618363753, 1891586.246129782637581 ], [ 645364.70574618363753, 1891586.246129782637581 ], [ 645374.194937980151735, 1891596.253253248985857 ], [ 645374.194937980151735, 1891596.253253248985857 ], [ 645383.684120541671291, 1891606.26038182945922 ], [ 645383.684120541671291, 1891606.26038182945922 ], [ 645393.173293869243935, 1891616.267515524756163 ], [ 645393.173293869243935, 1891616.267515524756163 ], [ 645402.662457960308529, 1891626.274654334178194 ], [ 645402.662457960308529, 1891626.274654334178194 ], [ 645412.151612816145644, 1891636.281798258423805 ], [ 645421.710515849525109, 1891636.348878350574523 ], [ 645421.710515849525109, 1891636.348878350574523 ], [ 645431.199657180579379, 1891646.356032112147659 ], [ 645431.199657180579379, 1891646.356032112147659 ], [ 645440.688789274776354, 1891656.363190988311544 ], [ 645440.688789274776354, 1891656.363190988311544 ], [ 645450.177912133745849, 1891666.370354978600517 ], [ 645450.177912133745849, 1891666.370354978600517 ] ] } }
]
}
