{
"type": "FeatureCollection",
"name": "shoreline_2023",
"crs": { "type": "name", "properties": { "name": "urn:ogc:def:crs:EPSG::32644" } },
"features": [
{ "type": "Feature", "properties": { "year": 2023, "month": null }, "geometry": { "type": "LineString", "coordinates": [ [ 643588.963692049263045, 1889874.043784759705886 ], [ 643588.963692049263045, 1889874.043784759705886 ], [ 643598.454530914779752, 1889884.049959102878347 ], [ 643608.014180053141899, 1889884.116142904385924 ], [ 643617.573829485569149, 1889884.182331114541739 ], [ 643627.133479212177917, 1889884.248523733345792 ], [ 643636.693129234248772, 1889884.314720761263743 ], [ 643646.252779547707178, 1889884.380922197597101 ], [ 643655.812430156860501, 1889884.447128043277189 ], [ 643665.372081060078926, 1889884.513338297838345 ], [ 643674.931732258759439, 1889884.579552960582078 ], [ 643674.931732258759439, 1889884.579552960582078 ], [ 643684.422527576098219, 1889894.585770125733688 ], [ 643684.422527576098219, 1889894.585770125733688 ], [ 643684.353671049815603, 1889904.525768301216885 ], [ 643684.284814171842299, 1889914.465766559820622 ], [ 643684.215956942178309, 1889924.405764901079237 ], [ 643684.147099360707216, 1889934.345763325924054 ], [ 643684.078241427545436, 1889944.285761833423749 ], [ 643684.009383142692968, 1889954.225760424043983 ], [ 643683.940524506033398, 1889964.165759098250419 ], [ 643683.871665517683141, 1889974.105757855111733 ], [ 643693.362412119517103, 1889984.111983235459775 ], [ 643693.362412119517103, 1889984.111983235459775 ], [ 643693.293547843117267, 1889994.051982464967296 ], [ 643702.784280282212421, 1890004.058213338954374 ], [ 643702.784280282212421, 1890004.058213338954374 ], [ 643712.275003495858982, 1890014.064449316821992 ], [ 643712.275003495858982, 1890014.064449316821992 ], [ 643721.765717481728643, 1890024.070690399035811 ], [ 643721.765717481728643, 1890024.070690399035811 ], [ 643731.256422240636311, 1890034.076936585828662 ], [ 643731.256422240636311, 1890034.076936585828662 ], [ 643740.747117772931233, 1890044.083187876502052 ], [ 643740.747117772931233, 1890044.083187876502052 ], [ 643740.678228462697007, 1890054.023189134895802 ], [ 643750.168909830157645, 1890064.02944591967389 ], [ 643750.168909830157645, 1890064.02944591967389 ], [ 643759.659581973333843, 1890074.035707807634026 ], [ 643769.219149008393288, 1890074.101972376694903 ], [ 643769.219149008393288, 1890074.101972376694903 ], [ 643778.709807632956654, 1890084.108244085684419 ], [ 643778.709807632956654, 1890084.108244085684419 ], [ 643778.640898576239124, 1890094.048246899852529 ], [ 643788.131543038296513, 1890104.054524103412405 ], [ 643788.131543038296513, 1890104.054524103412405 ], [ 643797.622178271878511, 1890114.06080641108565 ], [ 643797.622178271878511, 1890114.06080641108565 ], [ 643807.1128042783821, 1890124.067093823570758 ], [ 643807.1128042783821, 1890124.067093823570758 ], [ 643816.603421057574451, 1890134.073386340867728 ], [ 643816.603421057574451, 1890134.073386340867728 ], [ 643826.094028610852547, 1890144.079683963675052 ], [ 643826.094028610852547, 1890144.079683963675052 ], [ 643835.584626935306005, 1890154.085986690828577 ], [ 643835.584626935306005, 1890154.085986690828577 ], [ 643835.51568790525198, 1890164.025991924107075 ], [ 643845.006272065220401, 1890174.032300145830959 ], [ 643845.006272065220401, 1890174.032300145830959 ], [ 643854.496846996480599, 1890184.038613472133875 ], [ 643854.496846996480599, 1890184.038613472133875 ], [ 643854.427897739922628, 1890193.978619567584246 ], [ 643863.918458507629111, 1890203.984938388690352 ], [ 643863.918458507629111, 1890203.984938388690352 ], [ 643873.40901004918851, 1890213.991262315306813 ], [ 643873.40901004918851, 1890213.991262315306813 ], [ 643873.340050566010177, 1890223.931269272463396 ], [ 643882.830587941221893, 1890233.937598694348708 ], [ 643882.830587941221893, 1890233.937598694348708 ], [ 643892.321116088423878, 1890243.94393322058022 ], [ 643901.880609304527752, 1890244.010264727985486 ], [ 643901.880609304527752, 1890244.010264727985486 ], [ 643911.371123933466151, 1890254.016609076177701 ], [ 643911.371123933466151, 1890254.016609076177701 ], [ 643911.302144700894132, 1890263.95661759050563 ], [ 643920.792645164416172, 1890273.962967434898019 ], [ 643920.792645164416172, 1890273.962967434898019 ], [ 643930.28313639992848, 1890283.969322383869439 ], [ 643939.842612453969195, 1890284.035672755213454 ], [ 643949.402088801492937, 1890284.10202753636986 ], [ 643949.402088801492937, 1890284.10202753636986 ], [ 643958.892562226625159, 1890294.108397023752332 ], [ 643968.45203457842581, 1890294.174760931171477 ], [ 643978.011507224990055, 1890294.241129247937351 ], [ 643978.011507224990055, 1890294.241129247937351 ], [ 643987.501962843816727, 1890304.247513273265213 ], [ 643997.061431494890712, 1890304.313890716293827 ], [ 643997.061431494890712, 1890304.313890716293827 ], [ 644006.551873593591154, 1890314.320284564048052 ], [ 644006.551873593591154, 1890314.320284564048052 ], [ 644016.042306465562433, 1890324.326683518942446 ], [ 644016.042306465562433, 1890324.326683518942446 ], [ 644025.532730107777752, 1890334.333087578881532 ], [ 644025.532730107777752, 1890334.333087578881532 ], [ 644035.02314452175051, 1890344.339496745495126 ], [ 644035.02314452175051, 1890344.339496745495126 ], [ 644044.51354970713146, 1890354.345911018084735 ], [ 644054.072997202165425, 1890354.412316453177482 ], [ 644054.072997202165425, 1890354.412316453177482 ], [ 644063.563388867303729, 1890364.418740549357608 ], [ 644063.563388867303729, 1890364.418740549357608 ], [ 644073.053771305363625, 1890374.425169750815257 ], [ 644082.613210513372906, 1890374.491589029319584 ], [ 644082.613210513372906, 1890374.491589029319584 ], [ 644092.103579432237893, 1890384.498028054833412 ], [ 644092.103579432237893, 1890384.498028054833412 ], [ 644101.593939124024473, 1890394.504472187021747 ], [ 644101.593939124024473, 1890394.504472187021747 ], [ 644111.084289585589431, 1890404.510921425186098 ], [ 644111.084289585589431, 1890404.510921425186098 ], [ 644120.574630818562582, 1890414.517375770956278 ], [ 644120.574630818562582, 1890414.517375770956278 ], [ 644130.064962823991664, 1890424.523835222469643 ], [ 644130.064962823991664, 1890424.523835222469643 ], [ 644139.555285599199124, 1890434.530299781821668 ], [ 644139.555285599199124, 1890434.530299781821668 ], [ 644149.04559914546553, 1890444.53676944761537 ], [ 644158.605008615413681, 1890444.603226153878495 ], [ 644158.605008615413681, 1890444.603226153878495 ], [ 644168.09530864097178, 1890454.609705643262714 ], [ 644168.09530864097178, 1890454.609705643262714 ], [ 644168.026198549894616, 1890464.549724100390449 ], [ 644167.957088105729781, 1890474.489742640638724 ], [ 644167.887977308710106, 1890484.429761262843385 ], [ 644167.818866158719175, 1890494.369779969099909 ], [ 644158.259479323402047, 1890494.30331731820479 ], [ 644158.190372406272218, 1890504.243335799779743 ], [ 644148.630990450503305, 1890504.176877252757549 ], [ 644148.561887766234577, 1890514.116895510349423 ], [ 644139.002510691410862, 1890514.050441066036001 ], [ 644138.933412240119651, 1890523.990459100808948 ], [ 644129.374040046241134, 1890523.924008759437129 ], [ 644129.30494582792744, 1890533.864026569528505 ], [ 644119.745578513713554, 1890533.79758033156395 ], [ 644110.186211495893076, 1890533.731138504343107 ], [ 644110.117126096505672, 1890543.671155784511939 ], [ 644100.557763959630392, 1890543.60471806046553 ], [ 644100.488682793220505, 1890553.544735116651282 ], [ 644090.929325536009856, 1890553.478301495546475 ], [ 644090.860248602810316, 1890563.418318327516317 ], [ 644081.300896227825433, 1890563.351888810284436 ], [ 644081.231823527836241, 1890573.291905419202521 ], [ 644071.672476033796556, 1890573.225480005610734 ], [ 644071.603407567017712, 1890583.16549639031291 ], [ 644062.044064954039641, 1890583.099075079895556 ], [ 644052.484722637338564, 1890583.032658179989085 ], [ 644042.925380612839945, 1890582.966245690826327 ], [ 644033.36603888461832, 1890582.899837611475959 ], [ 644033.296988409012556, 1890592.839852852281183 ], [ 644023.737651561852545, 1890592.773448876803741 ], [ 644023.668605319573544, 1890602.713463894557208 ], [ 644014.1092733531259, 1890602.647064023185521 ], [ 644014.040231344406493, 1890612.587078816723078 ], [ 644004.480904257623479, 1890612.520683048060164 ], [ 644004.41186648234725, 1890622.460697619244456 ], [ 644004.342828354565427, 1890632.400712272617966 ], [ 644004.273789874161594, 1890642.340727008646354 ], [ 644004.204751041368581, 1890652.280741828493774 ], [ 644004.135711856069975, 1890662.220756731461734 ], [ 644004.066672318149358, 1890672.160771717084572 ], [ 644003.997632427723147, 1890682.100786785595119 ], [ 644003.928592184791341, 1890692.040801937924698 ], [ 643994.369302083156072, 1890691.974408127367496 ], [ 643994.300266073900275, 1890701.914423055481166 ], [ 643994.231229712255299, 1890711.854438066948205 ], [ 643994.162192997988313, 1890721.794453161070123 ], [ 643994.093155931332149, 1890731.734468339243904 ], [ 643984.533884469419718, 1890731.668077712878585 ], [ 643984.464851636555977, 1890741.608092666836455 ], [ 643974.905585054424591, 1890741.541706145042554 ], [ 643965.3463187685702, 1890741.475324033293873 ], [ 643965.277294755796902, 1890751.415338456863537 ], [ 643955.718033351004124, 1890751.348960449453443 ], [ 643946.158772242255509, 1890751.282586852321401 ], [ 643946.089757049805485, 1890761.222600747365505 ], [ 643936.530500820837915, 1890761.15623125503771 ], [ 643936.461489862413146, 1890771.096244925865903 ], [ 643936.392478551715612, 1890781.036258679116145 ], [ 643936.3234668886289, 1890790.976272516418248 ], [ 643926.764224712154828, 1890790.909906515153125 ], [ 643926.695217283209786, 1890800.849920128239319 ], [ 643926.626209501875564, 1890810.789933824911714 ], [ 643917.066976794274524, 1890810.723571621580049 ], [ 643916.997973247198388, 1890820.663585095666349 ], [ 643916.928969347733073, 1890830.603598652407527 ], [ 643916.859965095994994, 1890840.543612291570753 ], [ 643926.350174853112549, 1890850.549989443738014 ], [ 643926.350174853112549, 1890850.549989443738014 ], [ 643935.840375381056219, 1890860.556371701881289 ], [ 643945.399585745180957, 1890860.622744258726016 ], [ 643954.958796402672306, 1890860.689121226780117 ], [ 643964.518007356440648, 1890860.755502606276423 ], [ 643964.587035245727748, 1890850.815487268613651 ], [ 643974.146251080790535, 1890850.881872751982883 ], [ 643974.215283204219304, 1890840.941857190104201 ], [ 643983.774503921973519, 1890841.008246777812019 ], [ 643993.333724933094345, 1890841.07464077626355 ], [ 644002.892946239211597, 1890841.141039185458794 ], [ 644012.452167841489427, 1890841.207442006096244 ], [ 644022.011389737133868, 1890841.273849237011746 ], [ 644022.08044444094412, 1890831.333832225995138 ], [ 644031.639671217999421, 1890831.400243561249226 ], [ 644031.708730155834928, 1890821.460226326016709 ], [ 644041.267961814417504, 1890821.526641765376553 ], [ 644041.337024986045435, 1890811.586624306859449 ], [ 644050.896261527435854, 1890811.653043850092217 ], [ 644050.965328932972625, 1890801.713026168290526 ], [ 644060.524570353096351, 1890801.779449815861881 ], [ 644070.083812069497071, 1890801.845877874642611 ], [ 644079.643054080894217, 1890801.912310343701392 ], [ 644089.202296387404203, 1890801.978747223271057 ], [ 644098.761538990307599, 1890802.045188514050096 ], [ 644108.320781886810437, 1890802.111634215572849 ], [ 644117.8800250783097, 1890802.178084328304976 ], [ 644127.439268566435203, 1890802.244538851082325 ], [ 644136.998512348160148, 1890802.31099778553471 ], [ 644146.557756425114349, 1890802.377461129566655 ], [ 644156.11700079718139, 1890802.443928885273635 ], [ 644156.186118301120587, 1890792.503907911013812 ], [ 644165.745367553434335, 1890792.570379770128056 ], [ 644165.814489290933125, 1890782.630358572816476 ], [ 644165.883610675460659, 1890772.690337458625436 ], [ 644165.952731707133353, 1890762.750316426157951 ], [ 644166.021852385718375, 1890752.810295477276668 ], [ 644166.021852385718375, 1890752.810295477276668 ], [ 644156.53170052729547, 1890742.803804287686944 ], [ 644156.600815913872793, 1890732.863783812150359 ], [ 644156.600815913872793, 1890732.863783812150359 ], [ 644147.110649884445593, 1890722.857298119226471 ], [ 644147.110649884445593, 1890722.857298119226471 ], [ 644137.55136911640875, 1890722.790837229695171 ], [ 644128.06118956557475, 1890712.784361362457275 ], [ 644128.06118956557475, 1890712.784361362457275 ], [ 644118.571000783122145, 1890702.777890601893887 ], [ 644118.571000783122145, 1890702.777890601893887 ], [ 644109.080802771844901, 1890692.77142494963482 ], [ 644109.080802771844901, 1890692.77142494963482 ], [ 644099.590595530346036, 1890682.764964403584599 ], [ 644099.590595530346036, 1890682.764964403584599 ], [ 644090.100379057461396, 1890672.758508965373039 ], [ 644090.100379057461396, 1890672.758508965373039 ], [ 644080.610153356101364, 1890662.752058634534478 ], [ 644080.679229230387136, 1890652.812041277997196 ], [ 644080.748304752050899, 1890642.872024004580453 ], [ 644090.307620438979939, 1890642.93845597631298 ], [ 644090.376700194086879, 1890632.998438479844481 ], [ 644099.936020763474517, 1890633.064874555217102 ], [ 644109.495341626694426, 1890633.131315040402114 ], [ 644119.054662784794345, 1890633.197759936796501 ], [ 644128.613984239520505, 1890633.26420924323611 ], [ 644138.173305988078937, 1890633.330662960652262 ], [ 644138.242408320540562, 1890623.390644012019038 ], [ 644147.801734950277023, 1890623.457101832609624 ], [ 644147.870841516065411, 1890613.51708265976049 ], [ 644157.430173026979901, 1890613.58354458399117 ], [ 644166.989504831610247, 1890613.650010918267071 ], [ 644167.058620216674171, 1890603.709991216426715 ], [ 644176.617956905276515, 1890603.776461653644219 ], [ 644176.687076523317955, 1890593.836441727355123 ], [ 644186.246418091701344, 1890593.90291626797989 ], [ 644186.315541942836717, 1890583.962896117707714 ], [ 644195.874888392630965, 1890584.029374762205407 ], [ 644205.434235137538053, 1890584.095857816981152 ], [ 644205.503367807599716, 1890574.155837135855108 ], [ 644215.062719435198233, 1890574.222324293572456 ], [ 644215.131856338120997, 1890564.282303387997672 ], [ 644224.691212845500559, 1890564.348794649587944 ], [ 644224.760353981284425, 1890554.408773520030081 ], [ 644234.319715369958431, 1890554.475268884794787 ], [ 644234.388860738603398, 1890544.535247531253844 ], [ 644243.948227009852417, 1890544.601746998494491 ], [ 644244.017376611242071, 1890534.66172542097047 ], [ 644253.576747762504965, 1890534.728228992084041 ], [ 644253.645901596639305, 1890524.788207190576941 ], [ 644263.205277628963813, 1890524.854714864166453 ], [ 644272.764653955353424, 1890524.921226948266849 ], [ 644282.32403057848569, 1890524.987743442645296 ], [ 644291.883407498360611, 1890525.054264347301796 ], [ 644291.883407498360611, 1890525.054264347301796 ], [ 644301.373607949120924, 1890535.060812999028713 ], [ 644301.373607949120924, 1890535.060812999028713 ], [ 644301.304430832504295, 1890545.000836420338601 ], [ 644301.235253362683579, 1890554.940859923837706 ], [ 644301.166075539658777, 1890564.880883510690182 ], [ 644310.656251943437383, 1890574.887438442092389 ], [ 644310.656251943437383, 1890574.887438442092389 ], [ 644320.146419117576443, 1890584.893998480867594 ], [ 644320.146419117576443, 1890584.893998480867594 ], [ 644329.636577063240111, 1890594.900563627481461 ], [ 644329.636577063240111, 1890594.900563627481461 ], [ 644339.12672577786725, 1890604.90713388286531 ], [ 644339.12672577786725, 1890604.90713388286531 ], [ 644348.616865262622014, 1890614.913709245389327 ], [ 644348.616865262622014, 1890614.913709245389327 ], [ 644348.547662389930338, 1890624.85373486741446 ], [ 644358.037787706591189, 1890634.86031572916545 ], [ 644358.037787706591189, 1890634.86031572916545 ], [ 644367.527903792099096, 1890644.86690169852227 ], [ 644367.527903792099096, 1890644.86690169852227 ], [ 644377.018010646221228, 1890654.873492776649073 ], [ 644377.018010646221228, 1890654.873492776649073 ], [ 644386.508108271635137, 1890664.880088963545859 ], [ 644386.508108271635137, 1890664.880088963545859 ], [ 644395.998196666827425, 1890674.886690258281305 ], [ 644395.998196666827425, 1890674.886690258281305 ], [ 644405.488275833195075, 1890684.893296661786735 ], [ 644405.488275833195075, 1890684.893296661786735 ], [ 644414.978345768060535, 1890694.899908174294978 ], [ 644414.978345768060535, 1890694.899908174294978 ], [ 644424.468406472587958, 1890704.90652479371056 ], [ 644424.468406472587958, 1890704.90652479371056 ], [ 644433.958457946660928, 1890714.913146523060277 ], [ 644433.958457946660928, 1890714.913146523060277 ], [ 644443.448500191792846, 1890724.919773360947147 ], [ 644443.448500191792846, 1890724.919773360947147 ], [ 644452.938533205073327, 1890734.926405307604 ], [ 644452.938533205073327, 1890734.926405307604 ], [ 644452.869275642093271, 1890744.866435308009386 ], [ 644462.359294484951533, 1890754.873072753660381 ], [ 644462.359294484951533, 1890754.873072753660381 ], [ 644471.849304098403081, 1890764.879715308779851 ], [ 644471.849304098403081, 1890764.879715308779851 ], [ 644481.339304478606209, 1890774.886362973134965 ], [ 644481.339304478606209, 1890774.886362973134965 ], [ 644490.829295629402623, 1890784.893015746027231 ], [ 644490.829295629402623, 1890784.893015746027231 ], [ 644500.319277549511753, 1890794.89967362745665 ], [ 644500.319277549511753, 1890794.89967362745665 ], [ 644509.809250238817185, 1890804.906336618820205 ], [ 644519.368505842285231, 1890804.972971984185278 ], [ 644519.368505842285231, 1890804.972971984185278 ], [ 644528.858465010067448, 1890814.979644803563133 ], [ 644538.417716617579572, 1890815.046289297984913 ], [ 644538.417716617579572, 1890815.046289297984913 ], [ 644547.907662263838574, 1890825.052971945144236 ], [ 644547.907662263838574, 1890825.052971945144236 ], [ 644557.397598680458032, 1890835.059659701306373 ], [ 644557.397598680458032, 1890835.059659701306373 ], [ 644566.887525864643976, 1890845.066352566704154 ], [ 644566.887525864643976, 1890845.066352566704154 ], [ 644576.377443817676976, 1890855.073050542268902 ], [ 644576.377443817676976, 1890855.073050542268902 ], [ 644585.867352538276464, 1890865.079753627069294 ], [ 644585.867352538276464, 1890865.079753627069294 ], [ 644595.357252030400559, 1890875.086461821338162 ], [ 644595.357252030400559, 1890875.086461821338162 ], [ 644604.847142289974727, 1890885.093175125541165 ], [ 644604.847142289974727, 1890885.093175125541165 ], [ 644614.337023318046704, 1890895.099893539678305 ], [ 644614.337023318046704, 1890895.099893539678305 ], [ 644623.826895114965737, 1890905.10661706305109 ], [ 644623.826895114965737, 1890905.10661706305109 ], [ 644633.316757681779563, 1890915.113345697754994 ], [ 644642.875966679304838, 1890915.180041790939867 ], [ 644642.875966679304838, 1890915.180041790939867 ], [ 644652.365815722616389, 1890925.186780252726749 ], [ 644652.365815722616389, 1890925.186780252726749 ], [ 644661.85565553442575, 1890935.193523826543242 ], [ 644661.85565553442575, 1890935.193523826543242 ], [ 644671.345486116129905, 1890945.200272508896887 ], [ 644671.345486116129905, 1890945.200272508896887 ], [ 644680.835307464702055, 1890955.207026301883161 ], [ 644680.835307464702055, 1890955.207026301883161 ], [ 644690.325119580258615, 1890965.213785205269232 ], [ 644690.325119580258615, 1890965.213785205269232 ], [ 644699.814922465477139, 1890975.220549218356609 ], [ 644699.814922465477139, 1890975.220549218356609 ], [ 644709.30471612024121, 1890985.227318342309445 ], [ 644709.30471612024121, 1890985.227318342309445 ], [ 644718.794500541873276, 1890995.23409257736057 ], [ 644718.794500541873276, 1890995.23409257736057 ], [ 644728.284275731537491, 1891005.24087192164734 ], [ 644728.284275731537491, 1891005.24087192164734 ], [ 644737.774041689233854, 1891015.247656377032399 ], [ 644737.774041689233854, 1891015.247656377032399 ], [ 644747.26379841635935, 1891025.254445942817256 ], [ 644756.822960513061844, 1891025.321198359131813 ], [ 644756.822960513061844, 1891025.321198359131813 ], [ 644766.312703716102988, 1891035.327997755026445 ], [ 644766.312703716102988, 1891035.327997755026445 ], [ 644775.802437687059864, 1891045.334802261553705 ], [ 644775.802437687059864, 1891045.334802261553705 ], [ 644785.292162427096628, 1891055.341611879412085 ], [ 644785.292162427096628, 1891055.341611879412085 ], [ 644794.781877932371572, 1891065.348426608135924 ], [ 644794.781877932371572, 1891065.348426608135924 ], [ 644804.271584206609987, 1891075.35524644725956 ], [ 644804.271584206609987, 1891075.35524644725956 ], [ 644813.761281248531304, 1891085.362071397248656 ], [ 644813.761281248531304, 1891085.362071397248656 ], [ 644823.250969059532508, 1891095.368901459267363 ], [ 644823.250969059532508, 1891095.368901459267363 ], [ 644832.7406476365868, 1891105.375736631918699 ], [ 644832.7406476365868, 1891105.375736631918699 ], [ 644842.230316981323995, 1891115.382576915668324 ], [ 644842.230316981323995, 1891115.382576915668324 ], [ 644851.719977093511261, 1891125.389422310749069 ], [ 644851.719977093511261, 1891125.389422310749069 ], [ 644861.209627974429168, 1891135.396272817160934 ], [ 644861.209627974429168, 1891135.396272817160934 ], [ 644870.699269621400163, 1891145.40312843490392 ], [ 644870.699269621400163, 1891145.40312843490392 ], [ 644880.188902035588399, 1891155.409989163745195 ], [ 644880.188902035588399, 1891155.409989163745195 ], [ 644889.678525217110291, 1891165.416855004616082 ], [ 644899.237627540598623, 1891165.48367790854536 ], [ 644899.237627540598623, 1891165.48367790854536 ], [ 644908.727237198734656, 1891175.490553580923006 ], [ 644908.727237198734656, 1891175.490553580923006 ], [ 644918.216837623738684, 1891185.497434364864603 ], [ 644918.216837623738684, 1891185.497434364864603 ], [ 644927.706428815959953, 1891195.504320260835811 ], [ 644927.706428815959953, 1891195.504320260835811 ], [ 644937.196010776562616, 1891205.511211267206818 ], [ 644937.196010776562616, 1891205.511211267206818 ], [ 644946.685583502869122, 1891215.51810738700442 ], [ 644946.685583502869122, 1891215.51810738700442 ], [ 644946.616070416988805, 1891225.45815739268437 ], [ 644956.105628967867233, 1891235.465059015899897 ], [ 644956.105628967867233, 1891235.465059015899897 ], [ 644965.595178285497241, 1891245.471965750446543 ], [ 644975.154246284393594, 1891245.538826416013762 ], [ 644975.154246284393594, 1891245.538826416013762 ], [ 644984.643782078055665, 1891255.545742983231321 ], [ 644984.643782078055665, 1891255.545742983231321 ], [ 644984.57424922240898, 1891265.485794555628672 ], [ 644994.063770840293728, 1891275.492716626496986 ], [ 644994.063770840293728, 1891275.492716626496986 ], [ 645003.553283223533072, 1891285.499643809860572 ], [ 645013.112334059318528, 1891285.5665233572945 ], [ 645013.112334059318528, 1891285.5665233572945 ], [ 645022.601832919521257, 1891295.573460373328999 ], [ 645022.601832919521257, 1891295.573460373328999 ], [ 645022.532280293409713, 1891305.513513512909412 ], [ 645032.021764977485873, 1891315.520456032594666 ], [ 645032.021764977485873, 1891315.520456032594666 ], [ 645041.511240427847952, 1891325.527403665473685 ], [ 645041.511240427847952, 1891325.527403665473685 ], [ 645051.000706646125764, 1891335.534356410149485 ], [ 645051.000706646125764, 1891335.534356410149485 ], [ 645060.490163629176095, 1891345.54131426778622 ], [ 645060.490163629176095, 1891345.54131426778622 ], [ 645069.979611378628761, 1891355.548277238383889 ], [ 645079.538632177514955, 1891355.615189830306917 ], [ 645089.097653274657205, 1891355.682106835069135 ], [ 645089.097653274657205, 1891355.682106835069135 ], [ 645098.58708320860751, 1891365.689084359211847 ], [ 645098.58708320860751, 1891365.689084359211847 ], [ 645108.076503907330334, 1891375.696066997013986 ], [ 645108.076503907330334, 1891375.696066997013986 ], [ 645117.565915373503231, 1891385.703054747078568 ], [ 645117.565915373503231, 1891385.703054747078568 ], [ 645127.055317607009783, 1891395.710047610336915 ], [ 645127.055317607009783, 1891395.710047610336915 ], [ 645136.54471060517244, 1891405.717045586556196 ], [ 645136.54471060517244, 1891405.717045586556196 ], [ 645146.034094369388185, 1891415.724048675736412 ], [ 645146.034094369388185, 1891415.724048675736412 ], [ 645155.523468899307773, 1891425.731056878576055 ], [ 645155.523468899307773, 1891425.731056878576055 ], [ 645165.012834196444601, 1891435.738070194376633 ], [ 645165.012834196444601, 1891435.738070194376633 ], [ 645164.943207779549994, 1891445.678129129810259 ], [ 645174.432558897649869, 1891455.685147950891405 ], [ 645174.432558897649869, 1891455.685147950891405 ], [ 645183.921900781453587, 1891465.692171885166317 ], [ 645193.480874678236432, 1891465.759140820940956 ], [ 645193.480874678236432, 1891465.759140820940956 ], [ 645202.970203038188629, 1891475.766174590215087 ], [ 645202.970203038188629, 1891475.766174590215087 ], [ 645212.459522160934284, 1891485.773213472682983 ], [ 645212.459522160934284, 1891485.773213472682983 ], [ 645221.948832050547935, 1891495.780257468810305 ], [ 645221.948832050547935, 1891495.780257468810305 ], [ 645231.438132705632597, 1891505.787306578131393 ], [ 645231.438132705632597, 1891505.787306578131393 ], [ 645240.927424127468839, 1891515.79436080227606 ], [ 645240.927424127468839, 1891515.79436080227606 ], [ 645250.416706313262694, 1891525.80142013868317 ], [ 645250.416706313262694, 1891525.80142013868317 ], [ 645259.905979264294729, 1891535.808484589681029 ], [ 645269.464923422317952, 1891535.875490988604724 ], [ 645269.464923422317952, 1891535.875490988604724 ], [ 645278.954182849032804, 1891545.882565275067464 ], [ 645278.954182849032804, 1891545.882565275067464 ], [ 645288.443433039705269, 1891555.889644674956799 ], [ 645288.443433039705269, 1891555.889644674956799 ], [ 645297.932673995499499, 1891565.896729189669713 ], [ 645297.932673995499499, 1891565.896729189669713 ], [ 645307.421905716299079, 1891575.903818817576393 ], [ 645307.421905716299079, 1891575.903818817576393 ], [ 645316.911128202220425, 1891585.910913560073823 ], [ 645316.911128202220425, 1891585.910913560073823 ], [ 645326.400341453030705, 1891595.918013417162001 ], [ 645326.400341453030705, 1891595.918013417162001 ], [ 645335.889545468846336, 1891605.925118388375267 ], [ 645335.889545468846336, 1891605.925118388375267 ], [ 645345.378740249434486, 1891615.93222847324796 ], [ 645345.378740249434486, 1891615.93222847324796 ], [ 645354.867925796192139, 1891625.939343673409894 ], [ 645354.867925796192139, 1891625.939343673409894 ], [ 645364.357102106441744, 1891635.946463986765593 ], [ 645364.357102106441744, 1891635.946463986765593 ], [ 645373.846269181231037, 1891645.953589415643364 ], [ 645373.846269181231037, 1891645.953589415643364 ], [ 645383.335427020792849, 1891655.960719959344715 ], [ 645383.335427020792849, 1891655.960719959344715 ], [ 645392.824575626291335, 1891665.967855616239831 ], [ 645392.824575626291335, 1891665.967855616239831 ], [ 645402.31371499504894, 1891675.974996389588341 ], [ 645402.31371499504894, 1891675.974996389588341 ], [ 645411.802845128229819, 1891685.982142276130617 ], [ 645411.802845128229819, 1891685.982142276130617 ], [ 645421.291966024553403, 1891695.989293277729303 ], [ 645421.291966024553403, 1891695.989293277729303 ], [ 645430.781077687977813, 1891705.996449395315722 ], [ 645430.781077687977813, 1891705.996449395315722 ], [ 645440.270180114312097, 1891716.00361062772572 ], [ 645440.270180114312097, 1891716.00361062772572 ], [ 645449.759273304836825, 1891726.010776973096654 ], [ 645449.759273304836825, 1891726.010776973096654 ] ] } }
]
}
