{
"type": "FeatureCollection",
"name": "shoreline_2019",
"crs": { "type": "name", "properties": { "name": "urn:ogc:def:crs:EPSG::32644" } },
"features": [
{ "type": "Feature", "properties": { "year": 2019, "month": null }, "geometry": { "type": "LineString", "coordinates": [ [ 643589.101310954894871, 1889854.163795107975602 ], [ 643598.660973553312942, 1889854.229973583249375 ], [ 643598.660973553312942, 1889854.229973583249375 ], [ 643608.151817998848855, 1889864.236151862656698 ], [ 643608.151817998848855, 1889864.236151862656698 ], [ 643617.642653218470514, 1889874.242335246643052 ], [ 643617.642653218470514, 1889874.242335246643052 ], [ 643627.133479212177917, 1889884.248523733578622 ], [ 643627.133479212177917, 1889884.248523733578622 ], [ 643636.624295981135219, 1889894.254717323929071 ], [ 643636.624295981135219, 1889894.254717323929071 ], [ 643646.115103521384299, 1889904.260916018625721 ], [ 643646.115103521384299, 1889904.260916018625721 ], [ 643655.605901836883277, 1889914.267119816271588 ], [ 643655.605901836883277, 1889914.267119816271588 ], [ 643665.096690926235169, 1889924.273328718263656 ], [ 643665.096690926235169, 1889924.273328718263656 ], [ 643674.587470790720545, 1889934.279542724136263 ], [ 643674.587470790720545, 1889934.279542724136263 ], [ 643684.078241427545436, 1889944.285761833423749 ], [ 643684.078241427545436, 1889944.285761833423749 ], [ 643693.569002838106826, 1889954.291986047290266 ], [ 643693.569002838106826, 1889954.291986047290266 ], [ 643703.059755022171885, 1889964.298215365037322 ], [ 643703.059755022171885, 1889964.298215365037322 ], [ 643712.550497981254011, 1889974.304449786664918 ], [ 643712.550497981254011, 1889974.304449786664918 ], [ 643722.041231712559238, 1889984.310689312638715 ], [ 643722.041231712559238, 1889984.310689312638715 ], [ 643721.972353682504036, 1889994.250689460197464 ], [ 643731.463073250837624, 1890004.256934479111806 ], [ 643731.463073250837624, 1890004.256934479111806 ], [ 643740.953783592442051, 1890014.263184601906687 ], [ 643750.513377545285039, 1890014.329438515938818 ], [ 643750.513377545285039, 1890014.329438515938818 ], [ 643760.004074371419847, 1890024.335698459064588 ], [ 643760.004074371419847, 1890024.335698459064588 ], [ 643769.494761969428509, 1890034.341963506769389 ], [ 643779.054347637691535, 1890034.408231260254979 ], [ 643779.054347637691535, 1890034.408231260254979 ], [ 643788.545021719997749, 1890044.414506128057837 ], [ 643788.545021719997749, 1890044.414506128057837 ], [ 643798.035686574061401, 1890054.420786099741235 ], [ 643798.035686574061401, 1890054.420786099741235 ], [ 643807.526342201395892, 1890064.427071177167818 ], [ 643807.526342201395892, 1890064.427071177167818 ], [ 643817.016988601535559, 1890074.433361358242109 ], [ 643817.016988601535559, 1890074.433361358242109 ], [ 643826.507625776110217, 1890084.439656644593924 ], [ 643826.507625776110217, 1890084.439656644593924 ], [ 643835.998253722325899, 1890094.445957035990432 ], [ 643835.998253722325899, 1890094.445957035990432 ], [ 643845.488872441463172, 1890104.452262532897294 ], [ 643855.048428371315822, 1890104.518567703664303 ], [ 643855.048428371315822, 1890104.518567703664303 ], [ 643864.539033572888002, 1890114.524883020436391 ], [ 643864.539033572888002, 1890114.524883020436391 ], [ 643874.029629548662342, 1890124.531203442718834 ], [ 643874.029629548662342, 1890124.531203442718834 ], [ 643883.52021629572846, 1890134.537528969114646 ], [ 643883.52021629572846, 1890134.537528969114646 ], [ 643893.010793815599754, 1890144.543859601952136 ], [ 643893.010793815599754, 1890144.543859601952136 ], [ 643892.941827627946623, 1890154.483866590308025 ], [ 643892.872861088137142, 1890164.423873661551625 ], [ 643892.803894195938483, 1890174.363880815450102 ], [ 643892.73492695169989, 1890184.30388805270195 ], [ 643892.665959355072118, 1890194.243895372841507 ], [ 643892.596991406287998, 1890204.183902776334435 ], [ 643892.528023105114698, 1890214.123910263180733 ], [ 643892.459054451901466, 1890224.063917832449079 ], [ 643901.949583247420378, 1890234.070256686070934 ], [ 643901.949583247420378, 1890234.070256686070934 ], [ 643911.440102813881822, 1890244.076600645203143 ], [ 643911.440102813881822, 1890244.076600645203143 ], [ 643920.930613152449951, 1890254.082949708914384 ], [ 643920.930613152449951, 1890254.082949708914384 ], [ 643930.421114262891933, 1890264.089303879300132 ], [ 643930.421114262891933, 1890264.089303879300132 ], [ 643939.911606146954, 1890274.095663154963404 ], [ 643949.471087079611607, 1890274.162017629947513 ], [ 643949.471087079611607, 1890274.162017629947513 ], [ 643958.961565442383289, 1890284.168386727338657 ], [ 643958.961565442383289, 1890284.168386727338657 ], [ 643958.892562226625159, 1890294.108397023752332 ], [ 643968.38302642502822, 1890304.114771616877988 ], [ 643968.38302642502822, 1890304.114771616877988 ], [ 643977.873481395188719, 1890314.12115131597966 ], [ 643977.873481395188719, 1890314.12115131597966 ], [ 643987.363927138387226, 1890324.127536121290177 ], [ 643987.363927138387226, 1890324.127536121290177 ], [ 643996.854363651946187, 1890334.133926031645387 ], [ 643996.854363651946187, 1890334.133926031645387 ], [ 644006.344790937146172, 1890344.140321049140766 ], [ 644006.344790937146172, 1890344.140321049140766 ], [ 644015.835208995500579, 1890354.146721171448007 ], [ 644015.835208995500579, 1890354.146721171448007 ], [ 644025.325617823749781, 1890364.153126401593909 ], [ 644025.325617823749781, 1890364.153126401593909 ], [ 644034.816017423640005, 1890374.159536737482995 ], [ 644034.816017423640005, 1890374.159536737482995 ], [ 644034.746974352514371, 1890384.099550233921036 ], [ 644044.237359785707667, 1890394.105966066010296 ], [ 644044.237359785707667, 1890394.105966066010296 ], [ 644053.727735991589725, 1890404.112387004308403 ], [ 644053.727735991589725, 1890404.112387004308403 ], [ 644063.218102966202423, 1890414.118813048582524 ], [ 644063.218102966202423, 1890414.118813048582524 ], [ 644072.708460713271052, 1890424.125244199996814 ], [ 644072.708460713271052, 1890424.125244199996814 ], [ 644082.198809231398627, 1890434.131680457852781 ], [ 644082.198809231398627, 1890434.131680457852781 ], [ 644091.68914852081798, 1890444.138121822150424 ], [ 644091.68914852081798, 1890444.138121822150424 ], [ 644091.620075467741117, 1890454.078137741191313 ], [ 644091.551002061809413, 1890464.01815374288708 ], [ 644091.4819283032557, 1890473.958169827470556 ], [ 644091.412854191847146, 1890483.898185994941741 ], [ 644091.343779727816582, 1890493.838202245999128 ], [ 644091.274704911047593, 1890503.778218580409884 ], [ 644091.205629741423763, 1890513.718234997009858 ], [ 644091.136554219177924, 1890523.658251496963203 ], [ 644091.06747834419366, 1890533.598268080037087 ], [ 644090.99840211647097, 1890543.538284746464342 ], [ 644090.929325536009856, 1890553.478301495546475 ], [ 644090.860248602810316, 1890563.418318327749148 ], [ 644100.350519402418286, 1890573.424769477918744 ], [ 644100.350519402418286, 1890573.424769477918744 ], [ 644109.840780970989726, 1890583.431225734064355 ], [ 644109.840780970989726, 1890583.431225734064355 ], [ 644119.331033310038038, 1890593.437687098281458 ], [ 644119.331033310038038, 1890593.437687098281458 ], [ 644119.261941207922064, 1890603.377705183112994 ], [ 644128.752179379807785, 1890613.384172043763101 ], [ 644128.752179379807785, 1890613.384172043763101 ], [ 644138.242408320540562, 1890623.390644012484699 ], [ 644138.242408320540562, 1890623.390644012484699 ], [ 644138.173305988078937, 1890633.330662960652262 ], [ 644147.663520760135725, 1890643.337140425108373 ], [ 644147.663520760135725, 1890643.337140425108373 ], [ 644157.153726302203722, 1890653.343622998101637 ], [ 644166.713039762573317, 1890653.410090560326353 ], [ 644176.27235352084972, 1890653.476562532363459 ], [ 644176.341474903631024, 1890643.536542190704495 ], [ 644185.900793541921303, 1890643.603018266847357 ], [ 644185.969919157796539, 1890633.662997700972483 ], [ 644186.03904442070052, 1890623.722977218450978 ], [ 644186.108169330749661, 1890613.782956818351522 ], [ 644186.177293887827545, 1890603.842936501838267 ], [ 644186.246418091701344, 1890593.902916268212721 ], [ 644186.315541942836717, 1890583.962896117707714 ], [ 644186.384665441000834, 1890574.022876050556079 ], [ 644195.944016476627439, 1890574.089354387950152 ], [ 644196.013144207652658, 1890564.149334096582606 ], [ 644205.572500124573708, 1890564.215816537616774 ], [ 644215.131856338120997, 1890564.282303388230503 ], [ 644224.691212845500559, 1890564.348794649820775 ], [ 644234.250569648225792, 1890564.415290320990607 ], [ 644243.80992674769368, 1890564.481790403602645 ], [ 644253.369284141226672, 1890564.548294895561412 ], [ 644262.928641830105335, 1890564.614803797798231 ], [ 644272.487999812932685, 1890564.681317110778764 ], [ 644282.047358092619106, 1890564.747834834037349 ], [ 644291.606716669048183, 1890564.814356967341155 ], [ 644291.606716669048183, 1890564.814356967341155 ], [ 644301.096897363313474, 1890574.820907180430368 ], [ 644301.096897363313474, 1890574.820907180430368 ], [ 644310.587068827822804, 1890584.827462502056733 ], [ 644310.587068827822804, 1890584.827462502056733 ], [ 644320.07723106269259, 1890594.834022931288928 ], [ 644320.07723106269259, 1890594.834022931288928 ], [ 644329.567384069086984, 1890604.840588468126953 ], [ 644339.12672577786725, 1890604.90713388286531 ], [ 644348.686067782109603, 1890604.973683707416058 ], [ 644348.686067782109603, 1890604.973683707416058 ], [ 644358.176202977774665, 1890614.980263788020238 ], [ 644358.176202977774665, 1890614.980263788020238 ], [ 644367.666328942286782, 1890624.986848977627233 ], [ 644367.666328942286782, 1890624.986848977627233 ], [ 644377.156445675413124, 1890634.993439274374396 ], [ 644377.156445675413124, 1890634.993439274374396 ], [ 644386.646553179947659, 1890645.000034679891542 ], [ 644386.646553179947659, 1890645.000034679891542 ], [ 644396.136651454376988, 1890655.006635194178671 ], [ 644396.136651454376988, 1890655.006635194178671 ], [ 644405.62674050021451, 1890665.01324081607163 ], [ 644405.62674050021451, 1890665.01324081607163 ], [ 644415.11682031431701, 1890675.019851547665894 ], [ 644415.11682031431701, 1890675.019851547665894 ], [ 644424.60689089843072, 1890685.026467386167496 ], [ 644424.60689089843072, 1890685.026467386167496 ], [ 644434.096952252089977, 1890695.033088334603235 ], [ 644434.096952252089977, 1890695.033088334603235 ], [ 644443.587004377041012, 1890705.039714391110465 ], [ 644453.146303772111423, 1890705.106315805576742 ], [ 644453.146303772111423, 1890705.106315805576742 ], [ 644462.636342374724336, 1890715.112951689399779 ], [ 644462.636342374724336, 1890715.112951689399779 ], [ 644472.12637174827978, 1890725.119592681527138 ], [ 644472.12637174827978, 1890725.119592681527138 ], [ 644481.61639188870322, 1890735.126238783355802 ], [ 644481.61639188870322, 1890735.126238783355802 ], [ 644491.106402799952775, 1890745.132889992790297 ], [ 644491.106402799952775, 1890745.132889992790297 ], [ 644500.596404480515048, 1890755.139546311926097 ], [ 644510.155682719079778, 1890755.206175728701055 ], [ 644519.714961254852824, 1890755.272809555521235 ], [ 644519.714961254852824, 1890755.272809555521235 ], [ 644529.204945123870857, 1890765.279480421449989 ], [ 644529.204945123870857, 1890765.279480421449989 ], [ 644538.694919762085192, 1890775.286156395450234 ], [ 644538.694919762085192, 1890775.286156395450234 ], [ 644538.625619506696239, 1890785.226189496694133 ], [ 644538.556318897521123, 1890795.166222680360079 ], [ 644548.04627442441415, 1890805.172904546139762 ], [ 644548.04627442441415, 1890805.172904546139762 ], [ 644557.536220721900463, 1890815.179591520456597 ], [ 644567.095473217312247, 1890815.24624924804084 ], [ 644576.654726008768193, 1890815.312911386368796 ], [ 644576.654726008768193, 1890815.312911386368796 ], [ 644586.144654491450638, 1890825.319612907245755 ], [ 644586.144654491450638, 1890825.319612907245755 ], [ 644595.634573745774105, 1890835.326319538289681 ], [ 644595.634573745774105, 1890835.326319538289681 ], [ 644605.124483767896891, 1890845.333031279500574 ], [ 644605.124483767896891, 1890845.333031279500574 ], [ 644614.614384558750317, 1890855.33974812971428 ], [ 644614.614384558750317, 1890855.33974812971428 ], [ 644624.104276118334383, 1890865.346470089163631 ], [ 644624.104276118334383, 1890865.346470089163631 ], [ 644633.594158448278904, 1890875.35319715924561 ], [ 644633.594158448278904, 1890875.35319715924561 ], [ 644643.084031545440666, 1890885.359929338330403 ], [ 644643.084031545440666, 1890885.359929338330403 ], [ 644643.014676944119856, 1890895.29996673995629 ], [ 644652.504535869229585, 1890905.306704420596361 ], [ 644652.504535869229585, 1890905.306704420596361 ], [ 644661.994385562837124, 1890915.313447210937738 ], [ 644661.994385562837124, 1890915.313447210937738 ], [ 644671.484226026339456, 1890925.320195111911744 ], [ 644671.484226026339456, 1890925.320195111911744 ], [ 644680.974057256942615, 1890935.326948122819886 ], [ 644680.974057256942615, 1890935.326948122819886 ], [ 644690.463879254646599, 1890945.333706243662164 ], [ 644690.463879254646599, 1890945.333706243662164 ], [ 644699.953692022012547, 1890955.340469474904239 ], [ 644709.512884747004136, 1890955.40719767799601 ], [ 644709.512884747004136, 1890955.40719767799601 ], [ 644719.002683992148377, 1890965.413970738882199 ], [ 644719.002683992148377, 1890965.413970738882199 ], [ 644728.492474005557597, 1890975.420748910633847 ], [ 644728.492474005557597, 1890975.420748910633847 ], [ 644737.98225478711538, 1890985.427532192319632 ], [ 644737.98225478711538, 1890985.427532192319632 ], [ 644747.472026338218711, 1890995.434320584870875 ], [ 644747.472026338218711, 1890995.434320584870875 ], [ 644756.961788655957207, 1891005.441114087821916 ], [ 644756.961788655957207, 1891005.441114087821916 ], [ 644766.451541741844267, 1891015.447912701172754 ], [ 644766.451541741844267, 1891015.447912701172754 ], [ 644775.941285595647059, 1891025.45471642469056 ], [ 644775.941285595647059, 1891025.45471642469056 ], [ 644785.431020218646154, 1891035.461525260936469 ], [ 644785.431020218646154, 1891035.461525260936469 ], [ 644785.361591500113718, 1891045.401568528264761 ], [ 644794.851311946869828, 1891055.408382865367457 ], [ 644794.851311946869828, 1891055.408382865367457 ], [ 644804.341023162705824, 1891065.415202314266935 ], [ 644813.900168689666316, 1891065.48198243114166 ], [ 644813.900168689666316, 1891065.48198243114166 ], [ 644823.389866384095512, 1891075.48881170945242 ], [ 644823.389866384095512, 1891075.48881170945242 ], [ 644832.879554844694212, 1891085.495646099094301 ], [ 644832.879554844694212, 1891085.495646099094301 ], [ 644842.369234072859399, 1891095.502485600532964 ], [ 644851.928367024403997, 1891095.569284287514165 ], [ 644851.928367024403997, 1891095.569284287514165 ], [ 644861.418032730929554, 1891105.576133619761094 ], [ 644861.418032730929554, 1891105.576133619761094 ], [ 644861.348564833402634, 1891115.516179936239496 ], [ 644870.838216364150867, 1891125.523034771205857 ], [ 644870.838216364150867, 1891125.523034771205857 ], [ 644880.327858662349172, 1891135.529894716804847 ], [ 644880.327858662349172, 1891135.529894716804847 ], [ 644889.817491727881134, 1891145.53675977489911 ], [ 644899.376603226177394, 1891145.603582062060013 ], [ 644899.376603226177394, 1891145.603582062060013 ], [ 644908.866222768323496, 1891155.610456950962543 ], [ 644908.866222768323496, 1891155.610456950962543 ], [ 644918.355833077686839, 1891165.617336951429024 ], [ 644918.355833077686839, 1891165.617336951429024 ], [ 644927.845434154383838, 1891175.624222064390779 ], [ 644937.404533078544773, 1891175.691062923055142 ], [ 644937.404533078544773, 1891175.691062923055142 ], [ 644946.894120631623082, 1891185.697957867756486 ], [ 644946.894120631623082, 1891185.697957867756486 ], [ 644946.824608610244468, 1891195.638007624074817 ], [ 644946.755096233915538, 1891205.57805746444501 ], [ 644956.244664669502527, 1891215.584958303254098 ], [ 644956.244664669502527, 1891215.584958303254098 ], [ 644965.734223871957511, 1891225.59186425502412 ], [ 644975.293301046011038, 1891225.658724303357303 ], [ 644975.293301046011038, 1891225.658724303357303 ], [ 644984.782846724614501, 1891235.665640087332577 ], [ 644984.782846724614501, 1891235.665640087332577 ], [ 644994.272383170085959, 1891245.672560983104631 ], [ 644994.272383170085959, 1891245.672560983104631 ], [ 645003.761910380912013, 1891255.679486991139129 ], [ 645003.761910380912013, 1891255.679486991139129 ], [ 645013.2514283611672, 1891265.686418110504746 ], [ 645013.2514283611672, 1891265.686418110504746 ], [ 645022.740937106776983, 1891275.693354343064129 ], [ 645022.740937106776983, 1891275.693354343064129 ], [ 645032.230436618905514, 1891285.700295688118786 ], [ 645032.230436618905514, 1891285.700295688118786 ], [ 645041.719926897669211, 1891295.707242145435885 ], [ 645041.719926897669211, 1891295.707242145435885 ], [ 645051.209407944348641, 1891305.714193714782596 ], [ 645060.768451088108122, 1891305.781095938989893 ], [ 645060.768451088108122, 1891305.781095938989893 ], [ 645070.257918609073386, 1891315.788057341938838 ], [ 645070.257918609073386, 1891315.788057341938838 ], [ 645079.747376896440983, 1891325.795023856684566 ], [ 645089.306411757017486, 1891325.861939934780821 ], [ 645089.306411757017486, 1891325.861939934780821 ], [ 645098.795856519951485, 1891335.868916283827275 ], [ 645098.795856519951485, 1891335.868916283827275 ], [ 645098.726265771314502, 1891345.808972225524485 ], [ 645108.215696356259286, 1891355.815954079618677 ], [ 645108.215696356259286, 1891355.815954079618677 ], [ 645117.705117708654143, 1891365.822941046440974 ], [ 645127.26413540635258, 1891365.889876007335261 ], [ 645127.26413540635258, 1891365.889876007335261 ], [ 645136.753543234081008, 1891375.8968728070613 ], [ 645146.312556936754845, 1891375.963816901436076 ], [ 645146.312556936754845, 1891375.963816901436076 ], [ 645155.801951239816844, 1891385.970823535928503 ], [ 645155.801951239816844, 1891385.970823535928503 ], [ 645155.732331187697127, 1891395.910881747258827 ], [ 645165.221711314865388, 1891405.917893886798993 ], [ 645165.221711314865388, 1891405.917893886798993 ], [ 645174.711082206573337, 1891415.924911139300093 ], [ 645174.711082206573337, 1891415.924911139300093 ], [ 645174.641451912466437, 1891425.864970217691734 ], [ 645184.130808626534417, 1891435.871992975240573 ], [ 645184.130808626534417, 1891435.871992975240573 ], [ 645193.620156106539071, 1891445.879020847380161 ], [ 645193.620156106539071, 1891445.879020847380161 ], [ 645203.109494353528135, 1891455.886053831782192 ], [ 645203.109494353528135, 1891455.886053831782192 ], [ 645212.598823363427073, 1891465.893091929843649 ], [ 645222.157798151951283, 1891465.960074102738872 ], [ 645222.157798151951283, 1891465.960074102738872 ], [ 645231.6471136379987, 1891475.967122036265209 ], [ 645231.6471136379987, 1891475.967122036265209 ], [ 645241.136419891030528, 1891485.97417508228682 ], [ 645241.136419891030528, 1891485.97417508228682 ], [ 645250.625716908136383, 1891495.98123324313201 ], [ 645250.625716908136383, 1891495.98123324313201 ], [ 645260.115004690596834, 1891505.988296517403796 ], [ 645260.115004690596834, 1891505.988296517403796 ], [ 645269.604283238528296, 1891515.995364905102178 ], [ 645279.163236871827394, 1891516.062375097535551 ], [ 645279.163236871827394, 1891516.062375097535551 ], [ 645288.652501894161105, 1891526.069453320698813 ], [ 645288.652501894161105, 1891526.069453320698813 ], [ 645298.141757681849413, 1891536.076536657987162 ], [ 645307.70070302952081, 1891536.143560706172138 ], [ 645307.70070302952081, 1891536.143560706172138 ], [ 645317.189945291611366, 1891546.150653879158199 ], [ 645317.189945291611366, 1891546.150653879158199 ], [ 645326.679178318940103, 1891556.157752166502178 ], [ 645326.679178318940103, 1891556.157752166502178 ], [ 645336.16840211127419, 1891566.164855567971244 ], [ 645336.16840211127419, 1891566.164855567971244 ], [ 645345.657616668730043, 1891576.171964083099738 ], [ 645345.657616668730043, 1891576.171964083099738 ], [ 645355.146821992471814, 1891586.179077713517472 ], [ 645364.70574618363753, 1891586.246129782637581 ], [ 645364.70574618363753, 1891586.246129782637581 ], [ 645374.194937980151735, 1891596.253253248753026 ], [ 645374.194937980151735, 1891596.253253248753026 ], [ 645383.684120541671291, 1891606.26038182945922 ], [ 645383.684120541671291, 1891606.26038182945922 ], [ 645393.173293869243935, 1891616.267515524756163 ], [ 645393.173293869243935, 1891616.267515524756163 ], [ 645402.662457960424945, 1891626.274654333945364 ], [ 645402.662457960424945, 1891626.274654333945364 ], [ 645402.592710079159588, 1891636.214722579112276 ], [ 645412.081859990488738, 1891646.221866896376014 ], [ 645412.081859990488738, 1891646.221866896376014 ], [ 645421.571000665193424, 1891656.2290163282305 ], [ 645421.571000665193424, 1891656.2290163282305 ], [ 645431.060132106998935, 1891666.236170874210075 ], [ 645431.060132106998935, 1891666.236170874210075 ], [ 645440.549254312179983, 1891676.243330535944551 ], [ 645440.549254312179983, 1891676.243330535944551 ], [ 645450.038367281667888, 1891686.250495311571285 ], [ 645450.038367281667888, 1891686.250495311571285 ] ] } }
]
}
