{
"type": "FeatureCollection",
"name": "shoreline_2016",
"crs": { "type": "name", "properties": { "name": "urn:ogc:def:crs:EPSG::32644" } },
"features": [
{ "type": "Feature", "properties": { "year": 2016, "month": null }, "geometry": { "type": "LineString", "coordinates": [ [ 643588.344389574369416, 1889963.503742306958884 ], [ 643597.904001745162532, 1889963.569924145471305 ], [ 643607.463614208390936, 1889963.636110393563285 ], [ 643607.463614208390936, 1889963.636110393563285 ], [ 643616.954400068963878, 1889973.642297665588558 ], [ 643626.51400853600353, 1889973.708493036916479 ], [ 643636.073617298621684, 1889973.7746928173583 ], [ 643645.633226352743804, 1889973.840897006448358 ], [ 643645.633226352743804, 1889973.840897006448358 ], [ 643655.123990115709603, 1889983.847103527514264 ], [ 643664.683595174923539, 1889983.913316840538755 ], [ 643664.683595174923539, 1889983.913316840538755 ], [ 643674.174345422536135, 1889993.919533181004226 ], [ 643674.174345422536135, 1889993.919533181004226 ], [ 643683.665086442139, 1890003.925754624418914 ], [ 643683.665086442139, 1890003.925754624418914 ], [ 643693.155818235129118, 1890013.931981171946973 ], [ 643702.715410717763007, 1890013.998213039478287 ], [ 643702.715410717763007, 1890013.998213039478287 ], [ 643712.206128995167091, 1890024.004449407104403 ], [ 643712.206128995167091, 1890024.004449407104403 ], [ 643721.69683804444503, 1890034.010690878378227 ], [ 643721.69683804444503, 1890034.010690878378227 ], [ 643731.187537866877392, 1890044.016937454231083 ], [ 643731.187537866877392, 1890044.016937454231083 ], [ 643740.678228462697007, 1890054.023189134895802 ], [ 643740.678228462697007, 1890054.023189134895802 ], [ 643750.168909830157645, 1890064.029445919906721 ], [ 643759.728481156867929, 1890064.09570577275008 ], [ 643759.728481156867929, 1890064.09570577275008 ], [ 643769.219149008393288, 1890074.101972377160564 ], [ 643769.219149008393288, 1890074.101972377160564 ], [ 643778.709807632956654, 1890084.108244085684419 ], [ 643788.269370673457161, 1890084.17451777914539 ], [ 643797.828934007091448, 1890084.240795881487429 ], [ 643807.388497635256499, 1890084.307078393409029 ], [ 643816.948061557719484, 1890084.373365314444527 ], [ 643826.507625776110217, 1890084.439656644593924 ], [ 643826.507625776110217, 1890084.439656644593924 ], [ 643835.998253722325899, 1890094.445957035990432 ], [ 643835.998253722325899, 1890094.445957035990432 ], [ 643835.929316804860719, 1890104.385961771477014 ], [ 643835.860379535122775, 1890114.325966588687152 ], [ 643835.791441913344897, 1890124.265971489949152 ], [ 643845.282045821542852, 1890134.272278154268861 ], [ 643845.282045821542852, 1890134.272278154268861 ], [ 643854.772640501032583, 1890144.278589923167601 ], [ 643854.772640501032583, 1890144.278589923167601 ], [ 643864.26322595460806, 1890154.284906798042357 ], [ 643864.26322595460806, 1890154.284906798042357 ], [ 643873.753802181920037, 1890164.291228777728975 ], [ 643873.753802181920037, 1890164.291228777728975 ], [ 643873.684844459872693, 1890174.23123531951569 ], [ 643883.175406521302648, 1890184.237562793307006 ], [ 643883.175406521302648, 1890184.237562793307006 ], [ 643892.665959355072118, 1890194.243895372841507 ], [ 643902.225475496612489, 1890194.310225348221138 ], [ 643902.225475496612489, 1890194.310225348221138 ], [ 643911.71601481246762, 1890204.31656774901785 ], [ 643911.71601481246762, 1890204.31656774901785 ], [ 643921.20654490054585, 1890214.322915255324915 ], [ 643921.20654490054585, 1890214.322915255324915 ], [ 643921.137562491931021, 1890224.262923744274303 ], [ 643930.628078415058553, 1890234.26927674585022 ], [ 643930.628078415058553, 1890234.26927674585022 ], [ 643940.118585111456923, 1890244.275634853169322 ], [ 643949.678079799748957, 1890244.341988408472389 ], [ 643959.237574781407602, 1890244.408346373355016 ], [ 643959.237574781407602, 1890244.408346373355016 ], [ 643968.728063668007962, 1890254.414719017921016 ], [ 643968.728063668007962, 1890254.414719017921016 ], [ 643978.218543326598592, 1890264.421096768928692 ], [ 643978.218543326598592, 1890264.421096768928692 ], [ 643987.70901375846006, 1890274.427479625679553 ], [ 643987.70901375846006, 1890274.427479625679553 ], [ 643997.199474961031228, 1890284.43386758887209 ], [ 643997.199474961031228, 1890284.43386758887209 ], [ 644006.689926935359836, 1890294.44026065710932 ], [ 644006.689926935359836, 1890294.44026065710932 ], [ 644016.180369683075696, 1890304.446658831555396 ], [ 644016.180369683075696, 1890304.446658831555396 ], [ 644025.670803200919181, 1890314.45306211267598 ], [ 644025.670803200919181, 1890314.45306211267598 ], [ 644035.161227490752935, 1890324.45947050047107 ], [ 644035.161227490752935, 1890324.45947050047107 ], [ 644044.651642552111298, 1890334.465883992845193 ], [ 644044.651642552111298, 1890334.465883992845193 ], [ 644054.142048386391252, 1890344.472302592592314 ], [ 644054.142048386391252, 1890344.472302592592314 ], [ 644063.632444989634678, 1890354.478726298548281 ], [ 644063.632444989634678, 1890354.478726298548281 ], [ 644073.122832365799695, 1890364.485155110945925 ], [ 644073.122832365799695, 1890364.485155110945925 ], [ 644082.613210513372906, 1890374.491589029785246 ], [ 644092.172650016378611, 1890374.558012717636302 ], [ 644101.732089815661311, 1890374.624440815998241 ], [ 644101.732089815661311, 1890374.624440815998241 ], [ 644111.222450153902173, 1890384.630889274878427 ], [ 644111.222450153902173, 1890384.630889274878427 ], [ 644111.153370046173222, 1890394.570905308471993 ], [ 644111.084289585589431, 1890404.51092142588459 ], [ 644120.574630818562582, 1890414.517375770956278 ], [ 644120.574630818562582, 1890414.517375770956278 ], [ 644130.064962823991664, 1890424.523835222702473 ], [ 644130.064962823991664, 1890424.523835222702473 ], [ 644139.555285599199124, 1890434.530299782054499 ], [ 644149.114699359517545, 1890434.596751770935953 ], [ 644149.114699359517545, 1890434.596751770935953 ], [ 644158.605008615413681, 1890444.603226153878495 ], [ 644158.605008615413681, 1890444.603226153878495 ], [ 644168.09530864097178, 1890454.609705643728375 ], [ 644168.09530864097178, 1890454.609705643728375 ], [ 644177.585599440266378, 1890464.616190240951255 ], [ 644177.585599440266378, 1890464.616190240951255 ], [ 644187.075881009106524, 1890474.622679944615811 ], [ 644187.075881009106524, 1890474.622679944615811 ], [ 644196.566153348772787, 1890484.629174755653366 ], [ 644196.566153348772787, 1890484.629174755653366 ], [ 644206.05641645938158, 1890494.63567467383109 ], [ 644206.05641645938158, 1890494.63567467383109 ], [ 644205.987286613322794, 1890504.575694691156968 ], [ 644215.47753555723466, 1890514.582200107397512 ], [ 644215.47753555723466, 1890514.582200107397512 ], [ 644224.967775270459242, 1890524.588710630079731 ], [ 644224.967775270459242, 1890524.588710630079731 ], [ 644234.458005754160695, 1890534.595226260367781 ], [ 644234.458005754160695, 1890534.595226260367781 ], [ 644243.948227009852417, 1890544.601746998960152 ], [ 644243.948227009852417, 1890544.601746998960152 ], [ 644253.438439034740441, 1890554.608272844459862 ], [ 644253.438439034740441, 1890554.608272844459862 ], [ 644262.928641830105335, 1890564.614803797798231 ], [ 644262.928641830105335, 1890564.614803797798231 ], [ 644272.4188353944337, 1890574.621339858975261 ], [ 644272.4188353944337, 1890574.621339858975261 ], [ 644281.909019730519503, 1890584.627881027525291 ], [ 644281.909019730519503, 1890584.627881027525291 ], [ 644291.399194838246331, 1890594.634427304379642 ], [ 644300.958539950894192, 1890594.700954769272357 ], [ 644310.51788535900414, 1890594.767486645374447 ], [ 644310.51788535900414, 1890594.767486645374447 ], [ 644320.008042654604651, 1890604.77404746459797 ], [ 644320.008042654604651, 1890604.77404746459797 ], [ 644329.49819072172977, 1890614.780613392125815 ], [ 644339.057527844444849, 1890614.847159114200622 ], [ 644339.057527844444849, 1890614.847159114200622 ], [ 644348.547662389930338, 1890624.85373486764729 ], [ 644348.547662389930338, 1890624.85373486764729 ], [ 644358.037787706591189, 1890634.86031572916545 ], [ 644358.037787706591189, 1890634.86031572916545 ], [ 644367.527903792099096, 1890644.8669016987551 ], [ 644367.527903792099096, 1890644.8669016987551 ], [ 644377.018010646221228, 1890654.873492777114734 ], [ 644377.018010646221228, 1890654.873492777114734 ], [ 644386.508108271635137, 1890664.880088963545859 ], [ 644386.508108271635137, 1890664.880088963545859 ], [ 644395.998196666827425, 1890674.886690258514136 ], [ 644395.998196666827425, 1890674.886690258514136 ], [ 644405.488275833195075, 1890684.893296662252396 ], [ 644405.488275833195075, 1890684.893296662252396 ], [ 644405.41904296958819, 1890694.833324709674343 ], [ 644414.909107964485884, 1890704.839936611708254 ], [ 644414.909107964485884, 1890704.839936611708254 ], [ 644424.399163729278371, 1890714.846553622512147 ], [ 644424.399163729278371, 1890714.846553622512147 ], [ 644433.88921026349999, 1890724.853175742086023 ], [ 644433.88921026349999, 1890724.853175742086023 ], [ 644443.379247568780556, 1890734.859802971128374 ], [ 644452.938533205073327, 1890734.926405308069661 ], [ 644452.938533205073327, 1890734.926405308069661 ], [ 644462.42855698778294, 1890744.933042363030836 ], [ 644462.42855698778294, 1890744.933042363030836 ], [ 644462.359294484951533, 1890754.873072753893211 ], [ 644471.849304098403081, 1890764.879715309012681 ], [ 644471.849304098403081, 1890764.879715309012681 ], [ 644481.339304478606209, 1890774.886362973134965 ], [ 644481.339304478606209, 1890774.886362973134965 ], [ 644490.829295629402623, 1890784.893015746260062 ], [ 644490.829295629402623, 1890784.893015746260062 ], [ 644490.760017952648923, 1890794.833047391148284 ], [ 644500.249994932441041, 1890804.839705664431676 ], [ 644500.249994932441041, 1890804.839705664431676 ], [ 644509.739962681429461, 1890814.84636904601939 ], [ 644509.739962681429461, 1890814.84636904601939 ], [ 644519.229921200778335, 1890824.85303753730841 ], [ 644519.229921200778335, 1890824.85303753730841 ], [ 644528.719870487926528, 1890834.859711137600243 ], [ 644528.719870487926528, 1890834.859711137600243 ], [ 644538.209810543921776, 1890844.866389847593382 ], [ 644538.209810543921776, 1890844.866389847593382 ], [ 644547.699741368880495, 1890854.873073666589335 ], [ 644557.258975223405287, 1890854.939728214638308 ], [ 644557.258975223405287, 1890854.939728214638308 ], [ 644566.74889252660796, 1890864.946421862114221 ], [ 644566.74889252660796, 1890864.946421862114221 ], [ 644566.6795753268525, 1890874.886456633685157 ], [ 644576.169478458235972, 1890884.893155781319365 ], [ 644576.169478458235972, 1890884.893155781319365 ], [ 644585.659372357069515, 1890894.89986003912054 ], [ 644585.659372357069515, 1890894.89986003912054 ], [ 644595.149257027194835, 1890904.906569406157359 ], [ 644595.149257027194835, 1890904.906569406157359 ], [ 644604.639132464537397, 1890914.913283883128315 ], [ 644614.198340573813766, 1890914.979966743150726 ], [ 644614.198340573813766, 1890914.979966743150726 ], [ 644623.688202489051037, 1890924.986691049067304 ], [ 644623.688202489051037, 1890924.986691049067304 ], [ 644623.618855645065196, 1890934.926728166406974 ], [ 644633.108703389298171, 1890944.933457972947508 ], [ 644633.108703389298171, 1890944.933457972947508 ], [ 644642.598541900631972, 1890954.940192889422178 ], [ 644642.598541900631972, 1890954.940192889422178 ], [ 644652.088371180230752, 1890964.946932916296646 ], [ 644652.088371180230752, 1890964.946932916296646 ], [ 644661.578191228210926, 1890974.953678052872419 ], [ 644671.13737359456718, 1890975.020389227429405 ], [ 644671.13737359456718, 1890975.020389227429405 ], [ 644680.627180119976401, 1890985.027144194114953 ], [ 644680.627180119976401, 1890985.027144194114953 ], [ 644680.55780363001395, 1890994.96718365768902 ], [ 644690.047595981159247, 1891004.973944125231355 ], [ 644690.047595981159247, 1891004.973944125231355 ], [ 644699.537379101733677, 1891014.980709702940658 ], [ 644709.096544305095449, 1891015.047439754940569 ], [ 644709.096544305095449, 1891015.047439754940569 ], [ 644718.586313902982511, 1891025.054215162061155 ], [ 644718.586313902982511, 1891025.054215162061155 ], [ 644728.076074268901721, 1891035.060995680745691 ], [ 644728.076074268901721, 1891035.060995680745691 ], [ 644737.565825402503833, 1891045.067781309364364 ], [ 644747.124978030100465, 1891045.134529930539429 ], [ 644747.124978030100465, 1891045.134529930539429 ], [ 644756.614715640898794, 1891055.141325389733538 ], [ 644756.614715640898794, 1891055.141325389733538 ], [ 644766.104444019612856, 1891065.148125959560275 ], [ 644766.104444019612856, 1891065.148125959560275 ], [ 644775.594163166009821, 1891075.15493163978681 ], [ 644775.594163166009821, 1891075.15493163978681 ], [ 644785.083873081486672, 1891085.161742431577295 ], [ 644785.083873081486672, 1891085.161742431577295 ], [ 644785.014442590763792, 1891095.101786114973947 ], [ 644794.504138329531997, 1891105.108602408319712 ], [ 644794.504138329531997, 1891105.108602408319712 ], [ 644803.993824837147258, 1891115.115423812996596 ], [ 644803.993824837147258, 1891115.115423812996596 ], [ 644813.483502112212591, 1891125.122250329004601 ], [ 644813.483502112212591, 1891125.122250329004601 ], [ 644813.414056441979483, 1891135.062295268988237 ], [ 644813.344610417028889, 1891145.002340292558074 ], [ 644822.83426857739687, 1891155.009172702208161 ], [ 644822.83426857739687, 1891155.009172702208161 ], [ 644822.764817256131209, 1891164.94921820005402 ], [ 644822.69536558049731, 1891174.889263781020418 ], [ 644822.625913550145924, 1891184.829309445340186 ], [ 644822.556461165426299, 1891194.769355191616341 ], [ 644822.487008426105604, 1891204.709401021478698 ], [ 644812.927926823496819, 1891204.642612177412957 ], [ 644812.85847831715364, 1891214.582657780963928 ], [ 644803.299401600030251, 1891214.515873040305451 ], [ 644803.229957326664589, 1891224.455918419407681 ], [ 644793.670885493280366, 1891224.389137781225145 ], [ 644784.111813957802951, 1891224.322361555183306 ], [ 644784.042378505109809, 1891234.262406401103362 ], [ 644774.483311850810423, 1891234.195634277770296 ], [ 644764.924245494417846, 1891234.128866567276418 ], [ 644764.854818862164393, 1891244.068910879315808 ], [ 644755.295757389743812, 1891244.002147271530703 ], [ 644755.226334990700707, 1891253.942191359121352 ], [ 644755.156912237522192, 1891263.882235528901219 ], [ 644745.597860236419365, 1891263.815475716954097 ], [ 644745.528441716451198, 1891273.755519661819562 ], [ 644735.969394597923383, 1891273.688763953279704 ], [ 644735.899980311281979, 1891283.628807673929259 ], [ 644726.340938078123145, 1891283.562056068796664 ], [ 644726.271528024692088, 1891293.502099564066157 ], [ 644726.202117617125623, 1891303.442143142456189 ], [ 644726.132706855074503, 1891313.38218680373393 ], [ 644726.063295738887973, 1891323.32223054789938 ], [ 644725.993884268333204, 1891333.262274375418201 ], [ 644725.924472443526611, 1891343.202318285824731 ], [ 644735.414070383412763, 1891353.209116040728986 ], [ 644735.414070383412763, 1891353.209116040728986 ], [ 644744.903659091098234, 1891363.215918907430023 ], [ 644754.46266521490179, 1891363.282681801356375 ], [ 644754.46266521490179, 1891363.282681801356375 ], [ 644763.952240396058187, 1891373.28949449933134 ], [ 644763.952240396058187, 1891373.28949449933134 ], [ 644763.882808802649379, 1891383.229539974825457 ], [ 644763.813376854872331, 1891393.169585533207282 ], [ 644763.743944552610628, 1891403.109631174243987 ], [ 644773.233495673164725, 1891413.116450157482177 ], [ 644773.233495673164725, 1891413.116450157482177 ], [ 644773.16405807423871, 1891423.056496273493394 ], [ 644773.094620120944455, 1891432.996542471926659 ], [ 644782.584152124123648, 1891443.003367349738255 ], [ 644782.584152124123648, 1891443.003367349738255 ], [ 644782.51470887393225, 1891452.943414022680372 ], [ 644792.004226697841659, 1891462.950244402512908 ], [ 644792.004226697841659, 1891462.950244402512908 ], [ 644791.934778150753118, 1891472.890291550196707 ], [ 644801.42428179923445, 1891482.897127432748675 ], [ 644801.42428179923445, 1891482.897127432748675 ], [ 644801.35482795513235, 1891492.837175054941326 ], [ 644810.844317426788621, 1891502.844016441842541 ], [ 644810.844317426788621, 1891502.844016441842541 ], [ 644820.333797665545717, 1891512.850862939609215 ], [ 644820.333797665545717, 1891512.850862939609215 ], [ 644829.823268668376841, 1891522.857714549638331 ], [ 644839.382204051711597, 1891522.924522084882483 ], [ 644839.382204051711597, 1891522.924522084882483 ], [ 644848.871661528479308, 1891532.931383527582511 ], [ 644858.430592917837203, 1891532.998200195841491 ], [ 644867.989524602657184, 1891533.065021275775507 ], [ 644867.989524602657184, 1891533.065021275775507 ], [ 644877.478964261477813, 1891543.07189727248624 ], [ 644877.478964261477813, 1891543.07189727248624 ], [ 644886.968394685653038, 1891553.078778381226584 ], [ 644886.968394685653038, 1891553.078778381226584 ], [ 644896.457815875299275, 1891563.085664602695033 ], [ 644906.016734981560148, 1891563.152504257624969 ], [ 644915.575654384563677, 1891563.219348324928433 ], [ 644915.575654384563677, 1891563.219348324928433 ], [ 644925.065057756030001, 1891573.226249099476263 ], [ 644925.065057756030001, 1891573.226249099476263 ], [ 644934.554451894247904, 1891583.233154987217858 ], [ 644944.113363010575995, 1891583.300012909574434 ], [ 644944.113363010575995, 1891583.300012909574434 ], [ 644953.602743620984256, 1891593.306928630685434 ], [ 644953.602743620984256, 1891593.306928630685434 ], [ 644963.092114996397868, 1891603.313849464990199 ], [ 644963.092114996397868, 1891603.313849464990199 ], [ 644972.581477138213813, 1891613.320775410858914 ], [ 644972.581477138213813, 1891613.320775410858914 ], [ 644982.07083004375454, 1891623.327706469921395 ], [ 644982.07083004375454, 1891623.327706469921395 ], [ 644991.560173714300618, 1891633.334642642643303 ], [ 645001.119063667953014, 1891633.401528582209721 ], [ 645010.677953921025619, 1891633.468418934615329 ], [ 645010.677953921025619, 1891633.468418934615329 ], [ 645020.167279773158953, 1891643.475369662046432 ], [ 645029.72616603015922, 1891643.542269148398191 ], [ 645039.285052584134974, 1891643.609173046890646 ], [ 645039.285052584134974, 1891643.609173046890646 ], [ 645048.774360619252548, 1891653.616138329962268 ], [ 645048.774360619252548, 1891653.616138329962268 ], [ 645058.263659417862073, 1891663.623108726693317 ], [ 645058.263659417862073, 1891663.623108726693317 ], [ 645058.19407530198805, 1891673.5631661741063 ], [ 645058.124490831047297, 1891683.503223703010008 ], [ 645058.054906005156226, 1891693.443281316431239 ], [ 645057.985320823965594, 1891703.383339012507349 ], [ 645057.915735287824646, 1891713.32339679193683 ], [ 645057.84614939650055, 1891723.263454653788358 ], [ 645057.776563150109723, 1891733.203512598760426 ], [ 645057.706976548535749, 1891743.143570627551526 ], [ 645057.637389592011459, 1891753.083628738997504 ], [ 645057.567802280304022, 1891763.0236869326327 ], [ 645057.498214613413438, 1891772.963745210319757 ], [ 645057.428626591572538, 1891782.903803570428863 ], [ 645057.359038214548491, 1891792.843862013658509 ], [ 645066.848263507941738, 1891802.850842618150637 ], [ 645066.848263507941738, 1891802.850842618150637 ], [ 645066.778669831808656, 1891812.790901536121964 ], [ 645076.267880945350043, 1891822.797887644963339 ], [ 645076.267880945350043, 1891822.797887644963339 ], [ 645076.198281970107928, 1891832.737947038840503 ], [ 645085.687478904612362, 1891842.744938653195277 ], [ 645085.687478904612362, 1891842.744938653195277 ], [ 645095.176666601793841, 1891852.751935381675139 ], [ 645095.176666601793841, 1891852.751935381675139 ], [ 645095.107057383051142, 1891862.691995642147958 ], [ 645095.037447809008881, 1891872.632055984577164 ], [ 645094.967837879899889, 1891882.572116410825402 ], [ 645094.89822759560775, 1891892.512176920892671 ], [ 645094.828616956016049, 1891902.452237513149157 ], [ 645094.759005961357616, 1891912.392298188060522 ], [ 645094.689394611399621, 1891922.332358947023749 ], [ 645085.130634763278067, 1891922.265419924631715 ], [ 645085.061027647461742, 1891932.205480457050726 ], [ 645075.502272684127092, 1891932.138545539230108 ], [ 645075.432669802336022, 1891942.078605846269056 ], [ 645065.873919726582244, 1891942.011675032554194 ], [ 645065.804321078816429, 1891951.951735113048926 ], [ 645065.734722075867467, 1891961.89179527759552 ], [ 645056.175981475622393, 1891961.82486825902015 ], [ 645056.106386706815101, 1891971.76492819795385 ], [ 645046.547650992870331, 1891971.698005284415558 ], [ 645046.478060458321124, 1891981.638064997270703 ], [ 645036.919329629046842, 1891981.571146187605336 ], [ 645036.849743328755721, 1891991.511205674614757 ], [ 645027.291017387062311, 1891991.444290970219299 ], [ 645027.221435321029276, 1892001.384350231615826 ], [ 645017.662714265752584, 1892001.317439631326124 ], [ 645017.593136433977634, 1892011.257498666876927 ], [ 645008.03442026488483, 1892011.190592171158642 ], [ 645007.96484666748438, 1892021.130650981096551 ], [ 645007.89527271525003, 1892031.070709874620661 ], [ 645007.825698408065364, 1892041.010768850333989 ], [ 645007.756123745813966, 1892050.950827909633517 ], [ 644998.197426229831763, 1892050.88392459298484 ], [ 644998.127855802187696, 1892060.823983426205814 ], [ 644998.058285019476898, 1892070.76404234347865 ], [ 644997.988713881815784, 1892080.704101342940703 ], [ 644997.919142389204353, 1892090.644160425290465 ], [ 644997.849570541759022, 1892100.584219591924921 ], [ 644997.779998339363374, 1892110.524278840282932 ], [ 644997.710425781900994, 1892120.464338172227144 ], [ 644997.640852869488299, 1892130.404397586826235 ], [ 644997.571279602125287, 1892140.344457085477188 ], [ 644997.501705979811959, 1892150.284516666084528 ], [ 644997.43213200266473, 1892160.22457633074373 ], [ 644997.362557670450769, 1892170.164636077592149 ], [ 644997.292982983286493, 1892180.104695908492431 ], [ 645006.782041202299297, 1892190.111663459800184 ], [ 645006.782041202299297, 1892190.111663459800184 ], [ 645006.712461215443909, 1892200.051723764976487 ], [ 645016.201505250530317, 1892210.0586968222633 ], [ 645016.201505250530317, 1892210.0586968222633 ], [ 645025.690540047828108, 1892220.065674993908033 ], [ 645035.249160428531468, 1892220.13259679893963 ], [ 645044.807781107607298, 1892220.19952301797457 ], [ 645054.366402082145214, 1892220.266453651012853 ], [ 645054.366402082145214, 1892220.266453651012853 ], [ 645063.855414762627333, 1892230.273451103363186 ], [ 645063.855414762627333, 1892230.273451103363186 ], [ 645073.344418205088004, 1892240.280453671002761 ], [ 645073.344418205088004, 1892240.280453671002761 ], [ 645082.833412410691381, 1892250.287461353465915 ], [ 645082.833412410691381, 1892250.287461353465915 ], [ 645082.763793574413285, 1892260.227524627000093 ], [ 645092.252773595624603, 1892270.234537814976647 ], [ 645092.252773595624603, 1892270.234537814976647 ], [ 645101.741744377301075, 1892280.241556117776781 ], [ 645101.741744377301075, 1892280.241556117776781 ], [ 645111.230705922003835, 1892290.248579535400495 ], [ 645111.230705922003835, 1892290.248579535400495 ], [ 645120.719658229849301, 1892300.25560806831345 ], [ 645120.719658229849301, 1892300.25560806831345 ], [ 645130.208601298043504, 1892310.262641714885831 ], [ 645130.208601298043504, 1892310.262641714885831 ], [ 645139.697535127867013, 1892320.269680477445945 ], [ 645149.256113172508776, 1892320.336658336920664 ], [ 645149.256113172508776, 1892320.336658336920664 ], [ 645158.745033472077921, 1892330.343706937041134 ], [ 645158.745033472077921, 1892330.343706937041134 ], [ 645158.675375073333271, 1892340.283773345174268 ], [ 645168.164281187579036, 1892350.290827452670783 ], [ 645168.164281187579036, 1892350.290827452670783 ], [ 645177.653178063221276, 1892360.297886674525216 ], [ 645177.653178063221276, 1892360.297886674525216 ], [ 645177.583509417949244, 1892370.237953950418159 ], [ 645187.072392109315842, 1892380.245018680114299 ], [ 645187.072392109315842, 1892380.245018680114299 ], [ 645187.002718162955716, 1892390.185086431447417 ], [ 645186.933043861179613, 1892400.125154266133904 ], [ 645186.863369203987531, 1892410.065222183475271 ], [ 645196.352227820781991, 1892420.072293204022571 ], [ 645196.352227820781991, 1892420.072293204022571 ], [ 645205.841077195946127, 1892430.079369340324774 ], [ 645215.39960682799574, 1892430.146381497848779 ], [ 645224.958136757253669, 1892430.213398069376126 ], [ 645224.958136757253669, 1892430.213398069376126 ], [ 645234.44696830981411, 1892440.220488768070936 ], [ 645234.44696830981411, 1892440.220488768070936 ], [ 645243.935790621908382, 1892450.227584581123665 ], [ 645243.935790621908382, 1892450.227584581123665 ], [ 645253.424603694933467, 1892460.234685509931296 ], [ 645253.424603694933467, 1892460.234685509931296 ], [ 645253.354894772055559, 1892470.174756090622395 ], [ 645262.843693659757264, 1892480.181862527504563 ], [ 645262.843693659757264, 1892480.181862527504563 ] ] } },
{ "type": "Feature", "properties": { "year": 2016, "month": null }, "geometry": { "type": "LineString", "coordinates": [ [ 645482.689463590853848, 1892481.724903679918498 ], [ 645482.759283041232266, 1892471.784825591137633 ], [ 645482.829102135379799, 1892461.844747584778816 ], [ 645482.898920873529278, 1892451.904669662006199 ], [ 645482.898920873529278, 1892451.904669662006199 ], [ 645473.410205883905292, 1892441.897455757716671 ], [ 645473.410205883905292, 1892441.897455757716671 ], [ 645463.921481654979289, 1892431.890246969880536 ], [ 645463.921481654979289, 1892431.890246969880536 ], [ 645454.432748185587116, 1892421.883043298497796 ], [ 645454.432748185587116, 1892421.883043298497796 ], [ 645444.944005478639156, 1892411.875844744266942 ], [ 645444.944005478639156, 1892411.875844744266942 ], [ 645435.455253532389179, 1892401.868651305790991 ], [ 645435.455253532389179, 1892401.868651305790991 ], [ 645425.966492347186431, 1892391.861462983768433 ], [ 645425.966492347186431, 1892391.861462983768433 ], [ 645416.477721921750344, 1892381.854279778432101 ], [ 645416.477721921750344, 1892381.854279778432101 ], [ 645406.988942260155454, 1892371.84710168861784 ], [ 645406.988942260155454, 1892371.84710168861784 ], [ 645397.500153358327225, 1892361.839928715256974 ], [ 645397.500153358327225, 1892361.839928715256974 ], [ 645388.011355217779055, 1892351.832760857883841 ], [ 645388.011355217779055, 1892351.832760857883841 ], [ 645378.522547837113962, 1892341.82559811626561 ], [ 645378.522547837113962, 1892341.82559811626561 ], [ 645369.033731219242327, 1892331.818440491333604 ], [ 645369.033731219242327, 1892331.818440491333604 ], [ 645359.544905362650752, 1892321.8112879821565 ], [ 645359.544905362650752, 1892321.8112879821565 ], [ 645349.986320777097717, 1892321.744213015306741 ], [ 645340.427736487705261, 1892321.677142461994663 ], [ 645330.938892807345837, 1892311.670004514744505 ], [ 645330.938892807345837, 1892311.670004514744505 ], [ 645321.450039888499305, 1892301.662871683947742 ], [ 645321.450039888499305, 1892301.662871683947742 ], [ 645311.961177731165662, 1892291.655743968207389 ], [ 645311.961177731165662, 1892291.655743968207389 ], [ 645302.472306335461326, 1892281.648621367523447 ], [ 645302.472306335461326, 1892281.648621367523447 ], [ 645292.983425701386295, 1892271.641503883292899 ], [ 645292.983425701386295, 1892271.641503883292899 ], [ 645283.494535829056986, 1892261.634391514584422 ], [ 645283.494535829056986, 1892261.634391514584422 ], [ 645273.935926082776859, 1892261.567353714490309 ], [ 645264.447022678214125, 1892251.560251184040681 ], [ 645264.447022678214125, 1892251.560251184040681 ], [ 645254.958110036794096, 1892241.553153768414631 ], [ 645254.958110036794096, 1892241.553153768414631 ], [ 645245.469188157236204, 1892231.546061468077824 ], [ 645245.538883956382051, 1892221.605993191711605 ], [ 645245.538883956382051, 1892221.605993191711605 ], [ 645236.049947893247008, 1892211.59890639828518 ], [ 645236.119638391304761, 1892201.658838596893474 ], [ 645236.119638391304761, 1892201.658838596893474 ], [ 645226.630688143661246, 1892191.651757311308756 ], [ 645226.700373340863734, 1892181.711689984425902 ], [ 645226.77005818253383, 1892171.771622740663588 ], [ 645226.839742668671533, 1892161.831555579788983 ], [ 645226.909426799393259, 1892151.891488502267748 ], [ 645236.468085548607633, 1892151.958500831853598 ], [ 645236.537773913471028, 1892142.018433528486639 ], [ 645246.096437548520043, 1892142.085449962411076 ], [ 645255.655101480893791, 1892142.152470810571685 ], [ 645265.213765710475855, 1892142.219496072269976 ], [ 645265.213765710475855, 1892142.219496072269976 ], [ 645274.702723515103571, 1892152.226594287902117 ], [ 645274.702723515103571, 1892152.226594287902117 ], [ 645284.191672080778517, 1892162.233697618590668 ], [ 645284.191672080778517, 1892162.233697618590668 ], [ 645293.68061140854843, 1892172.240806064335629 ], [ 645303.239263058523647, 1892172.30784990824759 ], [ 645312.797915005823597, 1892172.374898165697232 ], [ 645322.35656725068111, 1892172.441950836684555 ], [ 645331.915219793096185, 1892172.509007921442389 ], [ 645331.984954766579904, 1892162.568937359377742 ], [ 645341.543612196110189, 1892162.635998548241332 ], [ 645341.613351403735578, 1892152.695927759865299 ], [ 645341.683090255362913, 1892142.755857053445652 ], [ 645341.75282875134144, 1892132.815786431077868 ], [ 645341.822566891554743, 1892122.875715891132131 ], [ 645341.822566891554743, 1892122.875715891132131 ], [ 645332.333624297752976, 1892112.868585792835802 ], [ 645332.333624297752976, 1892112.868585792835802 ], [ 645322.774944217177108, 1892112.801530563971028 ], [ 645313.216264434158802, 1892112.734479748876765 ], [ 645303.657584948465228, 1892112.667433347320184 ], [ 645294.098905760329217, 1892112.600391359301284 ], [ 645284.540226869517937, 1892112.533353784820065 ], [ 645274.981548276147805, 1892112.466320624109358 ], [ 645265.422869978705421, 1892112.399291876703501 ], [ 645255.933888102066703, 1892102.392199953319505 ], [ 645255.933888102066703, 1892102.392199953319505 ], [ 645246.444896987872198, 1892092.385113143827766 ], [ 645246.514587809098884, 1892082.44504602951929 ], [ 645246.584278274676763, 1892072.504978997865692 ], [ 645246.653968384722248, 1892062.564912048866972 ], [ 645256.212669034022838, 1892062.631930423434824 ], [ 645256.282363377977163, 1892052.691863248823211 ], [ 645265.841068913927302, 1892052.758885727496818 ], [ 645265.910767491906881, 1892042.818818326573819 ], [ 645275.469477916019969, 1892042.885844909353182 ], [ 645285.028188636293635, 1892042.952875905437395 ], [ 645285.097896037506871, 1892033.012807969702408 ], [ 645294.656611644546501, 1892033.079843069892377 ], [ 645294.726323279552162, 1892023.139774907147512 ], [ 645294.796034558909014, 1892013.199706827057526 ], [ 645294.865745482500643, 1892003.259638831019402 ], [ 645294.935456050443463, 1891993.319570917403325 ], [ 645295.00516626262106, 1891983.37950308714062 ], [ 645295.074876119266264, 1891973.439435339998454 ], [ 645304.633619560161605, 1891973.506472998065874 ], [ 645304.703333650249988, 1891963.566405024146661 ], [ 645314.262081977794878, 1891963.633446786552668 ], [ 645323.820830602780916, 1891963.700492961332202 ], [ 645333.379579525324516, 1891963.767543549649417 ], [ 645342.938328745309263, 1891963.834598550805822 ], [ 645352.497078264132142, 1891963.901657965499908 ], [ 645352.566814945079386, 1891953.961588527774438 ], [ 645362.125569349387661, 1891954.02865204657428 ], [ 645362.195310263661668, 1891944.088582382770255 ], [ 645362.265050822170451, 1891934.148512802086771 ], [ 645362.334791024681181, 1891924.208443304523826 ], [ 645362.404530871426687, 1891914.268373889615759 ], [ 645362.474270362406969, 1891904.328304558061063 ], [ 645362.544009497389197, 1891894.388235309394076 ], [ 645372.102791734505445, 1891894.455301384907216 ], [ 645372.172535102814436, 1891884.515231909230351 ], [ 645381.731322226580232, 1891884.582302087685093 ], [ 645381.801069828215986, 1891874.642232385696843 ], [ 645391.3598618399119, 1891874.709306668257341 ], [ 645391.429613674758002, 1891864.769236741121858 ], [ 645400.988410571822897, 1891864.83631512708962 ], [ 645401.058166639646515, 1891854.896244972012937 ], [ 645410.616968423593789, 1891854.963327461620793 ], [ 645410.68672872451134, 1891845.023257080232725 ], [ 645420.245535393827595, 1891845.090343673247844 ], [ 645420.315299927722663, 1891835.150273066712543 ], [ 645420.385064105736092, 1891825.210202540969476 ], [ 645420.454827927751467, 1891815.270132100908086 ], [ 645420.524591393768787, 1891805.330061741871759 ], [ 645420.594354503788054, 1891795.389991465955973 ], [ 645420.594354503788054, 1891795.389991465955973 ], [ 645411.105283054872416, 1891785.382836538832635 ], [ 645411.175040864036418, 1891775.442766738822684 ], [ 645411.175040864036418, 1891775.442766738822684 ], [ 645401.68595523305703, 1891765.435617318144068 ], [ 645401.68595523305703, 1891765.435617318144068 ], [ 645392.196860366151668, 1891755.428473013686016 ], [ 645392.196860366151668, 1891755.428473013686016 ], [ 645382.638013286981732, 1891755.361402444774285 ], [ 645373.14890489296522, 1891745.354267976712435 ], [ 645373.14890489296522, 1891745.354267976712435 ], [ 645363.659787263139151, 1891735.347138623474166 ], [ 645363.659787263139151, 1891735.347138623474166 ], [ 645354.170660397503525, 1891725.340014384128153 ], [ 645354.170660397503525, 1891725.340014384128153 ], [ 645344.681524294894189, 1891715.332895260769874 ], [ 645344.681524294894189, 1891715.332895260769874 ], [ 645335.192378957872279, 1891705.32578125083819 ], [ 645335.192378957872279, 1891705.32578125083819 ], [ 645325.703224385273643, 1891695.318672355730087 ], [ 645325.703224385273643, 1891695.318672355730087 ], [ 645316.214060577214696, 1891685.311568574747071 ], [ 645316.214060577214696, 1891685.311568574747071 ], [ 645306.724887533579022, 1891675.304469909053296 ], [ 645306.724887533579022, 1891675.304469909053296 ], [ 645297.235705254483037, 1891665.297376357251778 ], [ 645297.235705254483037, 1891665.297376357251778 ], [ 645287.746513739926741, 1891655.290287919342518 ], [ 645287.746513739926741, 1891655.290287919342518 ], [ 645278.257312990142964, 1891645.283204596489668 ], [ 645278.257312990142964, 1891645.283204596489668 ], [ 645268.698419005842879, 1891645.21619038307108 ], [ 645259.209204729646444, 1891635.209116895450279 ], [ 645259.209204729646444, 1891635.209116895450279 ], [ 645249.719981218106113, 1891625.202048522187397 ], [ 645249.719981218106113, 1891625.202048522187397 ], [ 645240.161078950273804, 1891625.135048164986074 ], [ 645230.671841911156662, 1891615.127989627886564 ], [ 645230.671841911156662, 1891615.127989627886564 ], [ 645221.112935649580322, 1891615.060998406028375 ], [ 645211.554029685212299, 1891614.994011595612392 ], [ 645201.995124019565992, 1891614.927029198268428 ], [ 645192.505864871898666, 1891604.919989939080551 ], [ 645192.505864871898666, 1891604.919989939080551 ], [ 645183.016596490284428, 1891594.912955793784931 ], [ 645183.016596490284428, 1891594.912955793784931 ], [ 645173.527318873791955, 1891584.905926762381569 ], [ 645173.527318873791955, 1891584.905926762381569 ], [ 645164.038032022421248, 1891574.898902844404802 ], [ 645164.038032022421248, 1891574.898902844404802 ], [ 645154.479109486564994, 1891574.831943745724857 ], [ 645144.989809109014459, 1891564.824929662980139 ], [ 645144.989809109014459, 1891564.824929662980139 ], [ 645135.500499496702105, 1891554.817920692497864 ], [ 645135.500499496702105, 1891554.817920692497864 ], [ 645125.941568676847965, 1891554.750975448871031 ], [ 645116.452245537191629, 1891544.743976314552128 ], [ 645116.452245537191629, 1891544.743976314552128 ], [ 645106.893310723244213, 1891544.677040204172954 ], [ 645097.334376207785681, 1891544.610108506400138 ], [ 645087.845035252277739, 1891534.603123927488923 ], [ 645087.845035252277739, 1891534.603123927488923 ], [ 645078.355685060843825, 1891524.596144461305812 ], [ 645078.355685060843825, 1891524.596144461305812 ], [ 645068.866325636045076, 1891514.589170108782127 ], [ 645068.866325636045076, 1891514.589170108782127 ], [ 645059.376956976717338, 1891504.582200868986547 ], [ 645059.376956976717338, 1891504.582200868986547 ], [ 645049.818005592096597, 1891504.515292468713596 ], [ 645040.259054502937943, 1891504.448388480115682 ], [ 645030.76966802671086, 1891494.441433794796467 ], [ 645030.76966802671086, 1891494.441433794796467 ], [ 645021.210712944623083, 1891494.374538940144703 ], [ 645011.721312942565419, 1891484.367594088427722 ], [ 645011.721312942565419, 1891484.367594088427722 ], [ 645002.231903704931028, 1891474.360654350370169 ], [ 645002.301453190040775, 1891464.42060041683726 ], [ 645002.301453190040775, 1891464.42060041683726 ], [ 644992.812029777676798, 1891454.413666182663292 ], [ 644992.881573964841664, 1891444.473612723406404 ], [ 644992.951117797056213, 1891434.533559347037226 ], [ 644993.020661274204031, 1891424.59350605471991 ], [ 644993.090204396634363, 1891414.653452844591811 ], [ 644993.159747163997963, 1891404.713399718515575 ], [ 644993.229289576411247, 1891394.773346674395725 ], [ 644993.229289576411247, 1891394.773346674395725 ], [ 644983.739827271085232, 1891384.766419902676716 ], [ 644983.739827271085232, 1891384.766419902676716 ], [ 644974.25035573169589, 1891374.759498243918642 ], [ 644974.25035573169589, 1891374.759498243918642 ], [ 644964.760874957195483, 1891364.752581697655842 ], [ 644964.760874957195483, 1891364.752581697655842 ], [ 644955.271384950261563, 1891354.745670263189822 ], [ 644955.271384950261563, 1891354.745670263189822 ], [ 644945.712368010892533, 1891354.678815026301891 ], [ 644936.222864479175769, 1891344.671913424506783 ], [ 644936.222864479175769, 1891344.671913424506783 ], [ 644926.663843544200063, 1891344.605067319935188 ], [ 644917.104822907131165, 1891344.53822562773712 ], [ 644907.545802566921338, 1891344.471388347446918 ], [ 644897.986782523337752, 1891344.404555478831753 ], [ 644888.42776277649682, 1891344.337727022590116 ], [ 644888.358272604644299, 1891354.277776256436482 ], [ 644878.799257742241025, 1891354.210951903369278 ], [ 644878.729771803598851, 1891364.151000912766904 ], [ 644869.17076182551682, 1891364.084180662408471 ], [ 644859.611752144061029, 1891364.017364825122058 ], [ 644850.052742757834494, 1891363.95055339904502 ], [ 644840.493733669514768, 1891363.883746385807171 ], [ 644830.934724877704866, 1891363.816943784011528 ], [ 644821.445174794178456, 1891353.810098435962573 ], [ 644821.445174794178456, 1891353.810098435962573 ], [ 644811.955615475424565, 1891343.803258198779076 ], [ 644812.025068590301089, 1891333.863211514893919 ], [ 644812.094521350576542, 1891323.92316491343081 ], [ 644812.163973756367341, 1891313.983118395553902 ], [ 644821.723004895495251, 1891314.049910632194951 ], [ 644821.792461534496397, 1891304.109863888472319 ], [ 644831.351497556315735, 1891304.176660228054971 ], [ 644840.910533874761313, 1891304.24346097977832 ], [ 644850.469570489716716, 1891304.310266142943874 ], [ 644860.028607402695343, 1891304.377075718250126 ], [ 644869.587644610786811, 1891304.443889705697075 ], [ 644869.657123833661899, 1891294.50384150352329 ], [ 644879.216165926074609, 1891294.570659594377503 ], [ 644879.28564938204363, 1891284.630611166590825 ], [ 644879.35513248341158, 1891274.690562821691856 ], [ 644888.91418404772412, 1891274.757384706987068 ], [ 644888.983671382069588, 1891264.817336137406528 ], [ 644898.542727830586955, 1891264.884162126341835 ], [ 644908.101784575730562, 1891264.950992526719347 ], [ 644908.171280730515718, 1891255.01094342302531 ], [ 644917.730342360096984, 1891255.077777926577255 ], [ 644927.289404286304489, 1891255.144616842968389 ], [ 644936.848466510651633, 1891255.211460170336068 ], [ 644946.407529030228034, 1891255.278307909145951 ], [ 644955.966591846663505, 1891255.345160060096532 ], [ 644955.966591846663505, 1891255.345160060096532 ], [ 644965.456131279468536, 1891265.352067577885464 ], [ 644975.01519010332413, 1891265.418928860453889 ], [ 644975.01519010332413, 1891265.418928860453889 ], [ 644984.504716011928394, 1891275.425846211146563 ], [ 644984.504716011928394, 1891275.425846211146563 ], [ 644993.994232687167823, 1891285.432768674334511 ], [ 644993.994232687167823, 1891285.432768674334511 ], [ 645003.483740127645433, 1891295.439696248620749 ], [ 645003.483740127645433, 1891295.439696248620749 ], [ 645012.97323833743576, 1891305.446628935867921 ], [ 645012.97323833743576, 1891305.446628935867921 ], [ 645022.462727312231436, 1891315.453566735610366 ], [ 645032.021764977485873, 1891315.520456033060327 ], [ 645032.021764977485873, 1891315.520456033060327 ], [ 645041.511240427847952, 1891325.527403665473685 ], [ 645041.511240427847952, 1891325.527403665473685 ], [ 645051.000706646125764, 1891335.534356410615146 ], [ 645060.559736026567407, 1891335.601259561721236 ], [ 645060.559736026567407, 1891335.601259561721236 ], [ 645070.049188718898222, 1891345.608222139533609 ], [ 645070.049188718898222, 1891345.608222139533609 ], [ 645079.538632177514955, 1891355.615189830306917 ], [ 645079.538632177514955, 1891355.615189830306917 ], [ 645089.028066403465346, 1891365.622162634273991 ], [ 645089.028066403465346, 1891365.622162634273991 ], [ 645098.517491394421086, 1891375.629140550969169 ], [ 645098.517491394421086, 1891375.629140550969169 ], [ 645108.00690715003293, 1891385.636123579926789 ], [ 645117.565915373503231, 1891385.703054747078568 ], [ 645117.565915373503231, 1891385.703054747078568 ], [ 645127.055317607009783, 1891395.710047610569745 ], [ 645127.055317607009783, 1891395.710047610569745 ], [ 645136.54471060517244, 1891405.717045586556196 ], [ 645136.54471060517244, 1891405.717045586556196 ], [ 645146.034094369388185, 1891415.724048676202074 ], [ 645146.034094369388185, 1891415.724048676202074 ], [ 645155.523468899307773, 1891425.731056879041716 ], [ 645155.523468899307773, 1891425.731056879041716 ], [ 645165.012834196444601, 1891435.738070194376633 ], [ 645165.012834196444601, 1891435.738070194376633 ], [ 645174.502190258004703, 1891445.745088623603806 ], [ 645174.502190258004703, 1891445.745088623603806 ], [ 645183.991537085268646, 1891455.752112165559083 ], [ 645183.991537085268646, 1891455.752112165559083 ], [ 645193.480874678236432, 1891465.759140820940956 ], [ 645193.480874678236432, 1891465.759140820940956 ], [ 645202.970203038188629, 1891475.766174590680748 ], [ 645202.970203038188629, 1891475.766174590680748 ], [ 645212.459522160934284, 1891485.773213472682983 ], [ 645212.459522160934284, 1891485.773213472682983 ], [ 645221.948832050547935, 1891495.780257468810305 ], [ 645221.948832050547935, 1891495.780257468810305 ], [ 645231.438132705632597, 1891505.787306578597054 ], [ 645231.438132705632597, 1891505.787306578597054 ], [ 645240.927424127468839, 1891515.79436080227606 ], [ 645250.486376867163926, 1891515.861357757588848 ], [ 645250.486376867163926, 1891515.861357757588848 ], [ 645259.975654762005433, 1891525.868421815568581 ], [ 645269.534603508189321, 1891525.93542790482752 ], [ 645269.534603508189321, 1891525.93542790482752 ], [ 645279.023867878946476, 1891535.942501799203455 ], [ 645279.023867878946476, 1891535.942501799203455 ], [ 645288.513123013544828, 1891545.949580807238817 ], [ 645288.513123013544828, 1891545.949580807238817 ], [ 645298.002368913264945, 1891555.956664928933606 ], [ 645298.002368913264945, 1891555.956664928933606 ], [ 645307.491605578223243, 1891565.963754165219143 ], [ 645307.491605578223243, 1891565.963754165219143 ], [ 645316.980833008186892, 1891575.970848515629768 ], [ 645316.980833008186892, 1891575.970848515629768 ], [ 645326.47005120315589, 1891585.977947980165482 ], [ 645326.47005120315589, 1891585.977947980165482 ], [ 645335.959260163013823, 1891595.985052558826283 ], [ 645335.959260163013823, 1891595.985052558826283 ], [ 645345.448459887993522, 1891605.992162251612172 ], [ 645345.448459887993522, 1891605.992162251612172 ], [ 645354.937650379026309, 1891615.999277058755979 ], [ 645364.49656080477871, 1891616.066330056171864 ], [ 645364.49656080477871, 1891616.066330056171864 ], [ 645373.985737768467516, 1891626.073454699711874 ], [ 645383.544644200941548, 1891626.140516832238063 ], [ 645383.544644200941548, 1891626.140516832238063 ], [ 645393.033807639963925, 1891636.147651312639937 ], [ 645393.033807639963925, 1891636.147651312639937 ], [ 645392.964063991326839, 1891646.087719331029803 ], [ 645402.453213248983957, 1891656.094859317643568 ], [ 645402.453213248983957, 1891656.094859317643568 ], [ 645411.942353271297179, 1891666.102004420477897 ], [ 645411.942353271297179, 1891666.102004420477897 ], [ 645421.431484056869522, 1891676.109154637437314 ], [ 645421.431484056869522, 1891676.109154637437314 ], [ 645430.92060560954269, 1891686.11630996898748 ], [ 645430.92060560954269, 1891686.11630996898748 ], [ 645430.850841826759279, 1891696.056379640707746 ], [ 645440.339949197717942, 1891706.063540479633957 ], [ 645440.339949197717942, 1891706.063540479633957 ], [ 645449.829047333216295, 1891716.070706433849409 ], [ 645459.387914849910885, 1891716.13780665397644 ], [ 645459.387914849910885, 1891716.13780665397644 ], [ 645468.876999459927902, 1891726.144982445053756 ], [ 645478.435862983576953, 1891726.212091799126938 ], [ 645487.994726804899983, 1891726.279205566737801 ], [ 645497.553590924013406, 1891726.346323746722192 ] ] } },
{ "type": "Feature", "properties": { "year": 2016, "month": null }, "geometry": { "type": "LineString", "coordinates": [ [ 645249.092898231232539, 1891714.662621166091412 ], [ 645258.582077245111577, 1891724.669693069299683 ], [ 645258.582077245111577, 1891724.669693069299683 ], [ 645258.512394635588862, 1891734.609757503960282 ], [ 645258.442711670417339, 1891744.549822021275759 ], [ 645258.373028349597007, 1891754.489886621944606 ], [ 645258.303344673244283, 1891764.429951304802671 ], [ 645248.744506349321455, 1891764.362942206906155 ], [ 645248.674826906062663, 1891774.303006664384156 ], [ 645248.605147107504308, 1891784.243071205215529 ], [ 645239.046318258391693, 1891784.17606590106152 ], [ 645238.976642693043686, 1891794.116130214883015 ], [ 645229.417818728834391, 1891794.049129015300423 ], [ 645219.858995063346811, 1891793.982132227858528 ], [ 645210.300171694951132, 1891793.915139853255823 ], [ 645200.741348625393584, 1891793.848151891725138 ], [ 645191.252178471302614, 1891783.84110557497479 ], [ 645191.252178471302614, 1891783.84110557497479 ], [ 645181.762999082566239, 1891773.834064371883869 ], [ 645181.832646403927356, 1891763.894002077868208 ], [ 645181.902293369988911, 1891753.95393986813724 ], [ 645181.971939980518073, 1891744.01387774059549 ], [ 645191.530785401118919, 1891744.080855330917984 ], [ 645191.600436245091259, 1891734.14079297776334 ], [ 645201.159286553040147, 1891734.20777467219159 ], [ 645201.228941630222835, 1891724.267712092027068 ], [ 645210.787796821445227, 1891724.334697889862582 ], [ 645210.857456131838262, 1891714.394635084550828 ], [ 645220.41631621052511, 1891714.461624985793605 ], [ 645229.97517658630386, 1891714.528619299875572 ], [ 645239.534037260804325, 1891714.595618026796728 ], [ 645249.092898231232539, 1891714.662621166091412 ], [ 645249.092898231232539, 1891714.662621166091412 ] ] } }
]
}
