{
"type": "FeatureCollection",
"name": "shoreline_2025",
"crs": { "type": "name", "properties": { "name": "urn:ogc:def:crs:EPSG::32644" } },
"features": [
{ "type": "Feature", "properties": { "year": 2025, "month": null }, "geometry": { "type": "LineString", "coordinates": [ [ 643589.032501677866094, 1889864.103789892280474 ], [ 643598.592159691965207, 1889864.169968673028052 ], [ 643598.592159691965207, 1889864.169968673028052 ], [ 643608.082999201724306, 1889874.176147342892364 ], [ 643617.642653218470514, 1889874.242335246643052 ], [ 643627.202307529281825, 1889874.3085275599733 ], [ 643636.761962135555223, 1889874.374724281718954 ], [ 643646.321617033449002, 1889874.440925412345678 ], [ 643655.881272226688452, 1889874.507130951853469 ], [ 643655.881272226688452, 1889874.507130951853469 ], [ 643665.372081060078926, 1889884.513338298071176 ], [ 643665.372081060078926, 1889884.513338298071176 ], [ 643665.303234054124914, 1889894.45333577785641 ], [ 643665.234386696480215, 1889904.393333341926336 ], [ 643665.165538987261243, 1889914.333330989349633 ], [ 643665.096690926235169, 1889924.273328718263656 ], [ 643674.587470790720545, 1889934.279542724136263 ], [ 643674.587470790720545, 1889934.279542724136263 ], [ 643684.078241427545436, 1889944.285761833423749 ], [ 643693.637865707394667, 1889944.351987150730565 ], [ 643703.197490281541832, 1889944.418216876219958 ], [ 643703.197490281541832, 1889944.418216876219958 ], [ 643712.688243113108911, 1889954.424450519727543 ], [ 643712.688243113108911, 1889954.424450519727543 ], [ 643712.61937072314322, 1889964.364450112218037 ], [ 643712.550497981254011, 1889974.304449786664918 ], [ 643712.4816248875577, 1889984.244449544930831 ], [ 643712.412751442170702, 1889994.184449385851622 ], [ 643712.343877644976601, 1890004.124449309660122 ], [ 643712.275003495858982, 1890014.064449316821992 ], [ 643721.765717481728643, 1890024.070690399501473 ], [ 643721.765717481728643, 1890024.070690399501473 ], [ 643731.256422240636311, 1890034.076936585828662 ], [ 643740.816006731241941, 1890034.143186702160165 ], [ 643750.375591514981352, 1890034.209441228071228 ], [ 643759.935176595696248, 1890034.275700163096189 ], [ 643769.494761969428509, 1890034.341963506769389 ], [ 643779.054347637691535, 1890034.408231260254979 ], [ 643788.613933601649478, 1890034.474503422621638 ], [ 643798.173519858741201, 1890034.540779993636534 ], [ 643807.733106410363689, 1890034.607060974929482 ], [ 643817.292693256400526, 1890034.673346364405006 ], [ 643826.85228039836511, 1890034.739636163692921 ], [ 643826.85228039836511, 1890034.739636163692921 ], [ 643836.34293302858714, 1890044.745934608625248 ], [ 643836.34293302858714, 1890044.745934608625248 ], [ 643845.833576431963593, 1890054.752238157903776 ], [ 643845.833576431963593, 1890054.752238157903776 ], [ 643855.324210606981069, 1890064.758546812459826 ], [ 643855.324210606981069, 1890064.758546812459826 ], [ 643864.814835556433536, 1890074.764860571827739 ], [ 643864.814835556433536, 1890074.764860571827739 ], [ 643874.305451280088164, 1890084.771179435541853 ], [ 643874.305451280088164, 1890084.771179435541853 ], [ 643883.796057775383815, 1890094.777503405697644 ], [ 643883.796057775383815, 1890094.777503405697644 ], [ 643893.286655043484643, 1890104.783832480199635 ], [ 643893.286655043484643, 1890104.783832480199635 ], [ 643902.777243085787632, 1890114.79016665997915 ], [ 643902.777243085787632, 1890114.79016665997915 ], [ 643912.267821899498813, 1890124.796505945269018 ], [ 643912.267821899498813, 1890124.796505945269018 ], [ 643921.75839148578234, 1890134.80285033560358 ], [ 643921.75839148578234, 1890134.80285033560358 ], [ 643931.248951844871044, 1890144.809199830982834 ], [ 643931.248951844871044, 1890144.809199830982834 ], [ 643940.739502977696247, 1890154.815554432338104 ], [ 643940.739502977696247, 1890154.815554432338104 ], [ 643950.230044881813228, 1890164.821914138738066 ], [ 643959.78957654396072, 1890164.888269651681185 ], [ 643969.349108502268791, 1890164.954629573971033 ], [ 643969.349108502268791, 1890164.954629573971033 ], [ 643978.839632598450407, 1890174.961003818316385 ], [ 643978.839632598450407, 1890174.961003818316385 ], [ 643978.770624089287594, 1890184.901013813680038 ], [ 643988.26113402179908, 1890194.90739355282858 ], [ 643988.26113402179908, 1890194.90739355282858 ], [ 643997.751634725369513, 1890204.913778398418799 ], [ 643997.751634725369513, 1890204.913778398418799 ], [ 644007.242126201163046, 1890214.920168349985033 ], [ 644016.80163670994807, 1890214.986551852663979 ], [ 644016.80163670994807, 1890214.986551852663979 ], [ 644026.292114667827263, 1890224.992951625958085 ], [ 644026.292114667827263, 1890224.992951625958085 ], [ 644026.223081470699981, 1890234.932963569881395 ], [ 644035.713545262929983, 1890244.939368838910013 ], [ 644035.713545262929983, 1890244.939368838910013 ], [ 644045.203999827266671, 1890254.945779213914648 ], [ 644045.203999827266671, 1890254.945779213914648 ], [ 644054.694445164874196, 1890264.952194695128128 ], [ 644064.253934220178053, 1890265.018601779360324 ], [ 644064.253934220178053, 1890265.018601779360324 ], [ 644073.744366038241424, 1890275.025027083931491 ], [ 644073.744366038241424, 1890275.025027083931491 ], [ 644083.234788628178649, 1890285.031457494013011 ], [ 644083.234788628178649, 1890285.031457494013011 ], [ 644092.725201989989728, 1890295.037893010303378 ], [ 644092.725201989989728, 1890295.037893010303378 ], [ 644102.215606124838814, 1890305.044333633501083 ], [ 644102.215606124838814, 1890305.044333633501083 ], [ 644111.706001030164771, 1890315.050779363140464 ], [ 644111.706001030164771, 1890315.050779363140464 ], [ 644121.196386707248166, 1890325.057230199221522 ], [ 644121.196386707248166, 1890325.057230199221522 ], [ 644130.686763157136738, 1890335.063686141278595 ], [ 644130.686763157136738, 1890335.063686141278595 ], [ 644140.17713037726935, 1890345.070147190941498 ], [ 644149.73658540728502, 1890345.136596417985857 ], [ 644159.29604073241353, 1890345.203050054609776 ], [ 644168.855496351374313, 1890345.269508101046085 ], [ 644178.41495226835832, 1890345.335970557527617 ], [ 644187.974408479174599, 1890345.402437423821539 ], [ 644197.533864985220134, 1890345.468908699695021 ], [ 644207.093321786494926, 1890345.535384385380894 ], [ 644207.162445984315127, 1890335.595365696819499 ], [ 644216.721907667582855, 1890335.661845485214144 ], [ 644216.791036097682081, 1890325.721826573600993 ], [ 644226.350502660498023, 1890325.78831046493724 ], [ 644235.909969518426806, 1890325.854798766085878 ], [ 644235.979106766171753, 1890315.914779322454706 ], [ 644245.538578506326303, 1890315.981271726312116 ], [ 644255.098050540545955, 1890316.047768540214747 ], [ 644255.167196605820209, 1890306.107748565729707 ], [ 644264.726673520635813, 1890306.174249481409788 ], [ 644264.795823818072677, 1890296.2342292831745 ], [ 644264.864973762305453, 1890286.294209168059751 ], [ 644264.934123353450559, 1890276.35418913513422 ], [ 644274.49361431831494, 1890276.420693539781496 ], [ 644274.562768141389824, 1890266.480673282640055 ], [ 644284.122263988247141, 1890266.547181789297611 ], [ 644284.191422043484636, 1890256.60716130817309 ], [ 644293.750922772334889, 1890256.673673917772248 ], [ 644303.310423795250244, 1890256.740190936718136 ], [ 644312.869925113744102, 1890256.806712365476415 ], [ 644322.429426727700047, 1890256.873238204047084 ], [ 644331.988928638631478, 1890256.939768451964483 ], [ 644331.988928638631478, 1890256.939768451964483 ], [ 644341.479245277238078, 1890266.94632543483749 ], [ 644341.479245277238078, 1890266.94632543483749 ], [ 644341.410059357411228, 1890276.886347842402756 ], [ 644341.340873084263876, 1890286.826370333554223 ], [ 644341.271686457796022, 1890296.766392906662077 ], [ 644341.202499477891251, 1890306.706415563588962 ], [ 644341.133312144665979, 1890316.646438303636387 ], [ 644331.57383745117113, 1890316.579901801655069 ], [ 644331.504654349992052, 1890326.519924317486584 ], [ 644321.945184536045417, 1890326.453391918679699 ], [ 644321.876005666912533, 1890336.39341420866549 ], [ 644312.316540735308081, 1890336.326885912334546 ], [ 644312.247366098221391, 1890346.266907979967073 ], [ 644302.687906047445722, 1890346.200383785413578 ], [ 644302.618735642638057, 1890356.140405628131703 ], [ 644293.059280472807586, 1890356.07388553628698 ], [ 644292.990114300162531, 1890366.013907155487686 ], [ 644283.430664009880275, 1890365.947391166118905 ], [ 644283.361502069397829, 1890375.88741256063804 ], [ 644273.802056661457755, 1890375.820900674676523 ], [ 644273.732898953254335, 1890385.760921844048426 ], [ 644264.173458427540027, 1890385.69441406102851 ], [ 644264.104304951732047, 1890395.634435007115826 ], [ 644254.544869305565953, 1890395.567931326571852 ], [ 644254.475720062153414, 1890405.507952048676088 ], [ 644244.916289297048934, 1890405.441452470608056 ], [ 644244.847144285915419, 1890415.381472968030721 ], [ 644235.287718400359154, 1890415.314977492904291 ], [ 644235.218577621737495, 1890425.254997767740861 ], [ 644225.659156618523411, 1890425.188506394857541 ], [ 644225.590020072413608, 1890435.128526444314048 ], [ 644216.030603950028308, 1890435.062039175070822 ], [ 644215.961471636546776, 1890445.002059001242742 ], [ 644206.402060393709689, 1890444.935575834941119 ], [ 644206.332932312856428, 1890454.875595436664298 ], [ 644196.773525952361524, 1890454.809116373304278 ], [ 644196.704402104136534, 1890464.749135751277208 ], [ 644187.145000624586828, 1890464.68266079085879 ], [ 644187.075881009106524, 1890474.622679944615811 ], [ 644177.516484410502017, 1890474.556209087371826 ], [ 644177.447369027766399, 1890484.496228016912937 ], [ 644167.887977308710106, 1890484.429761263309047 ], [ 644167.818866158719175, 1890494.369779969099909 ], [ 644158.259479323402047, 1890494.30331731820479 ], [ 644158.190372406272218, 1890504.243335800012574 ], [ 644148.630990450503305, 1890504.176877252757549 ], [ 644148.561887766234577, 1890514.116895510582253 ], [ 644139.002510691410862, 1890514.050441066501662 ], [ 644138.933412240119651, 1890523.990459100808948 ], [ 644129.374040046241134, 1890523.924008759437129 ], [ 644129.30494582792744, 1890533.864026569761336 ], [ 644119.745578513713554, 1890533.797580332029611 ], [ 644110.186211495893076, 1890533.731138504575938 ], [ 644110.117126096505672, 1890543.671155785210431 ], [ 644100.557763959630392, 1890543.604718060931191 ], [ 644100.488682793220505, 1890553.544735116651282 ], [ 644090.929325536009856, 1890553.478301495546475 ], [ 644090.860248602810316, 1890563.418318327749148 ], [ 644081.300896227825433, 1890563.351888810750097 ], [ 644071.741544147953391, 1890563.285463703796268 ], [ 644062.182192362961359, 1890563.219043006887659 ], [ 644052.622840874362737, 1890563.152626720955595 ], [ 644043.063489678082988, 1890563.086214844603091 ], [ 644033.504138778080232, 1890563.01980737852864 ], [ 644023.944788172957487, 1890562.953404323430732 ], [ 644014.385437862831168, 1890562.887005678378046 ], [ 644004.826087846187875, 1890562.820611442672089 ], [ 643995.266738125821576, 1890562.754221618408337 ], [ 643985.707388700218871, 1890562.687836203724146 ], [ 643976.148039568099193, 1890562.621455199550837 ], [ 643976.079017313197255, 1890572.561468434985727 ], [ 643966.519673063186929, 1890572.495091534685344 ], [ 643966.450655041728169, 1890582.435104546602815 ], [ 643956.89131567243021, 1890582.368731749244034 ], [ 643956.822301884414628, 1890592.308744537644088 ], [ 643956.753287744242698, 1890602.248757409164682 ], [ 643956.684273251448758, 1890612.188770363805816 ], [ 643956.615258406265639, 1890622.12878340180032 ], [ 643956.54624320869334, 1890632.06879652175121 ], [ 643956.477227658848278, 1890642.008809725753963 ], [ 643946.91791610175278, 1890641.942439500475302 ], [ 643946.848904785467312, 1890651.882452480960637 ], [ 643937.289598107920028, 1890651.816086359322071 ], [ 643927.730291723739356, 1890651.749724648427218 ], [ 643927.661289227311499, 1890661.689737098757178 ], [ 643918.101987725356594, 1890661.62337949196808 ], [ 643918.032989462721162, 1890671.563391719246283 ], [ 643908.473692841595039, 1890671.497038216795772 ], [ 643908.404698812868446, 1890681.437050220090896 ], [ 643908.33570443186909, 1890691.377062307205051 ], [ 643908.266709698480554, 1890701.317074476974085 ], [ 643908.19771461293567, 1890711.257086729863659 ], [ 643917.687992865219712, 1890721.263454100582749 ], [ 643917.687992865219712, 1890721.263454100582749 ], [ 643917.618992488831282, 1890731.203466826817021 ], [ 643927.10925657232292, 1890741.209839693503454 ], [ 643927.10925657232292, 1890741.209839693503454 ], [ 643927.040250904974528, 1890751.149852891685441 ], [ 643936.530500820837915, 1890761.156231255270541 ], [ 643936.530500820837915, 1890761.156231255270541 ], [ 643936.461489862413146, 1890771.096244925865903 ], [ 643936.392478551715612, 1890781.036258679581806 ], [ 643936.3234668886289, 1890790.976272516651079 ], [ 643936.254454873153009, 1890800.9162864361424 ], [ 643936.185442505404353, 1890810.856300439918414 ], [ 643936.116429785266519, 1890820.796314525883645 ], [ 643936.04741671262309, 1890830.736328695435077 ], [ 643935.978403287823312, 1890840.676342947641388 ], [ 643945.468604461289942, 1890850.682729534106329 ], [ 643945.468604461289942, 1890850.682729534106329 ], [ 643954.958796402672306, 1890860.689121227245778 ], [ 643964.518007356440648, 1890860.755502606742084 ], [ 643964.518007356440648, 1890860.755502606742084 ], [ 643974.008185776416212, 1890870.761904124170542 ], [ 643983.567392734345049, 1890870.828294631559402 ], [ 643993.126599985873327, 1890870.894689549924806 ], [ 644002.685807532048784, 1890870.961088878568262 ], [ 644012.245015374617651, 1890871.027492618886754 ], [ 644021.804223510553129, 1890871.093900769716129 ], [ 644031.363431941368617, 1890871.160313331987709 ], [ 644031.432492289459333, 1890861.220295764040202 ], [ 644040.991705601802096, 1890861.286712430650368 ], [ 644041.060770183801651, 1890851.346694639883935 ], [ 644050.619988379068673, 1890851.413115409668535 ], [ 644050.689057195093483, 1890841.473097395384684 ], [ 644060.248280269210227, 1890841.539522269973531 ], [ 644069.807503639603965, 1890841.605951555538923 ], [ 644079.366727304994129, 1890841.672385251615196 ], [ 644088.925951265380718, 1890841.738823358668014 ], [ 644098.485175522160716, 1890841.805265876697376 ], [ 644098.485175522160716, 1890841.805265876697376 ], [ 644107.97530373709742, 1890851.811732660513371 ], [ 644117.534523996058851, 1890851.878184306900948 ], [ 644117.534523996058851, 1890851.878184306900948 ], [ 644127.024638690054417, 1890861.884660915937275 ], [ 644136.583854952594265, 1890861.951121690915897 ], [ 644146.143071510246955, 1890862.017586876871064 ], [ 644155.702288363012485, 1890862.084056473802775 ], [ 644155.702288363012485, 1890862.084056473802775 ], [ 644165.192380948923528, 1890872.090552343754098 ], [ 644165.192380948923528, 1890872.090552343754098 ], [ 644165.123256035149097, 1890882.030574288917705 ], [ 644165.054130768519826, 1890891.970596318133175 ], [ 644174.544204246951267, 1890901.977098076371476 ], [ 644174.544204246951267, 1890901.977098076371476 ], [ 644174.475073687848635, 1890911.917120577767491 ], [ 644174.405942775774747, 1890921.857143162284046 ], [ 644174.336811510729603, 1890931.797165830619633 ], [ 644174.267679892829619, 1890941.737188581144437 ], [ 644174.198547921841964, 1890951.677211415721104 ], [ 644174.129415598115884, 1890961.617234332021326 ], [ 644183.619450205471367, 1890971.623743538046256 ], [ 644183.619450205471367, 1890971.623743538046256 ], [ 644183.550312588922679, 1890981.563766928622499 ], [ 644193.040333024924621, 1890991.57028163340874 ], [ 644193.040333024924621, 1890991.57028163340874 ], [ 644202.530344229307957, 1891001.576801445800811 ], [ 644202.530344229307957, 1891001.576801445800811 ], [ 644212.020346203469671, 1891011.583326367661357 ], [ 644212.020346203469671, 1891011.583326367661357 ], [ 644221.510338944615796, 1891021.589856395963579 ], [ 644231.069484770298004, 1891021.656366193667054 ], [ 644231.069484770298004, 1891021.656366193667054 ], [ 644240.559463989222422, 1891031.662906049983576 ], [ 644240.559463989222422, 1891031.662906049983576 ], [ 644250.049433975014836, 1891041.669451014371589 ], [ 644259.608571512741037, 1891041.735974659211934 ], [ 644269.167709344415925, 1891041.802502715727314 ], [ 644278.72684747283347, 1891041.8690351836849 ], [ 644288.285985897993669, 1891041.935572062851861 ], [ 644297.845124617218971, 1891042.002113352529705 ], [ 644297.914319395902567, 1891032.062085779150948 ], [ 644307.473462997702882, 1891032.1286311740987 ], [ 644317.032606894848868, 1891032.195180979091674 ], [ 644326.591751088853925, 1891032.261735195992514 ], [ 644336.150895577040501, 1891032.328293824568391 ], [ 644336.150895577040501, 1891032.328293824568391 ], [ 644345.640822646790184, 1891042.334885972784832 ], [ 644345.640822646790184, 1891042.334885972784832 ], [ 644345.571604579454288, 1891052.274915166664869 ], [ 644345.50238615879789, 1891062.214944442501292 ], [ 644345.433167384937406, 1891072.154973801691085 ], [ 644354.923070402699523, 1891082.161572231678292 ], [ 644354.923070402699523, 1891082.161572231678292 ], [ 644364.412964187096804, 1891092.168175770202652 ], [ 644364.412964187096804, 1891092.168175770202652 ], [ 644373.902848738012835, 1891102.174784417729825 ], [ 644373.902848738012835, 1891102.174784417729825 ], [ 644383.392724057892337, 1891112.181398174958304 ], [ 644392.951833622530103, 1891112.247985729947686 ], [ 644402.510943484026939, 1891112.314577696146443 ], [ 644412.070053639938124, 1891112.381174074020237 ], [ 644412.070053639938124, 1891112.381174074020237 ], [ 644421.559906852897257, 1891122.387807097518817 ], [ 644431.11901301285252, 1891122.454412605380639 ], [ 644440.678119469899684, 1891122.521022525150329 ], [ 644450.237226221361198, 1891122.587636855896562 ], [ 644459.796333268517628, 1891122.654255598783493 ], [ 644469.355440612882376, 1891122.720878752414137 ], [ 644469.355440612882376, 1891122.720878752414137 ], [ 644478.845263134571724, 1891132.727540479507297 ], [ 644478.845263134571724, 1891132.727540479507297 ], [ 644488.335076425108127, 1891142.734207316767424 ], [ 644488.335076425108127, 1891142.734207316767424 ], [ 644497.824880483327433, 1891152.740879263496026 ], [ 644497.824880483327433, 1891152.740879263496026 ], [ 644507.314675308996812, 1891162.747556320391595 ], [ 644507.314675308996812, 1891162.747556320391595 ], [ 644516.80446090339683, 1891172.754238487454131 ], [ 644516.80446090339683, 1891172.754238487454131 ], [ 644526.294237263733521, 1891182.760925763519481 ], [ 644526.294237263733521, 1891182.760925763519481 ], [ 644535.784004391520284, 1891192.767618150217459 ], [ 644535.784004391520284, 1891192.767618150217459 ], [ 644545.273762286524288, 1891202.774315647082403 ], [ 644545.273762286524288, 1891202.774315647082403 ], [ 644554.763510950142518, 1891212.781018254347146 ], [ 644554.763510950142518, 1891212.781018254347146 ], [ 644564.253250379464589, 1891222.787725971313193 ], [ 644564.253250379464589, 1891222.787725971313193 ], [ 644573.742980575887486, 1891232.794438799377531 ], [ 644573.742980575887486, 1891232.794438799377531 ], [ 644573.673645694507286, 1891242.734476951183751 ], [ 644573.604310459224507, 1891252.674515187274665 ], [ 644583.094021538388915, 1891262.681233906187117 ], [ 644583.094021538388915, 1891262.681233906187117 ], [ 644592.583723387215286, 1891272.687957736197859 ], [ 644602.142766061471775, 1891272.754647268215194 ], [ 644602.142766061471775, 1891272.754647268215194 ], [ 644611.632454384234734, 1891282.761380928335711 ], [ 644611.632454384234734, 1891282.761380928335711 ], [ 644611.563099382678047, 1891292.701420727651566 ], [ 644611.493744027102366, 1891302.641460610087961 ], [ 644611.424388317507692, 1891312.581500575412065 ], [ 644620.914052581880242, 1891322.58824051823467 ], [ 644620.914052581880242, 1891322.58824051823467 ], [ 644620.844691576668993, 1891332.528280958067626 ], [ 644630.33434166724328, 1891342.535026402911171 ], [ 644630.33434166724328, 1891342.535026402911171 ], [ 644639.823982522939332, 1891352.541776958853006 ], [ 644639.823982522939332, 1891352.541776958853006 ], [ 644649.313614145154133, 1891362.548532626125962 ], [ 644649.313614145154133, 1891362.548532626125962 ], [ 644658.803236533771269, 1891372.555293403333053 ], [ 644658.803236533771269, 1891372.555293403333053 ], [ 644668.292849689954892, 1891382.562059292104095 ], [ 644668.292849689954892, 1891382.562059292104095 ], [ 644668.223463620990515, 1891392.502101768972352 ], [ 644668.154077198007144, 1891402.442144329892471 ], [ 644677.643671235069633, 1891412.448916111374274 ], [ 644677.643671235069633, 1891412.448916111374274 ], [ 644687.13325603690464, 1891422.455693004885688 ], [ 644696.692232855595648, 1891422.522431275108829 ], [ 644696.692232855595648, 1891422.522431275108829 ], [ 644706.181804134510458, 1891432.529217998962849 ], [ 644706.181804134510458, 1891432.529217998962849 ], [ 644715.671366178081371, 1891442.53600983438082 ], [ 644725.230334709631279, 1891442.602761957794428 ], [ 644725.230334709631279, 1891442.602761957794428 ], [ 644734.719883227371611, 1891452.609563624719158 ], [ 644744.278847764711827, 1891452.676324879750609 ], [ 644744.278847764711827, 1891452.676324879750609 ], [ 644753.768382756737992, 1891462.68313637864776 ], [ 644763.327343297423795, 1891462.749906766461208 ], [ 644772.886304134503007, 1891462.816681566182524 ], [ 644782.445265269372612, 1891462.883460778510198 ], [ 644782.445265269372612, 1891462.883460778510198 ], [ 644791.934778150753118, 1891472.890291550196707 ], [ 644791.934778150753118, 1891472.890291550196707 ], [ 644791.865329249296337, 1891482.830338780069724 ], [ 644801.35482795513235, 1891492.837175054941326 ], [ 644801.35482795513235, 1891492.837175054941326 ], [ 644810.844317426788621, 1891502.844016441842541 ], [ 644810.844317426788621, 1891502.844016441842541 ], [ 644820.333797665545717, 1891512.850862939609215 ], [ 644829.892737340414897, 1891512.917665753979236 ], [ 644839.451677312026732, 1891512.984472980955616 ], [ 644849.010617580031976, 1891513.051284619839862 ], [ 644849.010617580031976, 1891513.051284619839862 ], [ 644858.500075709307566, 1891523.058150391792879 ], [ 644868.059011982288212, 1891523.124971163924783 ], [ 644868.059011982288212, 1891523.124971163924783 ], [ 644877.54845658398699, 1891533.131846769247204 ], [ 644877.54845658398699, 1891533.131846769247204 ], [ 644887.037891951040365, 1891543.138727485900745 ], [ 644896.596819937345572, 1891543.205562111921608 ], [ 644896.596819937345572, 1891543.205562111921608 ], [ 644906.086241778219119, 1891553.212452662177384 ], [ 644906.086241778219119, 1891553.212452662177384 ], [ 644915.575654384563677, 1891563.219348324928433 ], [ 644925.134574084193446, 1891563.286196804838255 ], [ 644925.134574084193446, 1891563.286196804838255 ], [ 644934.623973165405914, 1891573.293102300493047 ], [ 644934.623973165405914, 1891573.293102300493047 ], [ 644944.113363010575995, 1891583.300012909574434 ], [ 644944.113363010575995, 1891583.300012909574434 ], [ 644953.602743620984256, 1891593.306928630685434 ], [ 644963.161650742404163, 1891593.373795685591176 ], [ 644972.720558161963709, 1891593.440667153568938 ], [ 644972.720558161963709, 1891593.440667153568938 ], [ 644982.209920954192057, 1891603.447597429389134 ], [ 644991.768824377679266, 1891603.514478030847386 ], [ 645001.327728096628562, 1891603.581363044446334 ], [ 645001.327728096628562, 1891603.581363044446334 ], [ 645010.817073072073981, 1891613.588307875441387 ], [ 645010.817073072073981, 1891613.588307875441387 ], [ 645020.306408811127767, 1891623.595257819863036 ], [ 645029.865304245147854, 1891623.662156688049436 ], [ 645039.424199976027012, 1891623.729059969075024 ], [ 645048.983096005162224, 1891623.795967663172632 ], [ 645058.541992329992354, 1891623.862879769178107 ], [ 645058.541992329992354, 1891623.862879769178107 ], [ 645068.031301667797379, 1891633.869853711454198 ], [ 645068.031301667797379, 1891633.869853711454198 ], [ 645067.961714028846473, 1891643.809911218238994 ], [ 645067.892126034712419, 1891653.749968807445839 ], [ 645067.822537685511634, 1891663.690026480704546 ], [ 645067.752948981127702, 1891673.630084236618131 ], [ 645077.24222930916585, 1891683.637064859038219 ], [ 645077.24222930916585, 1891683.637064859038219 ], [ 645077.172635305789299, 1891693.577123090159148 ], [ 645077.103040947462432, 1891703.517181403469294 ], [ 645086.592302153818309, 1891713.524167923955247 ], [ 645086.592302153818309, 1891713.524167923955247 ], [ 645086.522702496498823, 1891723.464226712007076 ], [ 645086.453102483879775, 1891733.404285584343597 ], [ 645086.383502116193995, 1891743.344344538869336 ], [ 645086.313901393208653, 1891753.284403576748446 ], [ 645086.244300315272994, 1891763.224462696583942 ], [ 645086.174698882037774, 1891773.164521901169792 ], [ 645086.105097093619406, 1891783.10458118817769 ], [ 645086.035494950134307, 1891793.044640557840466 ], [ 645095.524707367876545, 1891803.051635326584801 ], [ 645095.524707367876545, 1891803.051635326584801 ], [ 645105.01391054817941, 1891813.058635209919885 ], [ 645105.01391054817941, 1891813.058635209919885 ], [ 645114.503104493953288, 1891823.065640205750242 ], [ 645114.503104493953288, 1891823.065640205750242 ], [ 645114.433487162925303, 1891833.00570083479397 ], [ 645123.922666929895058, 1891843.012711336603388 ], [ 645123.922666929895058, 1891843.012711336603388 ], [ 645123.853044299175963, 1891852.952772440155968 ], [ 645123.783421313390136, 1891862.89283362752758 ], [ 645123.713797972304747, 1891872.832894896622747 ], [ 645123.644174275919795, 1891882.772956250002608 ], [ 645123.574550224235281, 1891892.713017686270177 ], [ 645123.504925817484036, 1891902.653079205192626 ], [ 645113.946155898622237, 1891902.586127561284229 ], [ 645113.876535725547001, 1891912.526188854826614 ], [ 645104.317770694266073, 1891912.459241315023974 ], [ 645104.248154755216092, 1891922.399302382487804 ], [ 645094.689394611399621, 1891922.332358947023749 ], [ 645094.619782906374894, 1891932.272419787943363 ], [ 645085.061027647461742, 1891932.205480457050726 ], [ 645084.991420176345855, 1891942.145541072590277 ], [ 645075.432669802336022, 1891942.078605846269056 ], [ 645075.36306656524539, 1891952.018666235264391 ], [ 645075.293462973088026, 1891961.958726708777249 ], [ 645065.734722075867467, 1891961.89179527759552 ], [ 645065.665122717851773, 1891971.831855524796993 ], [ 645056.106386706815101, 1891971.76492819795385 ], [ 645056.036791583057493, 1891981.704988219076768 ], [ 645046.478060458321124, 1891981.638064997270703 ], [ 645046.408469568588771, 1891991.578124792547897 ], [ 645036.849743328755721, 1891991.511205674614757 ], [ 645036.780156673397869, 1892001.451265244744718 ], [ 645027.221435321029276, 1892001.384350231615826 ], [ 645027.151852900045924, 1892011.324409575900063 ], [ 645017.593136433977634, 1892011.257498666876927 ], [ 645017.523558247368783, 1892021.1975577857811 ], [ 645007.96484666748438, 1892021.130650981096551 ], [ 645007.89527271525003, 1892031.070709874620661 ], [ 645007.825698408065364, 1892041.010768850333989 ], [ 645007.756123745813966, 1892050.950827909633517 ], [ 645007.686548728612252, 1892060.890887051820755 ], [ 645007.616973356460221, 1892070.830946277594194 ], [ 645017.106081672245637, 1892080.83791424240917 ], [ 645017.106081672245637, 1892080.83791424240917 ], [ 645017.036501000635326, 1892090.777973941760138 ], [ 645016.966919973958284, 1892100.718033725628629 ], [ 645016.897338592330925, 1892110.658093591453508 ], [ 645016.827756855636835, 1892120.598153540398926 ], [ 645016.758174763992429, 1892130.538213572697714 ], [ 645016.688592317281291, 1892140.478273688815534 ], [ 645026.177661727997474, 1892150.485249117482454 ], [ 645026.177661727997474, 1892150.485249117482454 ], [ 645026.108073981711641, 1892160.425309707876295 ], [ 645035.597129210131243, 1892170.432290642987937 ], [ 645035.597129210131243, 1892170.432290642987937 ], [ 645045.086175202159211, 1892180.439276691991836 ], [ 645045.086175202159211, 1892180.439276691991836 ], [ 645054.575211955234408, 1892190.446267855120823 ], [ 645054.575211955234408, 1892190.446267855120823 ], [ 645054.505609019310214, 1892200.386329704429954 ], [ 645054.436005728319287, 1892210.326391635462642 ], [ 645063.925023353658617, 1892220.333388697123155 ], [ 645063.925023353658617, 1892220.333388697123155 ], [ 645073.414031741209328, 1892230.340390872443095 ], [ 645082.972649018047377, 1892230.407335054595023 ], [ 645082.972649018047377, 1892230.407335054595023 ], [ 645092.461643874528818, 1892240.41434706794098 ], [ 645092.461643874528818, 1892240.41434706794098 ], [ 645101.950629491708241, 1892250.421364195412025 ], [ 645101.950629491708241, 1892250.421364195412025 ], [ 645101.881001475383528, 1892260.361428086645901 ], [ 645111.369972910732031, 1892270.368450720096007 ], [ 645111.369972910732031, 1892270.368450720096007 ], [ 645120.858935109106824, 1892280.375478468369693 ], [ 645120.858935109106824, 1892280.375478468369693 ], [ 645130.347888067830354, 1892290.38251133216545 ], [ 645130.347888067830354, 1892290.38251133216545 ], [ 645139.836831788299605, 1892300.389549309853464 ], [ 645139.836831788299605, 1892300.389549309853464 ], [ 645149.325766270514578, 1892310.396592402597889 ], [ 645149.325766270514578, 1892310.396592402597889 ], [ 645158.814691515639424, 1892320.403640611097217 ], [ 645158.814691515639424, 1892320.403640611097217 ], [ 645168.303607520880178, 1892330.41069393325597 ], [ 645168.303607520880178, 1892330.41069393325597 ], [ 645177.792514287633821, 1892340.417752370936796 ], [ 645177.792514287633821, 1892340.417752370936796 ], [ 645177.72284635307733, 1892350.35781948082149 ], [ 645187.211738935788162, 1892360.364883426111192 ], [ 645187.211738935788162, 1892360.364883426111192 ], [ 645196.700622281059623, 1892370.371952486224473 ], [ 645196.700622281059623, 1892370.371952486224473 ], [ 645196.630944099859335, 1892380.312020463868976 ], [ 645206.119813258061185, 1892390.319095031591132 ], [ 645206.119813258061185, 1892390.319095031591132 ], [ 645215.60867317894008, 1892400.326174714136869 ], [ 645225.167216879199259, 1892400.393190358299762 ], [ 645234.725760878180154, 1892400.460210416698828 ], [ 645244.284305172972381, 1892400.527234889334068 ], [ 645244.284305172972381, 1892400.527234889334068 ], [ 645253.773142975755036, 1892410.534333857242018 ], [ 645253.773142975755036, 1892410.534333857242018 ], [ 645253.703435830771923, 1892420.474404021631926 ], [ 645263.192259448580444, 1892430.481508497381583 ], [ 645263.192259448580444, 1892430.481508497381583 ], [ 645272.681073828833178, 1892440.488618089584634 ], [ 645272.681073828833178, 1892440.488618089584634 ], [ 645282.169878968503326, 1892450.495732796378434 ], [ 645291.728401798172854, 1892450.56278088549152 ], [ 645301.286924925167114, 1892450.629833389539272 ], [ 645310.845448349718936, 1892450.696890306891873 ], [ 645320.40397207159549, 1892450.76395163917914 ], [ 645320.40397207159549, 1892450.76395163917914 ], [ 645329.892750800121576, 1892460.771090355934575 ], [ 645339.451270526507869, 1892460.838160826358944 ], [ 645339.451270526507869, 1892460.838160826358944 ], [ 645348.940035724081099, 1892470.845309383235872 ], [ 645348.940035724081099, 1892470.845309383235872 ], [ 645358.428791681071743, 1892480.852463055634871 ], [ 645358.428791681071743, 1892480.852463055634871 ] ] } },
{ "type": "Feature", "properties": { "year": 2025, "month": null }, "geometry": { "type": "LineString", "coordinates": [ [ 645473.130948581034318, 1892481.657766376622021 ], [ 645473.200763441040181, 1892471.717688597273082 ], [ 645473.270577944698744, 1892461.777610900811851 ], [ 645473.340392092359252, 1892451.837533287936822 ], [ 645473.340392092359252, 1892451.837533287936822 ], [ 645463.851672810036689, 1892441.830324108013883 ], [ 645463.851672810036689, 1892441.830324108013883 ], [ 645454.36294428713154, 1892431.823120043613017 ], [ 645454.432748185587116, 1892421.883043298497796 ], [ 645454.432748185587116, 1892421.883043298497796 ], [ 645444.944005478639156, 1892411.875844744266942 ], [ 645444.944005478639156, 1892411.875844744266942 ], [ 645435.385459526674822, 1892411.808727265335619 ], [ 645425.896703287842683, 1892401.801538550760597 ], [ 645425.896703287842683, 1892401.801538550760597 ], [ 645416.40793780866079, 1892391.794354952173308 ], [ 645416.40793780866079, 1892391.794354952173308 ], [ 645406.919163093320094, 1892381.787176470272243 ], [ 645406.919163093320094, 1892381.787176470272243 ], [ 645397.430379137746058, 1892371.780003104126081 ], [ 645397.430379137746058, 1892371.780003104126081 ], [ 645387.941585943335667, 1892361.772834854666144 ], [ 645387.941585943335667, 1892361.772834854666144 ], [ 645378.452783508808352, 1892351.765671720495448 ], [ 645378.452783508808352, 1892351.765671720495448 ], [ 645368.963971836841665, 1892341.758513702312484 ], [ 645368.963971836841665, 1892341.758513702312484 ], [ 645359.475150926271453, 1892331.751360801048577 ], [ 645359.475150926271453, 1892331.751360801048577 ], [ 645349.986320777097717, 1892321.744213015306741 ], [ 645349.986320777097717, 1892321.744213015306741 ], [ 645340.427736487705261, 1892321.677142461994663 ], [ 645330.938892807345837, 1892311.670004514744505 ], [ 645330.938892807345837, 1892311.670004514744505 ], [ 645321.450039888499305, 1892301.662871683947742 ], [ 645321.450039888499305, 1892301.662871683947742 ], [ 645311.961177731165662, 1892291.655743968207389 ], [ 645311.961177731165662, 1892291.655743968207389 ], [ 645302.472306335461326, 1892281.648621367523447 ], [ 645302.472306335461326, 1892281.648621367523447 ], [ 645292.913705174461938, 1892281.581574121955782 ], [ 645283.424820247804746, 1892271.57446136046201 ], [ 645283.424820247804746, 1892271.57446136046201 ], [ 645273.935926082776859, 1892261.567353714490309 ], [ 645273.935926082776859, 1892261.567353714490309 ], [ 645264.447022678214125, 1892251.560251184040681 ], [ 645264.447022678214125, 1892251.560251184040681 ], [ 645254.958110036794096, 1892241.553153768414631 ], [ 645254.958110036794096, 1892241.553153768414631 ], [ 645245.469188157236204, 1892231.546061468077824 ], [ 645245.469188157236204, 1892231.546061468077824 ], [ 645235.980257039656863, 1892221.538974283728749 ], [ 645236.049947893247008, 1892211.59890639828518 ], [ 645236.049947893247008, 1892211.59890639828518 ], [ 645226.561002590926364, 1892201.59182472131215 ], [ 645226.630688143661246, 1892191.651757311308756 ], [ 645226.700373340863734, 1892181.711689984425902 ], [ 645226.700373340863734, 1892181.711689984425902 ], [ 645217.211408911272883, 1892171.704614205984399 ], [ 645217.281088807736523, 1892161.764547354308888 ], [ 645217.350768348667771, 1892151.824480585753918 ], [ 645217.420447534066625, 1892141.884413900785148 ], [ 645217.490126364049502, 1892131.944347297539935 ], [ 645217.559804838499986, 1892122.004280778346583 ], [ 645217.629482957418077, 1892112.064214342506602 ], [ 645217.69916072092019, 1892102.124147989787161 ], [ 645217.768838128773496, 1892092.184081719024107 ], [ 645217.838515181327239, 1892082.244015531847253 ], [ 645217.908191878232174, 1892072.30394942779094 ], [ 645217.977868219837546, 1892062.363883406389505 ], [ 645218.047544205794111, 1892052.42381746834144 ], [ 645218.117219836218283, 1892042.483751613413915 ], [ 645218.186895111342892, 1892032.543685842305422 ], [ 645227.745608636992984, 1892032.610690048430115 ], [ 645227.815288145910017, 1892022.670624050078914 ], [ 645227.884967299294658, 1892012.730558134848252 ], [ 645237.44369030254893, 1892012.79756613727659 ], [ 645237.513373689725995, 1892002.857499996200204 ], [ 645237.583056721603498, 1891992.917433937778696 ], [ 645237.652739397832192, 1891982.977367962710559 ], [ 645237.722421718528494, 1891973.037302071228623 ], [ 645247.281163375009783, 1891973.104313249466941 ], [ 645247.350849929382093, 1891963.164247131440789 ], [ 645247.420536128338426, 1891953.224181096069515 ], [ 645247.490221971529536, 1891943.284115144750103 ], [ 645247.559907459304668, 1891933.344049275619909 ], [ 645247.629592591430992, 1891923.403983489610255 ], [ 645247.699277368141338, 1891913.46391778672114 ], [ 645247.768961789086461, 1891903.523852166719735 ], [ 645247.838645854615606, 1891893.583786629838869 ], [ 645247.908329564495943, 1891883.643721175380051 ], [ 645247.978012918843888, 1891873.703655804507434 ], [ 645247.978012918843888, 1891873.703655804507434 ], [ 645238.488903780234978, 1891863.696582740405574 ], [ 645238.488903780234978, 1891863.696582740405574 ], [ 645228.99978540383745, 1891853.689514789031819 ], [ 645228.99978540383745, 1891853.689514789031819 ], [ 645219.510657792678103, 1891843.682451952947304 ], [ 645219.510657792678103, 1891843.682451952947304 ], [ 645210.021520945243537, 1891833.675394231453538 ], [ 645210.021520945243537, 1891833.675394231453538 ], [ 645200.532374862930737, 1891823.668341623153538 ], [ 645200.532374862930737, 1891823.668341623153538 ], [ 645191.043219541897997, 1891813.661294130142778 ], [ 645191.043219541897997, 1891813.661294130142778 ], [ 645181.554054986103438, 1891803.654251750092953 ], [ 645181.623703373712488, 1891793.714189207181334 ], [ 645181.69335140590556, 1891783.774126747855917 ], [ 645181.762999082566239, 1891773.834064371883869 ], [ 645181.832646403927356, 1891763.894002077868208 ], [ 645181.902293369988911, 1891753.95393986813724 ], [ 645191.461134201847017, 1891754.020917767193168 ], [ 645191.530785401118919, 1891744.080855330917984 ], [ 645201.089631120325066, 1891744.147837333846837 ], [ 645201.159286553040147, 1891734.20777467219159 ], [ 645210.718137155519798, 1891734.274760778527707 ], [ 645210.787796821445227, 1891724.334697889862582 ], [ 645210.857456131838262, 1891714.394635084550828 ], [ 645210.927115086931735, 1891704.454572361428291 ], [ 645210.9967736863764, 1891694.514509722357616 ], [ 645220.555642942315899, 1891694.581499005202204 ], [ 645220.625305774854496, 1891684.641436139820144 ], [ 645230.184179916745052, 1891684.708429526071995 ], [ 645239.743054357240908, 1891684.775427325163037 ], [ 645239.812726011499763, 1891674.835363924968988 ], [ 645249.371605336666107, 1891674.902365827700123 ], [ 645249.441281224135309, 1891664.962302200263366 ], [ 645249.510956755955704, 1891655.022238656179979 ], [ 645249.580631932243705, 1891645.082175195217133 ], [ 645249.580631932243705, 1891645.082175195217133 ], [ 645240.091409073676914, 1891635.075111151440069 ], [ 645240.091409073676914, 1891635.075111151440069 ], [ 645230.602176978485659, 1891625.068052221322432 ], [ 645230.602176978485659, 1891625.068052221322432 ], [ 645221.112935649580322, 1891615.060998406028375 ], [ 645221.112935649580322, 1891615.060998406028375 ], [ 645211.554029685212299, 1891614.994011595612392 ], [ 645202.064774831291288, 1891604.986967615550384 ], [ 645202.064774831291288, 1891604.986967615550384 ], [ 645192.575510739698075, 1891594.979928747983649 ], [ 645192.575510739698075, 1891594.979928747983649 ], [ 645183.08623741439078, 1891584.972894995473325 ], [ 645183.08623741439078, 1891584.972894995473325 ], [ 645173.527318873791955, 1891584.905926762381569 ], [ 645164.038032022421248, 1891574.898902844404802 ], [ 645164.038032022421248, 1891574.898902844404802 ], [ 645154.548735934775323, 1891564.891884040320292 ], [ 645154.548735934775323, 1891564.891884040320292 ], [ 645145.059430613531731, 1891554.884870349196717 ], [ 645145.129051762865856, 1891544.944811118301004 ], [ 645145.198672556667589, 1891535.004751970758662 ], [ 645145.198672556667589, 1891535.004751970758662 ], [ 645135.70934811362531, 1891524.99774417723529 ], [ 645135.70934811362531, 1891524.99774417723529 ], [ 645126.220014435821213, 1891514.990741497371346 ], [ 645126.220014435821213, 1891514.990741497371346 ], [ 645116.730671522091143, 1891504.983743930235505 ], [ 645116.730671522091143, 1891504.983743930235505 ], [ 645107.17171835526824, 1891504.916809055954218 ], [ 645097.612765486817807, 1891504.849878593813628 ], [ 645088.123404757701792, 1891494.842895582318306 ], [ 645088.123404757701792, 1891494.842895582318306 ], [ 645078.56444789248053, 1891494.775974253425375 ], [ 645069.005491325631738, 1891494.709057337604463 ], [ 645059.516112779732794, 1891484.702088881051168 ], [ 645059.516112779732794, 1891484.702088881051168 ], [ 645049.957152218790725, 1891484.635181098012254 ], [ 645040.398191953310743, 1891484.568277727114037 ], [ 645030.839231986203231, 1891484.501378769055009 ], [ 645021.34983133233618, 1891474.494429589016363 ], [ 645021.34983133233618, 1891474.494429589016363 ], [ 645011.790867370902561, 1891474.427539763506502 ], [ 645002.301453190040775, 1891464.42060041683726 ], [ 645002.301453190040775, 1891464.42060041683726 ], [ 644992.812029777676798, 1891454.413666182663292 ], [ 644992.812029777676798, 1891454.413666182663292 ], [ 644983.322597129736096, 1891444.406737060984597 ], [ 644983.322597129736096, 1891444.406737060984597 ], [ 644973.83315524761565, 1891434.399813051335514 ], [ 644973.83315524761565, 1891434.399813051335514 ], [ 644964.343704130034894, 1891424.392894154880196 ], [ 644964.343704130034894, 1891424.392894154880196 ], [ 644954.854243779554963, 1891414.385980370687321 ], [ 644954.854243779554963, 1891414.385980370687321 ], [ 644945.364774195244536, 1891404.379071698756889 ], [ 644945.364774195244536, 1891404.379071698756889 ], [ 644935.875295376987197, 1891394.372168138856068 ], [ 644935.875295376987197, 1891394.372168138856068 ], [ 644926.385807323502377, 1891384.365269691683352 ], [ 644926.455316910753027, 1891374.425218974472955 ], [ 644926.455316910753027, 1891374.425218974472955 ], [ 644916.96581468207296, 1891364.418326030485332 ], [ 644916.96581468207296, 1891364.418326030485332 ], [ 644907.406803517369553, 1891364.351488133193925 ], [ 644897.847792649525218, 1891364.284654647577554 ], [ 644888.288782078190707, 1891364.21782557410188 ], [ 644878.799257742241025, 1891354.210951903369278 ], [ 644878.799257742241025, 1891354.210951903369278 ], [ 644869.309724172460847, 1891344.204083345131949 ], [ 644869.309724172460847, 1891344.204083345131949 ], [ 644859.820181369083002, 1891334.197219897992909 ], [ 644859.820181369083002, 1891334.197219897992909 ], [ 644850.261158219422214, 1891334.130409397417679 ], [ 644840.771601891377941, 1891324.123555782949552 ], [ 644840.771601891377941, 1891324.123555782949552 ], [ 644831.282036329619586, 1891314.116707279812545 ], [ 644831.351497556315735, 1891304.176660228054971 ], [ 644831.351497556315735, 1891304.176660228054971 ], [ 644821.861917819012888, 1891294.169817228335887 ], [ 644821.861917819012888, 1891294.169817228335887 ], [ 644812.372328846948221, 1891284.162979339482263 ], [ 644812.372328846948221, 1891284.162979339482263 ], [ 644802.882730642799288, 1891274.156146561959758 ], [ 644802.882730642799288, 1891274.156146561959758 ], [ 644793.323681747424416, 1891274.089364382205531 ], [ 644783.764633149723522, 1891274.022586615290493 ], [ 644774.205584845854901, 1891273.955813259351999 ], [ 644764.646536839660257, 1891273.88904431508854 ], [ 644755.087489129859023, 1891273.822279782500118 ], [ 644745.528441716451198, 1891273.755519661819562 ], [ 644735.969394597923383, 1891273.688763953279704 ], [ 644726.479757121996954, 1891263.68196932785213 ], [ 644726.479757121996954, 1891263.68196932785213 ], [ 644716.920706009957939, 1891263.615222750697285 ], [ 644707.431055009597912, 1891253.608437956077978 ], [ 644707.431055009597912, 1891253.608437956077978 ], [ 644697.871999901137315, 1891253.541700510308146 ], [ 644688.382335376227275, 1891243.534925545565784 ], [ 644688.382335376227275, 1891243.534925545565784 ], [ 644678.892661619698629, 1891233.528155692620203 ], [ 644678.962046609842218, 1891223.588114236015826 ], [ 644679.031431245733984, 1891213.648072862299159 ], [ 644679.031431245733984, 1891213.648072862299159 ], [ 644669.541738371481188, 1891203.641308901831508 ], [ 644669.611117711639963, 1891193.701268002158031 ], [ 644669.680496697546914, 1891183.761227186070755 ], [ 644669.749875329434872, 1891173.821186452871189 ], [ 644679.308966247714125, 1891173.88790819933638 ], [ 644679.37834911281243, 1891163.947867240523919 ], [ 644688.937444913084619, 1891164.014593090396374 ], [ 644689.006832011393271, 1891154.074551906902343 ], [ 644698.56593269680161, 1891154.141281859949231 ], [ 644698.63532402808778, 1891144.20124045223929 ], [ 644698.70471500523854, 1891134.261199126718566 ], [ 644698.774105628253892, 1891124.321157885016873 ], [ 644698.774105628253892, 1891124.321157885016873 ], [ 644689.284376862226054, 1891114.314388004830107 ], [ 644689.284376862226054, 1891114.314388004830107 ], [ 644679.794638865394518, 1891104.307623235275969 ], [ 644679.794638865394518, 1891104.307623235275969 ], [ 644670.235515836044215, 1891104.240903645055369 ], [ 644660.745764313032851, 1891094.234148705843836 ], [ 644660.745764313032851, 1891094.234148705843836 ], [ 644651.186637288890779, 1891094.167438246542588 ], [ 644641.696872243774123, 1891084.160693136975169 ], [ 644641.696872243774123, 1891084.160693136975169 ], [ 644632.207097966573201, 1891074.153953137574717 ], [ 644632.207097966573201, 1891074.153953137574717 ], [ 644622.647962655173615, 1891074.087256527738646 ], [ 644613.08882764109876, 1891074.020564330276102 ], [ 644603.59903554955963, 1891064.013838879996911 ], [ 644603.59903554955963, 1891064.013838879996911 ], [ 644594.039896540576592, 1891063.947155812988058 ], [ 644584.480757826357149, 1891063.880477156955749 ], [ 644574.990947921876796, 1891053.873766254400834 ], [ 644574.990947921876796, 1891053.873766254400834 ], [ 644565.431805213913321, 1891053.807096729287878 ], [ 644555.94198178476654, 1891043.800395655445755 ], [ 644555.94198178476654, 1891043.800395655445755 ], [ 644546.452149122254923, 1891033.793699692934752 ], [ 644546.452149122254923, 1891033.793699692934752 ], [ 644536.962307229172438, 1891023.78700883872807 ], [ 644537.031615976360627, 1891013.846973744919524 ], [ 644537.031615976360627, 1891013.846973744919524 ], [ 644527.541759910527617, 1891003.840288392500952 ], [ 644527.541759910527617, 1891003.840288392500952 ], [ 644518.051894612843171, 1890993.833608149085194 ], [ 644518.121193124679849, 1890983.893573918845505 ], [ 644518.190491282846779, 1890973.953539772424847 ], [ 644518.190491282846779, 1890973.953539772424847 ], [ 644508.700606870581396, 1890963.946865420090035 ], [ 644508.769899734295905, 1890954.006831747246906 ], [ 644508.769899734295905, 1890954.006831747246906 ], [ 644499.280001151259057, 1890944.00016289530322 ], [ 644499.280001151259057, 1890944.00016289530322 ], [ 644489.79009333672002, 1890933.993499153060839 ], [ 644489.79009333672002, 1890933.993499153060839 ], [ 644480.300176290562376, 1890923.986840520286933 ], [ 644480.300176290562376, 1890923.986840520286933 ], [ 644470.810250014415942, 1890913.980186995817348 ], [ 644470.810250014415942, 1890913.980186995817348 ], [ 644461.320314504206181, 1890903.9735385812819 ], [ 644461.320314504206181, 1890903.9735385812819 ], [ 644451.761106543242931, 1890903.906926605151966 ], [ 644442.271157512092032, 1890893.900288018397987 ], [ 644442.271157512092032, 1890893.900288018397987 ], [ 644432.711945554474369, 1890893.833685172023252 ], [ 644423.221983001101762, 1890883.827056412352249 ], [ 644423.221983001101762, 1890883.827056412352249 ], [ 644413.732011216692626, 1890873.820432762615383 ], [ 644413.732011216692626, 1890873.820432762615383 ], [ 644404.242030200897716, 1890863.813814221182838 ], [ 644404.242030200897716, 1890863.813814221182838 ], [ 644394.752039952669293, 1890853.807200788753107 ], [ 644394.752039952669293, 1890853.807200788753107 ], [ 644385.192811128334142, 1890853.740621226606891 ], [ 644375.702807359513827, 1890843.734017621492967 ], [ 644375.702807359513827, 1890843.734017621492967 ], [ 644366.1435745410854, 1890843.667447188403457 ], [ 644356.584342017071322, 1890843.600881166290492 ], [ 644347.025109787122346, 1890843.534319554455578 ], [ 644337.465877854032442, 1890843.467762354761362 ], [ 644327.906646216637455, 1890843.401209564646706 ], [ 644318.347414873307571, 1890843.334661186439916 ], [ 644308.788183826836757, 1890843.268117218278348 ], [ 644299.298140789847821, 1890833.26155174896121 ], [ 644299.298140789847821, 1890833.26155174896121 ], [ 644289.738905747770332, 1890833.195016910322011 ], [ 644280.179670999757946, 1890833.128486482193694 ], [ 644270.620436548488215, 1890833.061960465274751 ], [ 644261.13037140853703, 1890823.055414258502424 ], [ 644261.13037140853703, 1890823.055414258502424 ], [ 644251.640297036385164, 1890813.048873159335926 ], [ 644251.640297036385164, 1890813.048873159335926 ], [ 644242.150213433546014, 1890803.042337168939412 ], [ 644242.150213433546014, 1890803.042337168939412 ], [ 644232.660120598506182, 1890793.035806286847219 ], [ 644232.729274441022426, 1890783.095782940043136 ], [ 644232.729274441022426, 1890783.095782940043136 ], [ 644223.23916743719019, 1890773.089257555548102 ], [ 644223.308315987233073, 1890763.149234681855887 ], [ 644223.377464184188284, 1890753.209211890818551 ], [ 644223.377464184188284, 1890753.209211890818551 ], [ 644213.887338070897385, 1890743.202692395076156 ], [ 644213.887338070897385, 1890743.202692395076156 ], [ 644204.397202725987881, 1890733.19617800693959 ], [ 644204.397202725987881, 1890733.19617800693959 ], [ 644194.907058151904494, 1890723.189668725710362 ], [ 644194.907058151904494, 1890723.189668725710362 ], [ 644185.416904347715899, 1890713.183164553018287 ], [ 644185.416904347715899, 1890713.183164553018287 ], [ 644175.926741313072853, 1890703.176665487932041 ], [ 644175.926741313072853, 1890703.176665487932041 ], [ 644166.367450485704467, 1890703.11019198037684 ], [ 644156.808159956126474, 1890703.043722883798182 ], [ 644147.248869720497169, 1890702.977258197497576 ], [ 644137.758684582542628, 1890692.970778392860666 ], [ 644137.758684582542628, 1890692.970778392860666 ], [ 644128.268490214482881, 1890682.964303694432601 ], [ 644128.337589725153521, 1890673.024284638697281 ], [ 644128.40668888296932, 1890663.084265664685518 ], [ 644128.475787688046694, 1890653.144246774725616 ], [ 644138.035100264241919, 1890653.210701105184853 ], [ 644138.104203302646056, 1890643.270681991009042 ], [ 644147.663520760135725, 1890643.337140425108373 ], [ 644147.732628031633794, 1890633.397121087182313 ], [ 644157.291950370417908, 1890633.46358362515457 ], [ 644157.361061875126325, 1890623.523564063943923 ], [ 644166.920389093691483, 1890623.590030705090612 ], [ 644166.989504831610247, 1890613.650010918965563 ], [ 644176.548836934263818, 1890613.716481663286686 ], [ 644176.617956905276515, 1890603.776461653644219 ], [ 644186.177293887827545, 1890603.842936501838267 ], [ 644186.246418091701344, 1890593.902916268212721 ], [ 644195.805759955430403, 1890593.969395220046863 ], [ 644195.874888392630965, 1890584.029374762205407 ], [ 644205.434235137538053, 1890584.095857816981152 ], [ 644205.503367807599716, 1890574.15583713632077 ], [ 644215.062719435198233, 1890574.222324294038117 ], [ 644215.131856338120997, 1890564.282303388230503 ], [ 644224.691212845500559, 1890564.348794649820775 ], [ 644224.760353981284425, 1890554.408773520030081 ], [ 644234.319715369958431, 1890554.475268884794787 ], [ 644234.388860738603398, 1890544.535247531719506 ], [ 644243.948227009852417, 1890544.601746998960152 ], [ 644244.017376611242071, 1890534.6617254212033 ], [ 644253.576747762504965, 1890534.728228992316872 ], [ 644253.645901596639305, 1890524.788207190576941 ], [ 644263.205277628963813, 1890524.854714864166453 ], [ 644263.274435695726424, 1890514.914692838676274 ], [ 644272.833816607948393, 1890514.98120461567305 ], [ 644272.90297890745569, 1890505.041182366199791 ], [ 644282.462364702252671, 1890505.107698245672509 ], [ 644282.531531234271824, 1890495.167675771517679 ], [ 644292.090921911643818, 1890495.234195753699169 ], [ 644292.160092676291242, 1890485.29417305579409 ], [ 644301.719488233327866, 1890485.360697141615674 ], [ 644301.788663230603561, 1890475.420674219727516 ], [ 644301.857837874442339, 1890465.480651380028576 ], [ 644311.417242898605764, 1890465.547179261455312 ], [ 644311.486421774839982, 1890455.607156198238954 ], [ 644321.045831680181436, 1890455.673688182141632 ], [ 644330.605241882381961, 1890455.740224576555192 ], [ 644340.164652378764004, 1890455.806765380781144 ], [ 644349.724063170724548, 1890455.873310595517978 ], [ 644349.724063170724548, 1890455.873310595517978 ], [ 644359.21427245484665, 1890465.87988482019864 ], [ 644359.21427245484665, 1890465.87988482019864 ], [ 644359.145070296828635, 1890475.819909503217787 ], [ 644359.075867785373703, 1890485.759934269590303 ], [ 644359.006664920365438, 1890495.699959118384868 ], [ 644358.937461702153087, 1890505.639984051231295 ], [ 644358.868258130503818, 1890515.580009066266939 ], [ 644358.799054205534048, 1890525.520034165587276 ], [ 644358.729849927127361, 1890535.460059346398339 ], [ 644368.220015406375751, 1890545.466641412349418 ], [ 644368.220015406375751, 1890545.466641412349418 ], [ 644377.710171654820442, 1890555.473228585906327 ], [ 644377.710171654820442, 1890555.473228585906327 ], [ 644387.200318675022572, 1890565.479820867767558 ], [ 644396.759680501301773, 1890565.546391514595598 ], [ 644406.319042624556459, 1890565.612966571701691 ], [ 644415.878405042225495, 1890565.679546038853005 ], [ 644415.878405042225495, 1890565.679546038853005 ], [ 644425.368529961910099, 1890575.686157582327724 ], [ 644425.368529961910099, 1890575.686157582327724 ], [ 644425.299291814793833, 1890585.626185331260785 ], [ 644425.230053314240649, 1890595.566213163081557 ], [ 644434.720159125048667, 1890605.572830595541745 ], [ 644434.720159125048667, 1890605.572830595541745 ], [ 644434.650915331207216, 1890615.512858901172876 ], [ 644434.581671183812432, 1890625.452887290157378 ], [ 644444.071757887024432, 1890635.459510612068698 ], [ 644444.071757887024432, 1890635.459510612068698 ], [ 644444.00250844634138, 1890645.399539474397898 ], [ 644443.933258652104996, 1890655.339568419614807 ], [ 644443.864008504198864, 1890665.279597447719425 ], [ 644453.354071156703867, 1890675.28622705116868 ], [ 644453.354071156703867, 1890675.28622705116868 ], [ 644462.844124578870833, 1890685.292861762223765 ], [ 644462.844124578870833, 1890685.292861762223765 ], [ 644472.334168772213161, 1890695.299501583445817 ], [ 644472.334168772213161, 1890695.299501583445817 ], [ 644472.264903451316059, 1890705.239531866507605 ], [ 644481.754933471675031, 1890715.246177186490968 ], [ 644481.754933471675031, 1890715.246177186490968 ], [ 644491.244954262860119, 1890725.252827614778653 ], [ 644491.244954262860119, 1890725.252827614778653 ], [ 644500.734965823590755, 1890735.259483153466135 ], [ 644500.734965823590755, 1890735.259483153466135 ], [ 644500.665685328887776, 1890745.199514691019431 ], [ 644510.155682719079778, 1890755.206175728701055 ], [ 644510.155682719079778, 1890755.206175728701055 ], [ 644519.645670879865065, 1890765.212841875618324 ], [ 644529.204945123870857, 1890765.279480421449989 ], [ 644529.204945123870857, 1890765.279480421449989 ], [ 644538.694919762085192, 1890775.286156395450234 ], [ 644538.694919762085192, 1890775.286156395450234 ], [ 644548.184885169728659, 1890785.292837478918955 ], [ 644548.184885169728659, 1890785.292837478918955 ], [ 644557.674841347848997, 1890795.29952367185615 ], [ 644557.674841347848997, 1890795.29952367185615 ], [ 644557.605531211826019, 1890805.239557554712519 ], [ 644567.095473217312247, 1890815.24624924804084 ], [ 644567.095473217312247, 1890815.24624924804084 ], [ 644576.585405991878361, 1890825.252946050837636 ], [ 644576.585405991878361, 1890825.252946050837636 ], [ 644586.075329534010962, 1890835.259647962637246 ], [ 644586.075329534010962, 1890835.259647962637246 ], [ 644595.565243847901002, 1890845.266354984836653 ], [ 644595.565243847901002, 1890845.266354984836653 ], [ 644605.055148929357529, 1890855.273067116038874 ], [ 644605.055148929357529, 1890855.273067116038874 ], [ 644614.545044779544696, 1890865.279784357408062 ], [ 644614.545044779544696, 1890865.279784357408062 ], [ 644624.034931398578919, 1890875.286506708245724 ], [ 644624.034931398578919, 1890875.286506708245724 ], [ 644633.524808787740767, 1890885.293234168551862 ], [ 644633.524808787740767, 1890885.293234168551862 ], [ 644643.014676944119856, 1890895.29996673995629 ], [ 644643.014676944119856, 1890895.29996673995629 ], [ 644652.504535869229585, 1890905.306704420596361 ], [ 644652.504535869229585, 1890905.306704420596361 ], [ 644661.994385562837124, 1890915.313447210937738 ], [ 644661.994385562837124, 1890915.313447210937738 ], [ 644671.484226026339456, 1890925.320195111911744 ], [ 644671.484226026339456, 1890925.320195111911744 ], [ 644680.974057256942615, 1890935.326948122819886 ], [ 644680.974057256942615, 1890935.326948122819886 ], [ 644690.463879254646599, 1890945.333706243662164 ], [ 644690.463879254646599, 1890945.333706243662164 ], [ 644699.953692022012547, 1890955.340469474904239 ], [ 644699.953692022012547, 1890955.340469474904239 ], [ 644709.443495559040457, 1890965.347237816546112 ], [ 644709.443495559040457, 1890965.347237816546112 ], [ 644718.933289863052778, 1890975.354011268122122 ], [ 644718.933289863052778, 1890975.354011268122122 ], [ 644728.423074935097247, 1890985.360789830796421 ], [ 644728.423074935097247, 1890985.360789830796421 ], [ 644737.912850775523111, 1890995.367573504569009 ], [ 644737.912850775523111, 1890995.367573504569009 ], [ 644747.402617385261692, 1891005.374362287810072 ], [ 644747.402617385261692, 1891005.374362287810072 ], [ 644756.892374761635438, 1891015.381156181450933 ], [ 644756.892374761635438, 1891015.381156181450933 ], [ 644766.382122906157747, 1891025.387955186655745 ], [ 644766.382122906157747, 1891025.387955186655745 ], [ 644775.871861818479374, 1891035.394759302493185 ], [ 644775.871861818479374, 1891035.394759302493185 ], [ 644785.361591500113718, 1891045.401568528264761 ], [ 644785.361591500113718, 1891045.401568528264761 ], [ 644785.292162427096628, 1891055.341611879412085 ], [ 644794.781877932371572, 1891065.348426608368754 ], [ 644794.781877932371572, 1891065.348426608368754 ], [ 644804.271584206609987, 1891075.35524644725956 ], [ 644813.830725146457553, 1891075.422026872867718 ], [ 644813.830725146457553, 1891075.422026872867718 ], [ 644823.320417899056338, 1891085.428856542799622 ], [ 644823.320417899056338, 1891085.428856542799622 ], [ 644832.810101417941041, 1891095.435691324528307 ], [ 644842.369234072859399, 1891095.502485600532964 ], [ 644842.369234072859399, 1891095.502485600532964 ], [ 644851.858904068707488, 1891105.509330212371424 ], [ 644851.858904068707488, 1891105.509330212371424 ], [ 644851.78944075840991, 1891115.449376220814884 ], [ 644851.719977093511261, 1891125.38942231121473 ], [ 644861.209627974429168, 1891135.396272817160934 ], [ 644861.209627974429168, 1891135.396272817160934 ], [ 644870.699269621400163, 1891145.40312843513675 ], [ 644870.699269621400163, 1891145.40312843513675 ], [ 644880.188902035588399, 1891155.409989163745195 ], [ 644880.188902035588399, 1891155.409989163745195 ], [ 644889.678525217110291, 1891165.416855004616082 ], [ 644899.237627540598623, 1891165.48367790854536 ], [ 644899.237627540598623, 1891165.48367790854536 ], [ 644908.727237198734656, 1891175.490553581388667 ], [ 644918.286335528129712, 1891175.55738561716862 ], [ 644927.845434154383838, 1891175.624222064390779 ], [ 644927.845434154383838, 1891175.624222064390779 ], [ 644937.335025999462232, 1891185.631112288217992 ], [ 644937.335025999462232, 1891185.631112288217992 ], [ 644937.265518565429375, 1891195.57116173626855 ], [ 644946.755096233915538, 1891205.57805746444501 ], [ 644946.755096233915538, 1891205.57805746444501 ], [ 644956.244664669502527, 1891215.584958303254098 ], [ 644956.244664669502527, 1891215.584958303254098 ], [ 644965.734223871957511, 1891225.59186425502412 ], [ 644965.734223871957511, 1891225.59186425502412 ], [ 644975.223773842677474, 1891235.598775318590924 ], [ 644975.223773842677474, 1891235.598775318590924 ], [ 644984.713314578868449, 1891245.605691493721679 ], [ 644984.713314578868449, 1891245.605691493721679 ], [ 644984.643782078055665, 1891255.545742983464152 ], [ 644994.133308638585731, 1891265.552664662478492 ], [ 644994.133308638585731, 1891265.552664662478492 ], [ 645003.622825964237563, 1891275.559591453522444 ], [ 645003.622825964237563, 1891275.559591453522444 ], [ 645013.112334059318528, 1891285.5665233572945 ], [ 645013.112334059318528, 1891285.5665233572945 ], [ 645022.601832919521257, 1891295.573460373328999 ], [ 645022.601832919521257, 1891295.573460373328999 ], [ 645032.091322546242736, 1891305.58040250162594 ], [ 645032.091322546242736, 1891305.58040250162594 ], [ 645041.58080293959938, 1891315.587349742185324 ], [ 645041.58080293959938, 1891315.587349742185324 ], [ 645051.070274100638926, 1891325.594302095705643 ], [ 645051.070274100638926, 1891325.594302095705643 ], [ 645051.000706646125764, 1891335.534356410615146 ], [ 645060.490163629176095, 1891345.54131426801905 ], [ 645060.490163629176095, 1891345.54131426801905 ], [ 645069.979611378628761, 1891355.548277238383889 ], [ 645079.538632177514955, 1891355.615189830306917 ], [ 645079.538632177514955, 1891355.615189830306917 ], [ 645089.028066403465346, 1891365.622162634273991 ], [ 645089.028066403465346, 1891365.622162634273991 ], [ 645098.517491394421086, 1891375.629140550969169 ], [ 645108.076503907330334, 1891375.696066997013986 ], [ 645108.076503907330334, 1891375.696066997013986 ], [ 645117.565915373503231, 1891385.703054747078568 ], [ 645117.565915373503231, 1891385.703054747078568 ], [ 645127.055317607009783, 1891395.710047610569745 ], [ 645127.055317607009783, 1891395.710047610569745 ], [ 645136.54471060517244, 1891405.717045586556196 ], [ 645136.54471060517244, 1891405.717045586556196 ], [ 645146.034094369388185, 1891415.724048676202074 ], [ 645146.034094369388185, 1891415.724048676202074 ], [ 645155.523468899307773, 1891425.731056879041716 ], [ 645155.523468899307773, 1891425.731056879041716 ], [ 645165.012834196444601, 1891435.738070194376633 ], [ 645165.012834196444601, 1891435.738070194376633 ], [ 645164.943207779549994, 1891445.678129130043089 ], [ 645174.432558897649869, 1891455.685147951124236 ], [ 645174.432558897649869, 1891455.685147951124236 ], [ 645183.921900781453587, 1891465.692171885166317 ], [ 645183.921900781453587, 1891465.692171885166317 ], [ 645193.411233430961147, 1891475.699200932867825 ], [ 645193.411233430961147, 1891475.699200932867825 ], [ 645202.900556847220287, 1891485.706235093763098 ], [ 645202.900556847220287, 1891485.706235093763098 ], [ 645212.389871026389301, 1891495.713274368783459 ], [ 645212.389871026389301, 1891495.713274368783459 ], [ 645221.87917597242631, 1891505.720318757230416 ], [ 645221.87917597242631, 1891505.720318757230416 ], [ 645231.3684716837015, 1891515.727368258638307 ], [ 645231.3684716837015, 1891515.727368258638307 ], [ 645240.857758161844686, 1891525.734422874404117 ], [ 645250.416706313262694, 1891525.801420139148831 ], [ 645250.416706313262694, 1891525.801420139148831 ], [ 645259.905979264294729, 1891535.808484589681029 ], [ 645269.464923422317952, 1891535.875490988604724 ], [ 645269.464923422317952, 1891535.875490988604724 ], [ 645278.954182849032804, 1891545.882565275067464 ], [ 645278.954182849032804, 1891545.882565275067464 ], [ 645278.88449746358674, 1891555.82262883358635 ], [ 645288.373742710216902, 1891565.829708626260981 ], [ 645288.373742710216902, 1891565.829708626260981 ], [ 645297.86297872196883, 1891575.836793532129377 ], [ 645297.86297872196883, 1891575.836793532129377 ], [ 645307.352205498726107, 1891585.843883553519845 ], [ 645307.352205498726107, 1891585.843883553519845 ], [ 645316.841423040488735, 1891595.850978688569739 ], [ 645316.841423040488735, 1891595.850978688569739 ], [ 645326.330631347140297, 1891605.858078937977552 ], [ 645326.330631347140297, 1891605.858078937977552 ], [ 645335.81983041879721, 1891615.865184300811961 ], [ 645335.81983041879721, 1891615.865184300811961 ], [ 645345.309020254993811, 1891625.872294778702781 ], [ 645345.309020254993811, 1891625.872294778702781 ], [ 645354.798200857592747, 1891635.879410371184349 ], [ 645364.357102106441744, 1891635.946463987231255 ], [ 645364.357102106441744, 1891635.946463987231255 ], [ 645373.846269181231037, 1891645.953589416109025 ], [ 645373.846269181231037, 1891645.953589416109025 ], [ 645373.776534353848547, 1891655.893656898057088 ], [ 645383.265687248902395, 1891665.900787834078074 ], [ 645383.265687248902395, 1891665.900787834078074 ], [ 645392.754830910009332, 1891675.907923884689808 ], [ 645392.754830910009332, 1891675.907923884689808 ], [ 645402.243965334142558, 1891685.915065049193799 ], [ 645402.243965334142558, 1891685.915065049193799 ], [ 645411.733090522815473, 1891695.922211328987032 ], [ 645411.733090522815473, 1891695.922211328987032 ], [ 645421.222206474398263, 1891705.929362724069506 ], [ 645430.781077687977813, 1891705.996449395781383 ], [ 645430.781077687977813, 1891705.996449395781383 ], [ 645440.270180114312097, 1891716.00361062772572 ], [ 645440.270180114312097, 1891716.00361062772572 ], [ 645449.759273304836825, 1891726.010776973562315 ], [ 645449.759273304836825, 1891726.010776973562315 ], [ 645459.248357259784825, 1891736.017948435619473 ], [ 645459.248357259784825, 1891736.017948435619473 ], [ 645468.737431980203837, 1891746.025125012733042 ], [ 645478.296286326250993, 1891746.092234986368567 ], [ 645487.855140970088542, 1891746.159349373308942 ], [ 645497.413995911716484, 1891746.226468172855675 ] ] } }
]
}
