{
"type": "FeatureCollection",
"name": "shoreline_2022",
"crs": { "type": "name", "properties": { "name": "urn:ogc:def:crs:EPSG::32644" } },
"features": [
{ "type": "Feature", "properties": { "year": 2022, "month": null }, "geometry": { "type": "LineString", "coordinates": [ [ 643588.963692049263045, 1889874.043784760171548 ], [ 643588.963692049263045, 1889874.043784760171548 ], [ 643598.454530914779752, 1889884.049959102878347 ], [ 643598.454530914779752, 1889884.049959102878347 ], [ 643607.945360552985221, 1889894.056138549465686 ], [ 643607.945360552985221, 1889894.056138549465686 ], [ 643617.436180965043604, 1889904.062323099700734 ], [ 643617.436180965043604, 1889904.062323099700734 ], [ 643626.926992151187733, 1889914.068512753816321 ], [ 643626.926992151187733, 1889914.068512753816321 ], [ 643636.417794112348929, 1889924.074707510648295 ], [ 643636.417794112348929, 1889924.074707510648295 ], [ 643645.908586844685487, 1889934.080907372292131 ], [ 643645.908586844685487, 1889934.080907372292131 ], [ 643655.399370352039114, 1889944.087112336885184 ], [ 643655.399370352039114, 1889944.087112336885184 ], [ 643664.890144633245654, 1889954.093322405824438 ], [ 643664.890144633245654, 1889954.093322405824438 ], [ 643674.380909689352848, 1889964.0995375784114 ], [ 643674.380909689352848, 1889964.0995375784114 ], [ 643674.312055285437964, 1889974.039536029333249 ], [ 643683.802806177525781, 1889984.045756695326418 ], [ 643683.802806177525781, 1889984.045756695326418 ], [ 643693.293547843117267, 1889994.051982464967296 ], [ 643693.293547843117267, 1889994.051982464967296 ], [ 643693.224683215026744, 1890003.991981776896864 ], [ 643702.715410717763007, 1890013.998213039478287 ], [ 643702.715410717763007, 1890013.998213039478287 ], [ 643712.206128995167091, 1890024.004449406638741 ], [ 643721.765717481728643, 1890024.070690399035811 ], [ 643731.325306262588128, 1890024.13693580054678 ], [ 643731.325306262588128, 1890024.13693580054678 ], [ 643740.816006731241941, 1890034.143186702160165 ], [ 643740.816006731241941, 1890034.143186702160165 ], [ 643750.306697971886024, 1890044.149442709051073 ], [ 643750.306697971886024, 1890044.149442709051073 ], [ 643759.797379988362081, 1890054.155703819356859 ], [ 643769.356956192757934, 1890054.221967775607482 ], [ 643778.916532691684552, 1890054.288236141437665 ], [ 643788.476109486306086, 1890054.354508915916085 ], [ 643798.035686574061401, 1890054.420786099741235 ], [ 643807.59526395634748, 1890054.487067693145946 ], [ 643807.59526395634748, 1890054.487067693145946 ], [ 643817.085915293428116, 1890064.493357485625893 ], [ 643817.085915293428116, 1890064.493357485625893 ], [ 643817.016988601535559, 1890074.433361358009279 ], [ 643816.948061557719484, 1890084.373365314444527 ], [ 643816.879134161863476, 1890094.313369353534654 ], [ 643816.81020641385112, 1890104.253373476210982 ], [ 643816.74127831379883, 1890114.193377681309357 ], [ 643826.231895740958862, 1890124.199674525298178 ], [ 643826.231895740958862, 1890124.199674525298178 ], [ 643826.162962351925671, 1890134.139679202577099 ], [ 643835.653565613436513, 1890144.145981540437788 ], [ 643835.653565613436513, 1890144.145981540437788 ], [ 643845.144159647636116, 1890154.152288984041661 ], [ 643845.144159647636116, 1890154.152288984041661 ], [ 643854.634744453011081, 1890164.158601531758904 ], [ 643854.634744453011081, 1890164.158601531758904 ], [ 643864.125320032355376, 1890174.164919185452163 ], [ 643864.125320032355376, 1890174.164919185452163 ], [ 643873.61588638543617, 1890184.171241943258792 ], [ 643873.61588638543617, 1890184.171241943258792 ], [ 643883.106443509692326, 1890194.177569807041436 ], [ 643883.106443509692326, 1890194.177569807041436 ], [ 643892.596991406287998, 1890204.183902776334435 ], [ 643892.596991406287998, 1890204.183902776334435 ], [ 643902.087530076503754, 1890214.190240850439295 ], [ 643902.087530076503754, 1890214.190240850439295 ], [ 643911.578059517778456, 1890224.196584030985832 ], [ 643911.578059517778456, 1890224.196584030985832 ], [ 643921.068579731043428, 1890234.202932316344231 ], [ 643921.068579731043428, 1890234.202932316344231 ], [ 643920.999596617883071, 1890244.142940971069038 ], [ 643930.490102665964514, 1890254.149294751463458 ], [ 643930.490102665964514, 1890254.149294751463458 ], [ 643939.98059948743321, 1890264.155653637601063 ], [ 643949.540085005341098, 1890264.222007805947214 ], [ 643949.540085005341098, 1890264.222007805947214 ], [ 643959.030568305868655, 1890274.228376514744014 ], [ 643959.030568305868655, 1890274.228376514744014 ], [ 643968.52104237943422, 1890284.234750328585505 ], [ 643978.080519611365162, 1890284.301118338713422 ], [ 643978.080519611365162, 1890284.301118338713422 ], [ 643987.57098016794771, 1890294.307501974981278 ], [ 643987.57098016794771, 1890294.307501974981278 ], [ 643997.061431494890712, 1890304.313890716293827 ], [ 644006.620900440728292, 1890304.380272569134831 ], [ 644006.620900440728292, 1890304.380272569134831 ], [ 644016.111338250571862, 1890314.386671134037897 ], [ 644016.111338250571862, 1890314.386671134037897 ], [ 644025.601766830659471, 1890324.393074803985655 ], [ 644025.601766830659471, 1890324.393074803985655 ], [ 644035.09218618250452, 1890334.399483581073582 ], [ 644044.651642552111298, 1890334.465883992845193 ], [ 644044.651642552111298, 1890334.465883992845193 ], [ 644054.142048386391252, 1890344.472302592592314 ], [ 644054.142048386391252, 1890344.472302592592314 ], [ 644063.632444989634678, 1890354.47872629808262 ], [ 644073.19189307349734, 1890354.545140552800149 ], [ 644073.19189307349734, 1890354.545140552800149 ], [ 644082.682276159175672, 1890364.551574082579464 ], [ 644082.682276159175672, 1890364.551574082579464 ], [ 644092.172650016378611, 1890374.558012717636302 ], [ 644092.172650016378611, 1890374.558012717636302 ], [ 644101.663014646153897, 1890384.564456459833309 ], [ 644101.663014646153897, 1890384.564456459833309 ], [ 644111.153370046173222, 1890394.570905308471993 ], [ 644111.153370046173222, 1890394.570905308471993 ], [ 644111.084289585589431, 1890404.510921425186098 ], [ 644111.01520877238363, 1890414.450937625719234 ], [ 644120.505545066902414, 1890424.457392361247912 ], [ 644120.505545066902414, 1890424.457392361247912 ], [ 644129.995872133877128, 1890434.463852202286944 ], [ 644129.995872133877128, 1890434.463852202286944 ], [ 644139.486189970746636, 1890444.470317151863128 ], [ 644139.486189970746636, 1890444.470317151863128 ], [ 644139.417093989322893, 1890454.410334605025128 ], [ 644139.347997655160725, 1890464.350352140842006 ], [ 644139.278900968143716, 1890474.290369760012254 ], [ 644139.209803928155452, 1890484.230387461837381 ], [ 644139.140706535428762, 1890494.170405247248709 ], [ 644139.071608789847232, 1890504.110423115314916 ], [ 644139.002510691410862, 1890514.050441066036001 ], [ 644138.933412240119651, 1890523.990459100808948 ], [ 644138.8643134359736, 1890533.930477217771113 ], [ 644138.795214278972708, 1890543.870495418086648 ], [ 644138.726114769233391, 1890553.810513701988384 ], [ 644138.657014906522818, 1890563.750532068312168 ], [ 644138.587914690957405, 1890573.690550517989323 ], [ 644138.518814122537151, 1890583.630569051019847 ], [ 644148.009053589077666, 1890593.637044565984979 ], [ 644148.009053589077666, 1890593.637044565984979 ], [ 644147.939947728998959, 1890603.577063571661711 ], [ 644147.870841516065411, 1890613.517082660458982 ], [ 644147.801734950277023, 1890623.457101832609624 ], [ 644147.732628031633794, 1890633.397121087182313 ], [ 644147.663520760135725, 1890643.337140425108373 ], [ 644147.5944131356664, 1890653.277159845922142 ], [ 644147.525305158342235, 1890663.217179350554943 ], [ 644147.456196828279644, 1890673.157198937376961 ], [ 644137.896893129101954, 1890673.090739582898095 ], [ 644137.827789032249711, 1890683.030758945737034 ], [ 644137.758684582542628, 1890692.970778392860666 ], [ 644137.689579779980704, 1890702.910797921940684 ], [ 644137.620474624680355, 1890712.850817534141243 ], [ 644137.55136911640875, 1890722.790837229695171 ], [ 644127.992088643601164, 1890722.724380751140416 ], [ 644127.922987368772738, 1890732.664400223176926 ], [ 644118.363711775979027, 1890732.597947848029435 ], [ 644118.294614734826609, 1890742.537967096082866 ], [ 644118.225517340702936, 1890752.477986426791176 ], [ 644118.156419593840837, 1890762.418005841085687 ], [ 644118.087321494123898, 1890772.358025338733569 ], [ 644127.577475702622905, 1890782.36449882783927 ], [ 644127.577475702622905, 1890782.36449882783927 ], [ 644137.067620679270476, 1890792.370977425016463 ], [ 644137.067620679270476, 1890792.370977425016463 ], [ 644146.557756425114349, 1890802.377461129566655 ], [ 644146.557756425114349, 1890802.377461129566655 ], [ 644156.047882940387353, 1890812.383949942886829 ], [ 644156.047882940387353, 1890812.383949942886829 ], [ 644165.538000223692507, 1890822.390443862648681 ], [ 644175.09723601443693, 1890822.456921053351834 ], [ 644184.656472099013627, 1890822.523402654798701 ], [ 644184.725604068255052, 1890812.583380594151095 ], [ 644194.284845034591854, 1890812.649866299703717 ], [ 644194.353981237392873, 1890802.70984401460737 ], [ 644194.42311708710622, 1890792.769821812631562 ], [ 644194.492252583848312, 1890782.829799694241956 ], [ 644194.561387727735564, 1890772.889777658972889 ], [ 644194.630522518535145, 1890762.94975570589304 ], [ 644194.699656956363469, 1890753.009733836166561 ], [ 644194.768791041220538, 1890743.069712049560621 ], [ 644194.837924773106351, 1890733.129690346540883 ], [ 644194.907058151904494, 1890723.189668725710362 ], [ 644194.976191177847795, 1890713.249647188466042 ], [ 644195.045323850819841, 1890703.309625734575093 ], [ 644195.114456170704216, 1890693.369604363106191 ], [ 644195.183588137500919, 1890683.429583074524999 ], [ 644204.742889021756127, 1890683.496069199638441 ], [ 644204.812025221763179, 1890673.556047688005492 ], [ 644204.881161069031805, 1890663.616026258794591 ], [ 644214.440471422160044, 1890663.682516180677339 ], [ 644214.509611502289772, 1890653.742494527483359 ], [ 644214.578751229564659, 1890643.802472957642749 ], [ 644214.647890603751875, 1890633.862451470922679 ], [ 644224.207215009257197, 1890633.928944881772622 ], [ 644224.27635861642193, 1890623.988923170836642 ], [ 644224.345501870615408, 1890614.048901543021202 ], [ 644224.414644771721214, 1890604.10887999786064 ], [ 644224.483787319739349, 1890594.168858536984771 ], [ 644224.552929514786229, 1890584.228837157599628 ], [ 644224.622071356745437, 1890574.288815862499177 ], [ 644234.181423573521897, 1890574.35531184123829 ], [ 644234.250569648225792, 1890564.415290320990607 ], [ 644243.80992674769368, 1890564.481790403602645 ], [ 644243.879077055375092, 1890554.541768659371883 ], [ 644253.438439034740441, 1890554.608272844459862 ], [ 644262.997801309451461, 1890554.674781440058723 ], [ 644272.557163878343999, 1890554.741294445469975 ], [ 644282.116526743862778, 1890554.807811861392111 ], [ 644291.675889906240627, 1890554.874333687592298 ], [ 644291.675889906240627, 1890554.874333687592298 ], [ 644301.166075539658777, 1890564.880883511155844 ], [ 644301.166075539658777, 1890564.880883511155844 ], [ 644310.656251943437383, 1890574.887438442092389 ], [ 644320.215606819023378, 1890574.953974113566801 ], [ 644320.215606819023378, 1890574.953974113566801 ], [ 644329.705769703956321, 1890584.960538870189339 ], [ 644339.265120584750548, 1890585.027083669556305 ], [ 644339.265120584750548, 1890585.027083669556305 ], [ 644348.755269948276691, 1890595.033658251864836 ], [ 644348.755269948276691, 1890595.033658251864836 ], [ 644358.245410083327442, 1890605.040237942244858 ], [ 644358.245410083327442, 1890605.040237942244858 ], [ 644367.735540987225249, 1890615.04682274046354 ], [ 644367.735540987225249, 1890615.04682274046354 ], [ 644377.225662659853697, 1890625.053412647917867 ], [ 644386.784996674512513, 1890625.119980728952214 ], [ 644386.784996674512513, 1890625.119980728952214 ], [ 644396.275104828062467, 1890635.126580461859703 ], [ 644396.275104828062467, 1890635.126580461859703 ], [ 644405.765203753020614, 1890645.133185302605852 ], [ 644405.765203753020614, 1890645.133185302605852 ], [ 644415.255293446592987, 1890655.139795252587646 ], [ 644415.255293446592987, 1890655.139795252587646 ], [ 644424.745373910060152, 1890665.146410311339423 ], [ 644424.745373910060152, 1890665.146410311339423 ], [ 644434.235445143422112, 1890675.15303047792986 ], [ 644434.235445143422112, 1890675.15303047792986 ], [ 644443.725507147843018, 1890685.159655752824619 ], [ 644443.725507147843018, 1890685.159655752824619 ], [ 644453.215559920645319, 1890695.166286137653515 ], [ 644453.215559920645319, 1890695.166286137653515 ], [ 644462.705603463109583, 1890705.172921630553901 ], [ 644462.705603463109583, 1890705.172921630553901 ], [ 644472.195637776632793, 1890715.179562232224271 ], [ 644472.195637776632793, 1890715.179562232224271 ], [ 644481.685662857023999, 1890725.186207943130285 ], [ 644481.685662857023999, 1890725.186207943130285 ], [ 644491.175678708241321, 1890735.192858762806281 ], [ 644491.175678708241321, 1890735.192858762806281 ], [ 644500.665685328887776, 1890745.199514691019431 ], [ 644500.665685328887776, 1890745.199514691019431 ], [ 644510.155682719079778, 1890755.206175728701055 ], [ 644519.714961254852824, 1890755.272809555521235 ], [ 644529.274240085156634, 1890755.339447793550789 ], [ 644538.833519211504608, 1890755.406090442091227 ], [ 644538.833519211504608, 1890755.406090442091227 ], [ 644548.32349449954927, 1890765.412770744180307 ], [ 644548.32349449954927, 1890765.412770744180307 ], [ 644548.254190011532046, 1890775.352804070571437 ], [ 644548.184885169728659, 1890785.292837478918955 ], [ 644548.115579974022694, 1890795.232870970619842 ], [ 644557.605531211826019, 1890805.239557554712519 ], [ 644557.605531211826019, 1890805.239557554712519 ], [ 644567.095473217312247, 1890815.24624924804084 ], [ 644576.654726008768193, 1890815.312911386368796 ], [ 644576.654726008768193, 1890815.312911386368796 ], [ 644586.144654491450638, 1890825.319612907245755 ], [ 644586.144654491450638, 1890825.319612907245755 ], [ 644595.634573745774105, 1890835.326319538289681 ], [ 644595.634573745774105, 1890835.326319538289681 ], [ 644605.124483767896891, 1890845.333031279500574 ], [ 644605.124483767896891, 1890845.333031279500574 ], [ 644614.614384558750317, 1890855.33974812971428 ], [ 644614.614384558750317, 1890855.33974812971428 ], [ 644624.104276118334383, 1890865.346470089163631 ], [ 644624.104276118334383, 1890865.346470089163631 ], [ 644633.594158448278904, 1890875.353197158779949 ], [ 644633.594158448278904, 1890875.353197158779949 ], [ 644643.084031545440666, 1890885.359929338330403 ], [ 644643.084031545440666, 1890885.359929338330403 ], [ 644652.573895411333069, 1890895.366666628979146 ], [ 644652.573895411333069, 1890895.366666628979146 ], [ 644662.063750045839697, 1890905.373409027932212 ], [ 644662.063750045839697, 1890905.373409027932212 ], [ 644671.553595450241119, 1890915.380156537285075 ], [ 644671.553595450241119, 1890915.380156537285075 ], [ 644681.043431621743366, 1890925.386909157736227 ], [ 644681.043431621743366, 1890925.386909157736227 ], [ 644690.533258560462855, 1890935.393666887655854 ], [ 644690.533258560462855, 1890935.393666887655854 ], [ 644700.023076268960722, 1890945.400429727509618 ], [ 644709.582273580832407, 1890945.467157622566447 ], [ 644719.141471187816933, 1890945.533889929065481 ], [ 644719.141471187816933, 1890945.533889929065481 ], [ 644728.631271083489992, 1890955.540667317807674 ], [ 644728.631271083489992, 1890955.540667317807674 ], [ 644738.12106174742803, 1890965.547449817415327 ], [ 644738.12106174742803, 1890965.547449817415327 ], [ 644747.610843181028031, 1890975.554237427422777 ], [ 644747.610843181028031, 1890975.554237427422777 ], [ 644747.541434936807491, 1890985.494278963655233 ], [ 644757.031202195794322, 1890995.501072076149285 ], [ 644757.031202195794322, 1890995.501072076149285 ], [ 644766.520960223046131, 1891005.507870298577473 ], [ 644766.520960223046131, 1891005.507870298577473 ], [ 644776.01070901833009, 1891015.514673630939797 ], [ 644785.569876592606306, 1891015.581438972847536 ], [ 644785.569876592606306, 1891015.581438972847536 ], [ 644795.059611863922328, 1891025.588252136716619 ], [ 644795.059611863922328, 1891025.588252136716619 ], [ 644804.549337904434651, 1891035.5950704109855 ], [ 644804.549337904434651, 1891035.5950704109855 ], [ 644814.039054712862708, 1891045.601893795188516 ], [ 644814.039054712862708, 1891045.601893795188516 ], [ 644823.528762290487066, 1891055.608722291421145 ], [ 644823.528762290487066, 1891055.608722291421145 ], [ 644833.018460634397343, 1891065.615555899217725 ], [ 644833.018460634397343, 1891065.615555899217725 ], [ 644842.508149746106938, 1891075.622394616948441 ], [ 644842.508149746106938, 1891075.622394616948441 ], [ 644851.997829625499435, 1891085.629238446243107 ], [ 644851.997829625499435, 1891085.629238446243107 ], [ 644861.487500273855403, 1891095.636087386868894 ], [ 644861.487500273855403, 1891095.636087386868894 ], [ 644870.97716168849729, 1891105.64294143859297 ], [ 644870.97716168849729, 1891105.64294143859297 ], [ 644880.466813870472834, 1891115.649800602113828 ], [ 644880.466813870472834, 1891115.649800602113828 ], [ 644889.956456820014864, 1891125.656664876965806 ], [ 644889.956456820014864, 1891125.656664876965806 ], [ 644899.446090536890551, 1891135.663534262916073 ], [ 644899.446090536890551, 1891135.663534262916073 ], [ 644908.93571502098348, 1891145.670408760430291 ], [ 644908.93571502098348, 1891145.670408760430291 ], [ 644918.42533027252648, 1891155.67728836950846 ], [ 644918.42533027252648, 1891155.67728836950846 ], [ 644927.914936291286722, 1891165.684173090616241 ], [ 644927.914936291286722, 1891165.684173090616241 ], [ 644937.404533078544773, 1891175.691062923055142 ], [ 644937.404533078544773, 1891175.691062923055142 ], [ 644946.894120631623082, 1891185.697957867756486 ], [ 644946.894120631623082, 1891185.697957867756486 ], [ 644956.383698951802216, 1891195.70485792378895 ], [ 644956.383698951802216, 1891195.70485792378895 ], [ 644965.873268038965762, 1891205.711763091385365 ], [ 644965.873268038965762, 1891205.711763091385365 ], [ 644975.362827894510701, 1891215.718673371244222 ], [ 644975.362827894510701, 1891215.718673371244222 ], [ 644984.852378515526652, 1891225.725588763831183 ], [ 644984.852378515526652, 1891225.725588763831183 ], [ 644994.341919903410599, 1891235.732509267749265 ], [ 644994.341919903410599, 1891235.732509267749265 ], [ 645003.831452056765556, 1891245.73943488416262 ], [ 645003.831452056765556, 1891245.73943488416262 ], [ 645013.320974979666062, 1891255.746365612372756 ], [ 645022.880039873998612, 1891255.813248645979911 ], [ 645032.439105065073818, 1891255.880136090796441 ], [ 645041.998170553240925, 1891255.947027947055176 ], [ 645051.557236339780502, 1891256.013924215920269 ], [ 645051.557236339780502, 1891256.013924215920269 ], [ 645061.046732865273952, 1891266.020878938492388 ], [ 645061.046732865273952, 1891266.020878938492388 ], [ 645060.977162953699008, 1891275.960933064343408 ], [ 645060.907592686824501, 1891285.900987272849306 ], [ 645060.838022064999677, 1891295.841041564475745 ], [ 645060.768451088108122, 1891305.781095938989893 ], [ 645070.257918609073386, 1891315.788057341706008 ], [ 645070.257918609073386, 1891315.788057341706008 ], [ 645079.747376896440983, 1891325.795023856684566 ], [ 645089.306411757017486, 1891325.861939934780821 ], [ 645089.306411757017486, 1891325.861939934780821 ], [ 645098.795856519951485, 1891335.868916283827275 ], [ 645108.35488738422282, 1891335.935841494472697 ], [ 645117.913918546866626, 1891336.002771116793156 ], [ 645127.472950008115731, 1891336.069705151254311 ], [ 645137.031981765059754, 1891336.136643597623333 ], [ 645146.591013819095679, 1891336.203586455667391 ], [ 645156.150046170456335, 1891336.270533725619316 ], [ 645156.150046170456335, 1891336.270533725619316 ], [ 645165.639455956872553, 1891346.277543512405828 ], [ 645165.639455956872553, 1891346.277543512405828 ], [ 645165.569832738372497, 1891356.217601700453088 ], [ 645175.05922834656667, 1891366.22461699321866 ], [ 645175.05922834656667, 1891366.22461699321866 ], [ 645174.989599829306826, 1891376.164675656473264 ], [ 645174.91997095674742, 1891386.104734402382746 ], [ 645174.850341728655621, 1891396.04479323187843 ], [ 645174.780712145380676, 1891405.984852143796161 ], [ 645174.711082206573337, 1891415.924911139300093 ], [ 645184.200443864217959, 1891425.931933505227789 ], [ 645184.200443864217959, 1891425.931933505227789 ], [ 645193.689796287450008, 1891435.93896098411642 ], [ 645193.689796287450008, 1891435.93896098411642 ], [ 645203.179139478015713, 1891445.94599357736297 ], [ 645203.179139478015713, 1891445.94599357736297 ], [ 645212.668473431491293, 1891455.953031282639131 ], [ 645212.668473431491293, 1891455.953031282639131 ], [ 645222.157798151951283, 1891465.960074102738872 ], [ 645222.157798151951283, 1891465.960074102738872 ], [ 645231.6471136379987, 1891475.967122036265209 ], [ 645231.6471136379987, 1891475.967122036265209 ], [ 645241.136419891030528, 1891485.97417508228682 ], [ 645241.136419891030528, 1891485.97417508228682 ], [ 645250.625716908136383, 1891495.98123324313201 ], [ 645250.625716908136383, 1891495.98123324313201 ], [ 645260.115004690596834, 1891505.988296517403796 ], [ 645260.115004690596834, 1891505.988296517403796 ], [ 645269.604283238528296, 1891515.995364905102178 ], [ 645279.163236871827394, 1891516.062375097535551 ], [ 645279.163236871827394, 1891516.062375097535551 ], [ 645288.652501894161105, 1891526.069453320698813 ], [ 645298.211451532552019, 1891526.136472646612674 ], [ 645307.770401468500495, 1891526.203496385598555 ], [ 645317.329351702006534, 1891526.270524536725134 ], [ 645326.888302232837304, 1891526.337557099526748 ], [ 645336.447253061342053, 1891526.404594075866044 ], [ 645336.447253061342053, 1891526.404594075866044 ], [ 645345.936487395083532, 1891536.411701021250337 ], [ 645345.936487395083532, 1891536.411701021250337 ], [ 645355.42571249557659, 1891546.41881308122538 ], [ 645355.42571249557659, 1891546.41881308122538 ], [ 645355.355990403448232, 1891556.358879114734009 ], [ 645355.286267955671065, 1891566.298945231596008 ], [ 645355.216545152012259, 1891576.239011430414394 ], [ 645355.146821992471814, 1891586.179077713517472 ], [ 645355.077098477166146, 1891596.119144078344107 ], [ 645364.56628962024115, 1891606.126263215206563 ], [ 645364.56628962024115, 1891606.126263215206563 ], [ 645374.055471528205089, 1891616.133387466659769 ], [ 645374.055471528205089, 1891616.133387466659769 ], [ 645383.544644200941548, 1891626.140516832238063 ], [ 645393.103550932486542, 1891626.20758337713778 ], [ 645402.662457960424945, 1891626.274654333945364 ], [ 645412.221365285920911, 1891626.341729704057798 ], [ 645421.78027290769387, 1891626.408809486310929 ], [ 645431.339180829934776, 1891626.475893680937588 ], [ 645440.898089048569091, 1891626.542982289334759 ], [ 645440.898089048569091, 1891626.542982289334759 ] ] } }
]
}
