{
"type": "FeatureCollection",
"name": "shoreline_2018",
"crs": { "type": "name", "properties": { "name": "urn:ogc:def:crs:EPSG::32644" } },
"features": [
{ "type": "Feature", "properties": { "year": 2018, "month": null }, "geometry": { "type": "LineString", "coordinates": [ [ 643588.826071737566963, 1889893.92377474415116 ], [ 643588.826071737566963, 1889893.92377474415116 ], [ 643598.316900731530041, 1889903.929949865210801 ], [ 643598.316900731530041, 1889903.929949865210801 ], [ 643607.807720497949049, 1889913.936130089918151 ], [ 643607.807720497949049, 1889913.936130089918151 ], [ 643617.298531038337387, 1889923.942315417574719 ], [ 643617.298531038337387, 1889923.942315417574719 ], [ 643626.789332352462225, 1889933.948505849111825 ], [ 643626.789332352462225, 1889933.948505849111825 ], [ 643636.280124441720545, 1889943.954701384296641 ], [ 643636.280124441720545, 1889943.954701384296641 ], [ 643645.770907301921397, 1889953.960902023129165 ], [ 643645.770907301921397, 1889953.960902023129165 ], [ 643655.261680937255733, 1889963.96710776630789 ], [ 643655.261680937255733, 1889963.96710776630789 ], [ 643664.752445346093737, 1889973.973318613134325 ], [ 643664.752445346093737, 1889973.973318613134325 ], [ 643664.683595174923539, 1889983.913316840538755 ], [ 643674.174345422536135, 1889993.919533181004226 ], [ 643674.174345422536135, 1889993.919533181004226 ], [ 643683.665086442139, 1890003.925754624418914 ], [ 643683.665086442139, 1890003.925754624418914 ], [ 643693.155818235129118, 1890013.931981171946973 ], [ 643693.155818235129118, 1890013.931981171946973 ], [ 643702.64654080150649, 1890023.938212824519724 ], [ 643702.64654080150649, 1890023.938212824519724 ], [ 643702.57767053344287, 1890033.878212691750377 ], [ 643712.068378938012756, 1890043.884449837263674 ], [ 643712.068378938012756, 1890043.884449837263674 ], [ 643721.559078114340082, 1890053.890692086424679 ], [ 643721.559078114340082, 1890053.890692086424679 ], [ 643721.490197621635161, 1890063.830692815361544 ], [ 643730.980882634641603, 1890073.836940558161587 ], [ 643730.980882634641603, 1890073.836940558161587 ], [ 643740.471558420686051, 1890083.843193405773491 ], [ 643740.471558420686051, 1890083.843193405773491 ], [ 643749.962224978255108, 1890093.849451358197257 ], [ 643759.521782550727949, 1890093.915712129557505 ], [ 643759.521782550727949, 1890093.915712129557505 ], [ 643769.012435592245311, 1890103.921979901613668 ], [ 643769.012435592245311, 1890103.921979901613668 ], [ 643778.503079406567849, 1890113.928252778248861 ], [ 643778.503079406567849, 1890113.928252778248861 ], [ 643778.434169293846935, 1890123.868255842244253 ], [ 643787.924798945663497, 1890133.874534212984145 ], [ 643787.924798945663497, 1890133.874534212984145 ], [ 643797.415419368655421, 1890143.880817688070238 ], [ 643797.415419368655421, 1890143.880817688070238 ], [ 643806.906030564452522, 1890153.887106268666685 ], [ 643806.906030564452522, 1890153.887106268666685 ], [ 643816.396632532821968, 1890163.893399953842163 ], [ 643825.956160072353669, 1890163.959693733835593 ], [ 643825.956160072353669, 1890163.959693733835593 ], [ 643835.446748522808775, 1890173.965997240738943 ], [ 643845.006272065220401, 1890174.032300146529451 ], [ 643845.006272065220401, 1890174.032300146529451 ], [ 643854.496846996480599, 1890184.038613472366706 ], [ 643864.056366542936303, 1890184.104925503255799 ], [ 643873.61588638543617, 1890184.171241943491623 ], [ 643883.175406521302648, 1890184.237562793307006 ], [ 643892.73492695169989, 1890184.30388805270195 ], [ 643902.294447678141296, 1890184.370217721676454 ], [ 643911.853968697832897, 1890184.436551799532026 ], [ 643921.413490012404509, 1890184.50289028766565 ], [ 643930.9730116216233, 1890184.569233184447512 ], [ 643930.9730116216233, 1890184.569233184447512 ], [ 643940.463543005287647, 1890194.575589343672618 ], [ 643950.023060618899763, 1890194.641941366484389 ], [ 643959.58257852611132, 1890194.708297798875719 ], [ 643959.58257852611132, 1890194.708297798875719 ], [ 643969.073092100210488, 1890204.714668496511877 ], [ 643969.073092100210488, 1890204.714668496511877 ], [ 643969.004087118664756, 1890214.65467843436636 ], [ 643968.935081784613431, 1890224.594688456039876 ], [ 643968.866076098172925, 1890234.53469856036827 ], [ 643959.306576235219836, 1890234.468336492311209 ], [ 643959.237574781407602, 1890244.408346373355016 ], [ 643959.168572975322604, 1890254.34835633658804 ], [ 643949.609082578797825, 1890254.281998065533116 ], [ 643949.540085005341098, 1890264.222007805947214 ], [ 643949.471087079611607, 1890274.162017629947513 ], [ 643949.402088801492937, 1890284.102027536835521 ], [ 643949.333090170985088, 1890294.042037526145577 ], [ 643958.82355865847785, 1890304.048407402820885 ], [ 643958.82355865847785, 1890304.048407402820885 ], [ 643968.314017919125035, 1890314.054782385472208 ], [ 643968.314017919125035, 1890314.054782385472208 ], [ 643968.245009060716256, 1890323.994793238118291 ], [ 643977.735454155365005, 1890334.001173715805635 ], [ 643977.735454155365005, 1890334.001173715805635 ], [ 643977.666440006811172, 1890343.941185040865093 ], [ 643977.597425505751744, 1890353.881196448579431 ], [ 643977.528410652303137, 1890363.821207938948646 ], [ 643977.459395446465351, 1890373.761219513369724 ], [ 643977.390379888005555, 1890383.701231169980019 ], [ 643977.321363977156579, 1890393.641242909710854 ], [ 643986.811770217493176, 1890403.64763083262369 ], [ 643986.811770217493176, 1890403.64763083262369 ], [ 643986.742749016149901, 1890413.587643044767901 ], [ 643986.673727462417446, 1890423.527655340731144 ], [ 643986.604705556179397, 1890433.467667719349265 ], [ 643986.535683297552168, 1890443.407680181320757 ], [ 643986.46666068630293, 1890453.347692726645619 ], [ 643986.397637722664513, 1890463.287705354392529 ], [ 643976.838242732803337, 1890463.221327416133136 ], [ 643976.769224002375267, 1890473.161339820828289 ], [ 643976.700204919441603, 1890483.101352308178321 ], [ 643976.63118548411876, 1890493.041364878648892 ], [ 643967.071804547449574, 1890492.974990430753678 ], [ 643967.002789345453493, 1890502.915002777939662 ], [ 643957.44341328938026, 1890502.848632433451712 ], [ 643957.374402320710942, 1890512.788644557353109 ], [ 643947.815031146397814, 1890512.722278316272423 ], [ 643947.746024411171675, 1890522.662290216656402 ], [ 643938.18665811617393, 1890522.59592807944864 ], [ 643938.117655614274554, 1890532.535939756315202 ], [ 643938.048652759985998, 1890542.475951517000794 ], [ 643937.979649553424679, 1890552.415963359409943 ], [ 643947.469993946142495, 1890562.422338648699224 ], [ 643947.469993946142495, 1890562.422338648699224 ], [ 643956.960329107940197, 1890572.428719044197351 ], [ 643956.960329107940197, 1890572.428719044197351 ], [ 643956.89131567243021, 1890582.368731749244034 ], [ 643956.822301884414628, 1890592.308744537644088 ], [ 643956.753287744242698, 1890602.248757409164682 ], [ 643956.684273251448758, 1890612.188770363805816 ], [ 643956.615258406265639, 1890622.12878340180032 ], [ 643956.54624320869334, 1890632.06879652175121 ], [ 643956.477227658848278, 1890642.008809725753963 ], [ 643956.408211756497622, 1890651.948823012644425 ], [ 643956.339195501757786, 1890661.888836382189766 ], [ 643956.270178894628771, 1890671.828849835786968 ], [ 643956.201161934994161, 1890681.768863370874897 ], [ 643956.132144623086788, 1890691.70887699094601 ], [ 643956.06312695867382, 1890701.648890692740679 ], [ 643955.994108941988088, 1890711.588904478121549 ], [ 643946.434829488163814, 1890711.522532107308507 ], [ 643946.365815705154091, 1890721.462545669171959 ], [ 643936.806541130878031, 1890721.396177402231842 ], [ 643936.737531581893563, 1890731.336190741276368 ], [ 643927.178261887282133, 1890731.269826578907669 ], [ 643917.618992488831282, 1890731.203466826817021 ], [ 643908.128719175118022, 1890721.197099065873772 ], [ 643908.128719175118022, 1890721.197099065873772 ], [ 643898.63843663118314, 1890711.190736411837861 ], [ 643898.707427130546421, 1890701.250724465353414 ], [ 643898.776417277520522, 1890691.310712601756677 ], [ 643898.776417277520522, 1890691.310712601756677 ], [ 643889.286115625407547, 1890681.304355832980946 ], [ 643889.286115625407547, 1890681.304355832980946 ], [ 643879.726824474288151, 1890681.238015255425125 ], [ 643870.167533617815934, 1890681.171679087914526 ], [ 643860.608243054593913, 1890681.105347331380472 ], [ 643851.04895278729964, 1890681.039019985124469 ], [ 643841.4896628158167, 1890680.972697049612179 ], [ 643841.420700538088568, 1890690.912706992123276 ], [ 643831.861415446037427, 1890690.846388160483912 ], [ 643831.792457402450964, 1890700.786397880176082 ], [ 643831.723499006708153, 1890710.726407682523131 ], [ 643822.164223381550983, 1890710.660092649050057 ], [ 643822.095269219949841, 1890720.60010222857818 ], [ 643812.535998474224471, 1890720.533791299676523 ], [ 643812.467048546765, 1890730.473800655920058 ], [ 643802.90778268314898, 1890730.407493831589818 ], [ 643802.83883699006401, 1890740.347502964315936 ], [ 643793.279576007160358, 1890740.281200243858621 ], [ 643793.210634548333474, 1890750.221209153998643 ], [ 643783.651378446258605, 1890750.154910538811237 ], [ 643783.582441221689805, 1890760.094919225899503 ], [ 643774.02318999893032, 1890760.028624714817852 ], [ 643773.954257008736022, 1890769.968633178621531 ], [ 643773.885323666734621, 1890779.908641725545749 ], [ 643773.816389972693287, 1890789.848650355590507 ], [ 643773.74745592661202, 1890799.788659068755805 ], [ 643783.237749819410965, 1890809.794963907217607 ], [ 643783.237749819410965, 1890809.794963907217607 ], [ 643792.728034480242059, 1890819.801273850956932 ], [ 643792.728034480242059, 1890819.801273850956932 ], [ 643792.659090205444954, 1890829.741283426294103 ], [ 643792.590145578607917, 1890839.681293084286153 ], [ 643792.521200599730946, 1890849.621302824700251 ], [ 643802.01146121439524, 1890859.627619043458253 ], [ 643802.01146121439524, 1890859.627619043458253 ], [ 643801.942510944907553, 1890869.567629256518558 ], [ 643801.873560323379934, 1890879.507639552699402 ], [ 643801.804609349928796, 1890889.447649932699278 ], [ 643811.294845917844214, 1890899.453972424846143 ], [ 643811.294845917844214, 1890899.453972424846143 ], [ 643820.785073256120086, 1890909.460300023201853 ], [ 643830.344257151824422, 1890909.526621181285009 ], [ 643839.903441342059523, 1890909.592946749879047 ], [ 643839.972411366296001, 1890899.652934979647398 ], [ 643849.531600436428562, 1890899.719264652812853 ], [ 643859.09078980225604, 1890899.785598738119006 ], [ 643859.15976864786353, 1890889.845586437731981 ], [ 643868.718962896382436, 1890889.911924626678228 ], [ 643868.787945976364426, 1890879.971912102773786 ], [ 643878.347145104780793, 1890880.038254396989942 ], [ 643887.906344527611509, 1890880.104601101018488 ], [ 643897.465544246719219, 1890880.170952216954902 ], [ 643907.024744258844294, 1890880.237307743635029 ], [ 643916.583944565616548, 1890880.303667680593207 ], [ 643916.652950226794928, 1890870.363653708714992 ], [ 643926.212155414861627, 1890870.43001775094308 ], [ 643935.771360899088904, 1890870.496386203914881 ], [ 643945.330566676682793, 1890870.562759067863226 ], [ 643954.889772747643292, 1890870.629136341856793 ], [ 643964.448979114647955, 1890870.695518027525395 ], [ 643964.448979114647955, 1890870.695518027525395 ], [ 643973.93915259570349, 1890880.70191993447952 ], [ 643983.498354966985062, 1890880.768310748273507 ], [ 643983.498354966985062, 1890880.768310748273507 ], [ 643992.988514925236814, 1890890.774722480913624 ], [ 644002.547713298117742, 1890890.841122423065826 ], [ 644012.106911967275664, 1890890.907526776427403 ], [ 644012.175963847199455, 1890880.967509655049071 ], [ 644021.735167396487668, 1890881.033918112749234 ], [ 644021.804223510553129, 1890871.093900769716129 ], [ 644021.873279271880165, 1890861.153883509105071 ], [ 644021.942334680818021, 1890851.213866331148893 ], [ 644031.501552284928039, 1890851.280278279911727 ], [ 644031.570611927774735, 1890841.340260879136622 ], [ 644031.639671217999421, 1890831.400243561249226 ], [ 644041.198898290167563, 1890831.466659307479858 ], [ 644041.267961814417504, 1890821.526641765376553 ], [ 644041.337024986045435, 1890811.58662430732511 ], [ 644041.406087805051357, 1890801.646606931462884 ], [ 644050.965328932972625, 1890801.713026168290526 ], [ 644051.034395985770971, 1890791.773008569842204 ], [ 644051.103462686063722, 1890781.832991053815931 ], [ 644060.662713279016316, 1890781.89941408787854 ], [ 644060.731784212985076, 1890771.95939634856768 ], [ 644060.800854794331826, 1890762.019378692144528 ], [ 644070.360114856506698, 1890762.085805523209274 ], [ 644070.429189671529457, 1890752.145787643501535 ], [ 644079.988454614998773, 1890752.212218578206375 ], [ 644089.547719853580929, 1890752.278653924586251 ], [ 644099.10698538844008, 1890752.345093681709841 ], [ 644099.176073609851301, 1890742.405074963811785 ], [ 644108.735344024724327, 1890742.4715188248083 ], [ 644108.804436479695141, 1890732.531499883392826 ], [ 644118.363711775979027, 1890732.597947848029435 ], [ 644118.432808464509435, 1890722.657928682630882 ], [ 644127.992088643601164, 1890722.724380751140416 ], [ 644128.06118956557475, 1890712.784361362457275 ], [ 644137.620474624680355, 1890712.850817534141243 ], [ 644137.689579779980704, 1890702.910797921940684 ], [ 644137.758684582542628, 1890692.970778392860666 ], [ 644147.317979109240696, 1890693.037238361081108 ], [ 644147.387088145129383, 1890683.09721860778518 ], [ 644156.946387553354725, 1890683.163682680111378 ], [ 644157.01550082245376, 1890673.223662703298032 ], [ 644157.084613738814369, 1890663.283642809139565 ], [ 644166.64392261300236, 1890663.350110677769408 ], [ 644166.713039762573317, 1890653.410090560326353 ], [ 644176.27235352084972, 1890653.476562532363459 ], [ 644176.341474903631024, 1890643.536542190704495 ], [ 644185.900793541921303, 1890643.603018266847357 ], [ 644185.969919157796539, 1890633.662997700972483 ], [ 644186.03904442070052, 1890623.722977218450978 ], [ 644186.108169330749661, 1890613.782956818351522 ], [ 644186.177293887827545, 1890603.842936501838267 ], [ 644186.246418091701344, 1890593.902916268212721 ], [ 644186.315541942836717, 1890583.962896117707714 ], [ 644186.384665441000834, 1890574.022876050788909 ], [ 644195.944016476627439, 1890574.089354388415813 ], [ 644196.013144207652658, 1890564.149334096582606 ], [ 644205.572500124573708, 1890564.215816537616774 ], [ 644215.131856338120997, 1890564.282303388230503 ], [ 644224.691212845500559, 1890564.348794649820775 ], [ 644234.250569648225792, 1890564.415290320990607 ], [ 644234.250569648225792, 1890564.415290320990607 ], [ 644243.740776087041013, 1890574.421812230022624 ], [ 644253.300128894508816, 1890574.488317029783502 ], [ 644253.300128894508816, 1890574.488317029783502 ], [ 644262.790321811684407, 1890584.494848763104528 ], [ 644272.349670622730628, 1890584.561362690059468 ], [ 644272.349670622730628, 1890584.561362690059468 ], [ 644281.839850019663572, 1890594.567904249299318 ], [ 644281.839850019663572, 1890594.567904249299318 ], [ 644291.330020188121125, 1890604.574450915679336 ], [ 644291.330020188121125, 1890604.574450915679336 ], [ 644291.260845184791833, 1890614.51447461056523 ], [ 644300.751001182943583, 1890624.521026775706559 ], [ 644300.751001182943583, 1890624.521026775706559 ], [ 644310.241147951106541, 1890634.527584048686549 ], [ 644319.800475310650654, 1890634.594121563946828 ], [ 644329.359802966937423, 1890634.66066348948516 ], [ 644329.359802966937423, 1890634.66066348948516 ], [ 644338.849931924021803, 1890644.667235305998474 ], [ 644338.849931924021803, 1890644.667235305998474 ], [ 644348.340051651117392, 1890654.67381223058328 ], [ 644348.340051651117392, 1890654.67381223058328 ], [ 644357.830162149388343, 1890664.680394263006747 ], [ 644357.830162149388343, 1890664.680394263006747 ], [ 644357.760952923679724, 1890674.620420607738197 ], [ 644367.25104925094638, 1890684.627008139155805 ], [ 644367.25104925094638, 1890684.627008139155805 ], [ 644376.741136346710846, 1890694.633600778644904 ], [ 644376.741136346710846, 1890694.633600778644904 ], [ 644386.231214213417843, 1890704.640198527369648 ], [ 644386.231214213417843, 1890704.640198527369648 ], [ 644395.721282849903218, 1890714.646801384165883 ], [ 644395.721282849903218, 1890714.646801384165883 ], [ 644405.211342257447541, 1890724.65340934949927 ], [ 644405.211342257447541, 1890724.65340934949927 ], [ 644414.701392433024012, 1890734.660022423835471 ], [ 644414.701392433024012, 1890734.660022423835471 ], [ 644424.19143337814603, 1890744.666640606243163 ], [ 644424.19143337814603, 1890744.666640606243163 ], [ 644433.681465092813596, 1890754.673263897420838 ], [ 644433.681465092813596, 1890754.673263897420838 ], [ 644443.171487578190863, 1890764.679892298066989 ], [ 644443.171487578190863, 1890764.679892298066989 ], [ 644452.661500831600279, 1890774.686525807250291 ], [ 644452.661500831600279, 1890774.686525807250291 ], [ 644452.592241854174063, 1890784.626556139206514 ], [ 644462.082240936812013, 1890794.633195147383958 ], [ 644462.082240936812013, 1890794.633195147383958 ], [ 644471.57223079004325, 1890804.639839264564216 ], [ 644481.131485207471997, 1890804.706456987187266 ], [ 644481.131485207471997, 1890804.706456987187266 ], [ 644490.621461537666619, 1890814.713110932614654 ], [ 644490.621461537666619, 1890814.713110932614654 ], [ 644490.552182799670845, 1890824.653142827097327 ], [ 644500.042144958744757, 1890834.659802272217348 ], [ 644500.042144958744757, 1890834.659802272217348 ], [ 644509.53209788678214, 1890844.666466826573014 ], [ 644519.091335144126788, 1890844.733103422448039 ], [ 644519.091335144126788, 1890844.733103422448039 ], [ 644528.58127455052454, 1890854.739777804585174 ], [ 644528.58127455052454, 1890854.739777804585174 ], [ 644538.071204725652933, 1890864.746457295957953 ], [ 644538.071204725652933, 1890864.746457295957953 ], [ 644547.561125669861212, 1890874.753141896333545 ], [ 644547.561125669861212, 1890874.753141896333545 ], [ 644557.051037383964285, 1890884.759831606643274 ], [ 644566.610257773078047, 1890884.826491488143802 ], [ 644566.610257773078047, 1890884.826491488143802 ], [ 644576.10015596402809, 1890894.833191027864814 ], [ 644576.10015596402809, 1890894.833191027864814 ], [ 644585.59004492207896, 1890904.839895675657317 ], [ 644585.59004492207896, 1890904.839895675657317 ], [ 644595.079924651538022, 1890914.846605433616787 ], [ 644595.079924651538022, 1890914.846605433616787 ], [ 644604.569795148214325, 1890924.853320301976055 ], [ 644604.569795148214325, 1890924.853320301976055 ], [ 644604.500457477755845, 1890934.793356803013012 ], [ 644613.990313802147284, 1890944.800077171064913 ], [ 644613.990313802147284, 1890944.800077171064913 ], [ 644613.920970836887136, 1890954.740114147076383 ], [ 644613.85162751772441, 1890964.680151205742732 ], [ 644613.782283844426274, 1890974.620188346598297 ], [ 644613.712939817109145, 1890984.560225571971387 ], [ 644604.153763815993443, 1890984.493540556170046 ], [ 644604.084424021653831, 1890994.433577556163073 ], [ 644594.525252903345972, 1890994.366896644234657 ], [ 644584.966082079801708, 1890994.300220142817125 ], [ 644575.406911555211991, 1890994.233548053307459 ], [ 644565.847741325036623, 1890994.166880374541506 ], [ 644556.288571391021833, 1890994.100217107217759 ], [ 644546.729401751537807, 1890994.033558250637725 ], [ 644537.170232409378514, 1890993.966903805499896 ], [ 644527.611063363146968, 1890993.900253771338612 ], [ 644518.051894612843171, 1890993.833608149085194 ], [ 644517.98259574722033, 1891003.773642462212592 ], [ 644508.423431878327392, 1891003.707000942667946 ], [ 644508.354137245914899, 1891013.647035030648112 ], [ 644508.284842259716243, 1891023.587069201748818 ], [ 644498.725687862141058, 1891023.520431478507817 ], [ 644498.656397109269165, 1891033.460465425625443 ], [ 644489.097247594501823, 1891033.393831806024536 ], [ 644489.027961074956693, 1891043.333865527063608 ], [ 644479.46881644311361, 1891043.267236011335626 ], [ 644479.399534157011658, 1891053.207269509322941 ], [ 644479.330251517007127, 1891063.147303089965135 ], [ 644469.771116356598213, 1891063.080677370307967 ], [ 644469.701837950036861, 1891073.020710725570098 ], [ 644469.632559189922176, 1891082.960744165349752 ], [ 644469.563280076137744, 1891092.900777687085792 ], [ 644469.494000608683564, 1891102.840811292408034 ], [ 644469.424720787676051, 1891112.780844981083646 ], [ 644469.355440612882376, 1891122.720878752414137 ], [ 644478.845263134571724, 1891132.727540479507297 ], [ 644478.845263134571724, 1891132.727540479507297 ], [ 644478.775977665209211, 1891142.667574724880978 ], [ 644488.265786014846526, 1891152.674241952132434 ], [ 644488.265786014846526, 1891152.674241952132434 ], [ 644497.755585131933913, 1891162.680914290249348 ], [ 644497.755585131933913, 1891162.680914290249348 ], [ 644507.245375016471371, 1891172.687591737601906 ], [ 644507.245375016471371, 1891172.687591737601906 ], [ 644516.73515566973947, 1891182.694274295121431 ], [ 644526.294237263733521, 1891182.760925763519481 ], [ 644526.294237263733521, 1891182.760925763519481 ], [ 644535.784004391520284, 1891192.767618150217459 ], [ 644535.784004391520284, 1891192.767618150217459 ], [ 644545.273762286524288, 1891202.774315647082403 ], [ 644545.273762286524288, 1891202.774315647082403 ], [ 644554.763510950142518, 1891212.781018254347146 ], [ 644564.322579965577461, 1891212.847688292851672 ], [ 644564.322579965577461, 1891212.847688292851672 ], [ 644573.812315103365108, 1891222.854400729294866 ], [ 644583.371380122029223, 1891222.921079898485914 ], [ 644592.930445439415053, 1891222.987763480050489 ], [ 644602.489511051448062, 1891223.054451472824439 ], [ 644602.489511051448062, 1891223.054451472824439 ], [ 644611.979224081849679, 1891233.061183178098872 ], [ 644611.979224081849679, 1891233.061183178098872 ], [ 644621.468927879584953, 1891243.067919993540272 ], [ 644621.468927879584953, 1891243.067919993540272 ], [ 644630.958622445352376, 1891253.074661920545623 ], [ 644630.958622445352376, 1891253.074661920545623 ], [ 644630.889259330695495, 1891263.014702086336911 ], [ 644630.819895861903206, 1891272.954742335248739 ], [ 644630.750532039091922, 1891282.894782667048275 ], [ 644630.681167862378061, 1891292.834823082666844 ], [ 644630.611803331412375, 1891302.77486358047463 ], [ 644640.101463954430073, 1891312.781612572725862 ], [ 644640.101463954430073, 1891312.781612572725862 ], [ 644649.591115343966521, 1891322.788366674911231 ], [ 644659.150136856478639, 1891322.855084217851982 ], [ 644668.709158666431904, 1891322.921806171769276 ], [ 644678.268180771265179, 1891322.98853253829293 ], [ 644678.33756894886028, 1891313.048490334302187 ], [ 644687.896595936268568, 1891313.115220804698765 ], [ 644697.455623221234418, 1891313.181955686071888 ], [ 644707.014650803874247, 1891313.248694980284199 ], [ 644716.573678681394085, 1891313.315438686171547 ], [ 644726.132706855074503, 1891313.38218680373393 ], [ 644735.691735325148329, 1891313.44893933320418 ], [ 644735.691735325148329, 1891313.44893933320418 ], [ 644745.181343801319599, 1891323.455740634584799 ], [ 644745.181343801319599, 1891323.455740634584799 ], [ 644754.670943042496219, 1891333.46254704752937 ], [ 644754.670943042496219, 1891333.46254704752937 ], [ 644764.160533050191589, 1891343.469358572270721 ], [ 644764.160533050191589, 1891343.469358572270721 ], [ 644773.650113824289292, 1891353.476175208110362 ], [ 644773.650113824289292, 1891353.476175208110362 ], [ 644783.139685366186313, 1891363.482996955281124 ], [ 644783.139685366186313, 1891363.482996955281124 ], [ 644783.070244951406494, 1891373.423042963491753 ], [ 644783.000804182142019, 1891383.363089055055752 ], [ 644782.931363058509305, 1891393.303135230205953 ], [ 644782.861921580508351, 1891403.243181488011032 ], [ 644782.792479748139158, 1891413.18322782847099 ], [ 644782.723037561168894, 1891423.123274252284318 ], [ 644773.16405807423871, 1891423.056496273493394 ], [ 644773.094620120944455, 1891432.996542471926659 ], [ 644773.025181813165545, 1891442.936588753713295 ], [ 644772.955743151018396, 1891452.87663511862047 ], [ 644782.445265269372612, 1891462.883460778510198 ], [ 644782.445265269372612, 1891462.883460778510198 ], [ 644782.37582131032832, 1891472.823507617693394 ], [ 644791.865329249296337, 1891482.830338780069724 ], [ 644791.865329249296337, 1891482.830338780069724 ], [ 644801.35482795513235, 1891492.837175054941326 ], [ 644801.35482795513235, 1891492.837175054941326 ], [ 644810.844317426788621, 1891502.844016441842541 ], [ 644820.403261394938454, 1891502.910814535105601 ], [ 644829.962205658084713, 1891502.977617041673511 ], [ 644839.521150217857212, 1891503.044423959916458 ], [ 644849.08009507402312, 1891503.111235290765762 ], [ 644849.08009507402312, 1891503.111235290765762 ], [ 644858.569558146060444, 1891513.118100671097636 ], [ 644868.128499007201754, 1891513.184921134728938 ], [ 644877.687440164969303, 1891513.251746010966599 ], [ 644887.246381619246677, 1891513.318575298879296 ], [ 644896.805323370266706, 1891513.385408999398351 ], [ 644906.364265417912975, 1891513.452247112290934 ], [ 644915.923207762185484, 1891513.519089637091383 ], [ 644915.923207762185484, 1891513.519089637091383 ], [ 644925.412635848857462, 1891523.525988454464823 ], [ 644925.412635848857462, 1891523.525988454464823 ], [ 644925.34312093979679, 1891533.466040417319164 ], [ 644925.273605676018633, 1891543.406092463061213 ], [ 644925.20409005752299, 1891553.346144592622295 ], [ 644934.693494081846438, 1891563.353049697121605 ], [ 644934.693494081846438, 1891563.353049697121605 ], [ 644934.623973165405914, 1891573.293102300493047 ], [ 644944.113363010575995, 1891583.300012909574434 ], [ 644944.113363010575995, 1891583.300012909574434 ], [ 644953.602743620984256, 1891593.306928630685434 ], [ 644953.602743620984256, 1891593.306928630685434 ], [ 644963.092114996397868, 1891603.313849464990199 ], [ 644963.092114996397868, 1891603.313849464990199 ], [ 644972.581477138213813, 1891613.320775410858914 ], [ 644972.581477138213813, 1891613.320775410858914 ], [ 644982.07083004375454, 1891623.327706469921395 ], [ 644982.07083004375454, 1891623.327706469921395 ], [ 644991.560173714300618, 1891633.334642642643303 ], [ 645001.119063667953014, 1891633.401528582209721 ], [ 645010.677953921025619, 1891633.468418934615329 ], [ 645010.677953921025619, 1891633.468418934615329 ], [ 645020.167279773158953, 1891643.475369662046432 ], [ 645029.72616603015922, 1891643.542269148398191 ], [ 645039.285052584134974, 1891643.609173046890646 ], [ 645039.285052584134974, 1891643.609173046890646 ], [ 645048.774360619252548, 1891653.616138329962268 ], [ 645048.774360619252548, 1891653.616138329962268 ], [ 645058.263659417862073, 1891663.623108726693317 ], [ 645058.263659417862073, 1891663.623108726693317 ], [ 645058.19407530198805, 1891673.5631661741063 ], [ 645058.124490831047297, 1891683.503223703010008 ], [ 645067.613770507043228, 1891693.510199996875599 ], [ 645067.613770507043228, 1891693.510199996875599 ], [ 645077.103040947462432, 1891703.517181403469294 ], [ 645077.103040947462432, 1891703.517181403469294 ], [ 645086.592302153818309, 1891713.524167923955247 ], [ 645086.592302153818309, 1891713.524167923955247 ], [ 645086.522702496498823, 1891723.464226712007076 ], [ 645086.453102483879775, 1891733.404285584343597 ], [ 645086.383502116193995, 1891743.344344538869336 ], [ 645086.313901393208653, 1891753.284403576748446 ], [ 645086.244300315272994, 1891763.224462696583942 ], [ 645086.174698882037774, 1891773.164521901169792 ], [ 645086.105097093619406, 1891783.10458118817769 ], [ 645086.035494950134307, 1891793.044640557840466 ], [ 645085.965892451349646, 1891802.984700010856614 ], [ 645085.896289597381838, 1891812.9247595469933 ], [ 645095.38549212703947, 1891822.931755099445581 ], [ 645095.38549212703947, 1891822.931755099445581 ], [ 645104.874685419141315, 1891832.938755766488612 ], [ 645104.874685419141315, 1891832.938755766488612 ], [ 645104.805072321789339, 1891842.878816168755293 ], [ 645114.294251435087062, 1891852.885822341078892 ], [ 645114.294251435087062, 1891852.885822341078892 ], [ 645114.224633038160391, 1891862.825883219949901 ], [ 645114.155014286166988, 1891872.765944179613143 ], [ 645114.085395178874023, 1891882.706005223793909 ], [ 645114.015775716397911, 1891892.646066351560876 ], [ 645113.946155898622237, 1891902.586127561284229 ], [ 645104.387386278132908, 1891902.519180330680683 ], [ 645104.317770694266073, 1891912.459241315023974 ], [ 645094.759005961357616, 1891912.392298188060522 ], [ 645094.689394611399621, 1891922.332358947023749 ], [ 645094.619782906374894, 1891932.272419787943363 ], [ 645085.061027647461742, 1891932.205480457050726 ], [ 645084.991420176345855, 1891942.145541072590277 ], [ 645075.432669802336022, 1891942.078605846269056 ], [ 645075.36306656524539, 1891952.018666235264391 ], [ 645065.804321078816429, 1891951.951735113048926 ], [ 645065.734722075867467, 1891961.89179527759552 ], [ 645056.175981475622393, 1891961.82486825902015 ], [ 645056.106386706815101, 1891971.76492819795385 ], [ 645046.547650992870331, 1891971.698005284415558 ], [ 645046.478060458321124, 1891981.638064997270703 ], [ 645036.919329629046842, 1891981.571146187605336 ], [ 645036.849743328755721, 1891991.511205674614757 ], [ 645027.291017387062311, 1891991.444290970219299 ], [ 645027.221435321029276, 1892001.384350231615826 ], [ 645017.662714265752584, 1892001.317439631326124 ], [ 645017.593136433977634, 1892011.257498666876927 ], [ 645017.523558247368783, 1892021.1975577857811 ], [ 645007.96484666748438, 1892021.130650981096551 ], [ 645007.89527271525003, 1892031.070709874620661 ], [ 645007.825698408065364, 1892041.010768850333989 ], [ 645007.756123745813966, 1892050.950827909633517 ], [ 645007.686548728612252, 1892060.890887051820755 ], [ 645007.616973356460221, 1892070.830946277594194 ], [ 645007.547397629357874, 1892080.771005586022511 ], [ 645007.477821547188796, 1892090.711064977105707 ], [ 645007.408245110069402, 1892100.651124451775104 ], [ 645007.338668317999691, 1892110.591184008866549 ], [ 645007.269091170979664, 1892120.531243649078533 ], [ 645007.19951366900932, 1892130.471303372876719 ], [ 645007.129935811972246, 1892140.411363180028275 ], [ 645007.060357599984854, 1892150.351423069834709 ], [ 645016.549426358891651, 1892160.358394168782979 ], [ 645016.549426358891651, 1892160.358394168782979 ], [ 645016.479842847329564, 1892170.298454533331096 ], [ 645016.410258980584331, 1892180.238514981232584 ], [ 645016.340674758888781, 1892190.178575511788949 ], [ 645016.271090182242915, 1892200.118636125465855 ], [ 645025.760129924397916, 1892210.125613904558122 ], [ 645025.760129924397916, 1892210.125613904558122 ], [ 645035.249160428531468, 1892220.13259679893963 ], [ 645044.807781107607298, 1892220.19952301797457 ], [ 645054.366402082145214, 1892220.266453651012853 ], [ 645054.366402082145214, 1892220.266453651012853 ], [ 645063.855414762627333, 1892230.273451103363186 ], [ 645073.414031741209328, 1892230.340390872443095 ], [ 645073.414031741209328, 1892230.340390872443095 ], [ 645082.903030891902745, 1892240.347398162586614 ], [ 645082.903030891902745, 1892240.347398162586614 ], [ 645082.833412410691381, 1892250.287461353465915 ], [ 645092.322397377109155, 1892260.294474149821326 ], [ 645092.322397377109155, 1892260.294474149821326 ], [ 645101.811373103992082, 1892270.301492060534656 ], [ 645101.811373103992082, 1892270.301492060534656 ], [ 645111.300339594017714, 1892280.308515086304396 ], [ 645111.300339594017714, 1892280.308515086304396 ], [ 645111.230705922003835, 1892290.248579535400495 ], [ 645120.719658229849301, 1892300.25560806831345 ], [ 645120.719658229849301, 1892300.25560806831345 ], [ 645130.208601298043504, 1892310.262641714885831 ], [ 645130.208601298043504, 1892310.262641714885831 ], [ 645139.697535127867013, 1892320.269680477445945 ], [ 645149.256113172508776, 1892320.336658336920664 ], [ 645149.256113172508776, 1892320.336658336920664 ], [ 645158.745033472077921, 1892330.343706937041134 ], [ 645158.745033472077921, 1892330.343706937041134 ], [ 645158.675375073333271, 1892340.283773345174268 ], [ 645168.164281187579036, 1892350.290827452670783 ], [ 645168.164281187579036, 1892350.290827452670783 ], [ 645177.653178063221276, 1892360.297886674525216 ], [ 645177.653178063221276, 1892360.297886674525216 ], [ 645187.142065700259991, 1892370.30495101143606 ], [ 645187.142065700259991, 1892370.30495101143606 ], [ 645187.072392109315842, 1892380.245018680114299 ], [ 645196.561265563359484, 1892390.252088524401188 ], [ 645196.561265563359484, 1892390.252088524401188 ], [ 645196.491586671210825, 1892400.19215666805394 ], [ 645196.421907423762605, 1892410.132224894594401 ], [ 645205.910761744715273, 1892420.139300638111308 ], [ 645205.910761744715273, 1892420.139300638111308 ], [ 645215.39960682799574, 1892430.146381497848779 ], [ 645224.958136757253669, 1892430.213398069376126 ], [ 645224.958136757253669, 1892430.213398069376126 ], [ 645234.44696830981411, 1892440.220488768070936 ], [ 645234.44696830981411, 1892440.220488768070936 ], [ 645243.935790621908382, 1892450.227584581123665 ], [ 645243.935790621908382, 1892450.227584581123665 ], [ 645253.424603694933467, 1892460.234685509931296 ], [ 645253.424603694933467, 1892460.234685509931296 ], [ 645262.91340752877295, 1892470.241791555425152 ], [ 645262.91340752877295, 1892470.241791555425152 ], [ 645262.843693659757264, 1892480.181862527504563 ] ] } },
{ "type": "Feature", "properties": { "year": 2018, "month": null }, "geometry": { "type": "LineString", "coordinates": [ [ 645482.689463590853848, 1892481.724903679918498 ], [ 645482.759283041232266, 1892471.784825591137633 ], [ 645482.829102135379799, 1892461.844747584778816 ], [ 645482.898920873529278, 1892451.904669662006199 ], [ 645482.898920873529278, 1892451.904669662006199 ], [ 645473.410205883905292, 1892441.897455757716671 ], [ 645473.410205883905292, 1892441.897455757716671 ], [ 645463.921481654979289, 1892431.890246969880536 ], [ 645463.921481654979289, 1892431.890246969880536 ], [ 645454.432748185587116, 1892421.883043298497796 ], [ 645454.432748185587116, 1892421.883043298497796 ], [ 645444.944005478639156, 1892411.875844744266942 ], [ 645444.944005478639156, 1892411.875844744266942 ], [ 645435.455253532389179, 1892401.868651305790991 ], [ 645435.455253532389179, 1892401.868651305790991 ], [ 645425.966492347186431, 1892391.861462983768433 ], [ 645425.966492347186431, 1892391.861462983768433 ], [ 645416.477721921750344, 1892381.854279778432101 ], [ 645416.477721921750344, 1892381.854279778432101 ], [ 645406.988942260155454, 1892371.84710168861784 ], [ 645406.988942260155454, 1892371.84710168861784 ], [ 645397.500153358327225, 1892361.839928715256974 ], [ 645397.500153358327225, 1892361.839928715256974 ], [ 645387.941585943335667, 1892361.772834854666144 ], [ 645378.452783508808352, 1892351.765671720495448 ], [ 645378.452783508808352, 1892351.765671720495448 ], [ 645368.963971836841665, 1892341.758513702312484 ], [ 645369.033731219242327, 1892331.818440491333604 ], [ 645369.033731219242327, 1892331.818440491333604 ], [ 645359.544905362650752, 1892321.8112879821565 ], [ 645359.544905362650752, 1892321.8112879821565 ], [ 645349.986320777097717, 1892321.744213015306741 ], [ 645340.427736487705261, 1892321.677142461994663 ], [ 645330.938892807345837, 1892311.670004514744505 ], [ 645330.938892807345837, 1892311.670004514744505 ], [ 645321.450039888499305, 1892301.662871683947742 ], [ 645321.450039888499305, 1892301.662871683947742 ], [ 645311.961177731165662, 1892291.655743968207389 ], [ 645311.961177731165662, 1892291.655743968207389 ], [ 645302.472306335461326, 1892281.648621367523447 ], [ 645302.472306335461326, 1892281.648621367523447 ], [ 645292.983425701386295, 1892271.641503883292899 ], [ 645292.983425701386295, 1892271.641503883292899 ], [ 645283.424820247804746, 1892271.57446136046201 ], [ 645273.935926082776859, 1892261.567353714490309 ], [ 645273.935926082776859, 1892261.567353714490309 ], [ 645264.447022678214125, 1892251.560251184040681 ], [ 645264.447022678214125, 1892251.560251184040681 ], [ 645254.958110036794096, 1892241.553153768414631 ], [ 645254.958110036794096, 1892241.553153768414631 ], [ 645245.469188157236204, 1892231.546061468077824 ], [ 645245.469188157236204, 1892231.546061468077824 ], [ 645235.980257039656863, 1892221.538974283728749 ], [ 645236.049947893247008, 1892211.59890639828518 ], [ 645236.049947893247008, 1892211.59890639828518 ], [ 645226.561002590926364, 1892201.59182472131215 ], [ 645226.630688143661246, 1892191.651757311308756 ], [ 645226.700373340863734, 1892181.711689984425902 ], [ 645226.77005818253383, 1892171.771622740663588 ], [ 645226.839742668671533, 1892161.831555579788983 ], [ 645226.909426799393259, 1892151.891488502267748 ], [ 645226.979110574466176, 1892141.951421507401392 ], [ 645227.048793994123116, 1892132.011354595888406 ], [ 645227.118477058247663, 1892122.07128776749596 ], [ 645227.188159766839817, 1892112.131221021991223 ], [ 645236.746836874866858, 1892112.198232115246356 ], [ 645236.816523817600682, 1892102.258165143895894 ], [ 645236.886210404685698, 1892092.318098254967481 ], [ 645236.955896636238322, 1892082.378031450323761 ], [ 645237.025582512374967, 1892072.437964727403596 ], [ 645246.584278274676763, 1892072.504978997865692 ], [ 645246.653968384722248, 1892062.564912048866972 ], [ 645246.72365813923534, 1892052.624845183454454 ], [ 645256.282363377977163, 1892052.691863248823211 ], [ 645256.352057366399094, 1892042.751796156866476 ], [ 645256.421750999172218, 1892032.811729148728773 ], [ 645256.491444276412949, 1892022.871662223245949 ], [ 645256.561137198004872, 1892012.931595380418003 ], [ 645256.630829764064401, 1892002.991528621409088 ], [ 645256.700521974591538, 1891993.051461945055053 ], [ 645256.770213829586282, 1891983.111395350890234 ], [ 645266.328951491392218, 1891983.178415665403008 ], [ 645266.398647580062971, 1891973.238348845858127 ], [ 645275.957390130031854, 1891973.305373264243826 ], [ 645285.516132975928485, 1891973.372402095701545 ], [ 645295.074876119266264, 1891973.439435339998454 ], [ 645295.144585620146245, 1891963.499367675743997 ], [ 645304.703333650249988, 1891963.566405024146661 ], [ 645304.773047384805977, 1891953.626337133347988 ], [ 645304.842760763480328, 1891943.686269325902686 ], [ 645304.912473786622286, 1891933.746201601577923 ], [ 645304.98218645399902, 1891923.806133960140869 ], [ 645314.540953138493933, 1891923.873174485052004 ], [ 645314.610670039313845, 1891913.933106616837904 ], [ 645324.169441610458307, 1891914.000151245389134 ], [ 645333.728213479043916, 1891914.067200286779553 ], [ 645343.286985645187087, 1891914.134253741009161 ], [ 645343.356715957866982, 1891904.194185028551146 ], [ 645352.915493011940271, 1891904.26124258665368 ], [ 645352.985227557946928, 1891894.321173647651449 ], [ 645362.544009497389197, 1891894.388235309394076 ], [ 645362.613748276606202, 1891884.448166143847629 ], [ 645362.683486699941568, 1891874.508097060956061 ], [ 645362.753224767511711, 1891864.568028062116355 ], [ 645362.822962479200214, 1891854.627959145233035 ], [ 645362.892699835007079, 1891844.687890311470255 ], [ 645362.962436834932305, 1891834.747821561526507 ], [ 645363.032173479092307, 1891824.807752893539146 ], [ 645363.101909767370671, 1891814.867684310069308 ], [ 645372.660728716757149, 1891814.934747909195721 ], [ 645372.730469238013029, 1891804.994679097784683 ], [ 645372.800209403503686, 1891795.054610369959846 ], [ 645372.86994921322912, 1891785.11454172548838 ], [ 645372.939688666956499, 1891775.174473163671792 ], [ 645373.00942776480224, 1891765.234404684277251 ], [ 645373.079166506766342, 1891755.294336289167404 ], [ 645373.079166506766342, 1891755.294336289167404 ], [ 645363.590053821681067, 1891745.287206543376669 ], [ 645363.590053821681067, 1891745.287206543376669 ], [ 645354.100931900669821, 1891735.280081912176684 ], [ 645354.100931900669821, 1891735.280081912176684 ], [ 645344.611800742452033, 1891725.272962395567447 ], [ 645344.611800742452033, 1891725.272962395567447 ], [ 645335.122660350054502, 1891715.265847994247451 ], [ 645335.122660350054502, 1891715.265847994247451 ], [ 645325.633510721847415, 1891705.258738706121221 ], [ 645325.633510721847415, 1891705.258738706121221 ], [ 645316.144351858180016, 1891695.251634533051401 ], [ 645316.144351858180016, 1891695.251634533051401 ], [ 645306.655183758819476, 1891685.2445354743395 ], [ 645306.655183758819476, 1891685.2445354743395 ], [ 645297.166006423998624, 1891675.237441530218348 ], [ 645297.166006423998624, 1891675.237441530218348 ], [ 645287.607125611975789, 1891675.170417564921081 ], [ 645278.117934750625864, 1891665.163333456264809 ], [ 645278.117934750625864, 1891665.163333456264809 ], [ 645268.628734652535059, 1891655.156254462432116 ], [ 645268.628734652535059, 1891655.156254462432116 ], [ 645259.139525320380926, 1891645.149180582724512 ], [ 645259.209204729646444, 1891635.209116895450279 ], [ 645259.209204729646444, 1891635.209116895450279 ], [ 645249.719981218106113, 1891625.202048522187397 ], [ 645249.719981218106113, 1891625.202048522187397 ], [ 645240.161078950273804, 1891625.135048164986074 ], [ 645230.671841911156662, 1891615.127989627886564 ], [ 645230.671841911156662, 1891615.127989627886564 ], [ 645221.182595638209023, 1891605.120936203980818 ], [ 645221.252255271421745, 1891595.180874086450785 ], [ 645221.252255271421745, 1891595.180874086450785 ], [ 645211.762994819437154, 1891585.173826167825609 ], [ 645211.762994819437154, 1891585.173826167825609 ], [ 645202.273725133971311, 1891575.166783364024013 ], [ 645202.273725133971311, 1891575.166783364024013 ], [ 645192.784446210833266, 1891565.159745673881844 ], [ 645192.784446210833266, 1891565.159745673881844 ], [ 645183.295158054213971, 1891555.152713096467778 ], [ 645183.295158054213971, 1891555.152713096467778 ], [ 645173.805860662716441, 1891545.145685633644462 ], [ 645173.805860662716441, 1891545.145685633644462 ], [ 645164.316554036457092, 1891535.13866328378208 ], [ 645164.316554036457092, 1891535.13866328378208 ], [ 645154.827238174155354, 1891525.131646047811955 ], [ 645154.827238174155354, 1891525.131646047811955 ], [ 645145.268292995402589, 1891525.064692906104028 ], [ 645135.778963608667254, 1891515.057685504900292 ], [ 645135.778963608667254, 1891515.057685504900292 ], [ 645126.220014435821213, 1891514.990741497371346 ], [ 645116.730671522091143, 1891504.983743930235505 ], [ 645116.730671522091143, 1891504.983743930235505 ], [ 645107.17171835526824, 1891504.916809055954218 ], [ 645097.612765486817807, 1891504.849878593813628 ], [ 645088.053812914062291, 1891504.782952544512227 ], [ 645078.494860637118109, 1891504.716030906653032 ], [ 645068.93590865842998, 1891504.649113682098687 ], [ 645059.446535055758432, 1891494.642144833458588 ], [ 645059.446535055758432, 1891494.642144833458588 ], [ 645049.887579082977027, 1891494.57523674168624 ], [ 645040.328623405657709, 1891494.508333062054589 ], [ 645030.76966802671086, 1891494.441433794796467 ], [ 645021.28027231595479, 1891484.434484222671017 ], [ 645021.28027231595479, 1891484.434484222671017 ], [ 645011.790867370902561, 1891474.427539763506502 ], [ 645011.790867370902561, 1891474.427539763506502 ], [ 645002.301453190040775, 1891464.42060041683726 ], [ 645002.371002320200205, 1891454.48054656595923 ], [ 645002.371002320200205, 1891454.48054656595923 ], [ 644992.881573964841664, 1891444.473612723406404 ], [ 644992.881573964841664, 1891444.473612723406404 ], [ 644983.322597129736096, 1891444.406737060984597 ], [ 644973.763620591489598, 1891444.339865810470656 ], [ 644964.204644348588772, 1891444.272998972330242 ], [ 644954.715193883981556, 1891434.26608440419659 ], [ 644954.715193883981556, 1891434.26608440419659 ], [ 644945.225734185194597, 1891424.259174949023873 ], [ 644945.295254367752932, 1891414.31912328209728 ], [ 644945.295254367752932, 1891414.31912328209728 ], [ 644935.805780492140912, 1891404.312219330575317 ], [ 644935.875295376987197, 1891394.372168138856068 ], [ 644935.944809907115996, 1891384.432117029791698 ], [ 644936.014324082294479, 1891374.492066003847867 ], [ 644936.014324082294479, 1891374.492066003847867 ], [ 644926.524826143402606, 1891364.485168339917436 ], [ 644926.524826143402606, 1891364.485168339917436 ], [ 644916.96581468207296, 1891364.418326030485332 ], [ 644907.406803517369553, 1891364.351488133193925 ], [ 644897.847792649525218, 1891364.284654647577554 ], [ 644888.288782078190707, 1891364.21782557410188 ], [ 644878.799257742241025, 1891354.210951903369278 ], [ 644878.799257742241025, 1891354.210951903369278 ], [ 644869.309724172460847, 1891344.204083345131949 ], [ 644869.309724172460847, 1891344.204083345131949 ], [ 644859.820181369083002, 1891334.197219897992909 ], [ 644859.820181369083002, 1891334.197219897992909 ], [ 644850.261158219422214, 1891334.130409397417679 ], [ 644840.771601891377941, 1891324.123555782949552 ], [ 644840.771601891377941, 1891324.123555782949552 ], [ 644831.282036329619586, 1891314.116707279812545 ], [ 644831.351497556315735, 1891304.176660228054971 ], [ 644831.351497556315735, 1891304.176660228054971 ], [ 644821.861917819012888, 1891294.169817228335887 ], [ 644821.861917819012888, 1891294.169817228335887 ], [ 644812.372328846948221, 1891284.162979339482263 ], [ 644812.372328846948221, 1891284.162979339482263 ], [ 644802.882730642799288, 1891274.156146561959758 ], [ 644802.882730642799288, 1891274.156146561959758 ], [ 644793.39312320551835, 1891264.149318896001205 ], [ 644793.39312320551835, 1891264.149318896001205 ], [ 644783.90350653626956, 1891254.142496342305094 ], [ 644783.90350653626956, 1891254.142496342305094 ], [ 644774.413880631211214, 1891244.13567889877595 ], [ 644774.413880631211214, 1891244.13567889877595 ], [ 644764.924245494417846, 1891234.128866567276418 ], [ 644764.924245494417846, 1891234.128866567276418 ], [ 644755.365179434185848, 1891234.062103267526254 ], [ 644745.875530773191713, 1891224.055300766136497 ], [ 644745.875530773191713, 1891224.055300766136497 ], [ 644736.385872877785005, 1891214.048503376310691 ], [ 644736.385872877785005, 1891214.048503376310691 ], [ 644726.82679853180889, 1891213.981753928121179 ], [ 644717.337127113598399, 1891203.97496636910364 ], [ 644717.337127113598399, 1891203.97496636910364 ], [ 644707.778048772714101, 1891203.908226052531973 ], [ 644698.288363829138689, 1891193.901448323391378 ], [ 644698.288363829138689, 1891193.901448323391378 ], [ 644688.729281493346207, 1891193.834717138437554 ], [ 644679.239583028480411, 1891183.827949240105227 ], [ 644679.239583028480411, 1891183.827949240105227 ], [ 644669.680496697546914, 1891183.761227186070755 ], [ 644660.121410661609843, 1891183.694509543478489 ], [ 644650.631694380193949, 1891173.687756195198745 ], [ 644650.631694380193949, 1891173.687756195198745 ], [ 644641.072604350512847, 1891173.621047683758661 ], [ 644631.582874545245431, 1891163.614304165355861 ], [ 644631.582874545245431, 1891163.614304165355861 ], [ 644622.023780519026332, 1891163.547604784602299 ], [ 644612.534037189790979, 1891153.540871096542105 ], [ 644612.534037189790979, 1891153.540871096542105 ], [ 644602.974939169827849, 1891153.474180847173557 ], [ 644593.48518231685739, 1891143.467456988291815 ], [ 644593.48518231685739, 1891143.467456988291815 ], [ 644583.995416229823604, 1891133.460738239809871 ], [ 644583.995416229823604, 1891133.460738239809871 ], [ 644574.505640913033858, 1891123.454024601960555 ], [ 644574.505640913033858, 1891123.454024601960555 ], [ 644565.01585636253003, 1891113.447316073812544 ], [ 644565.01585636253003, 1891113.447316073812544 ], [ 644555.456741473637521, 1891113.380649112863466 ], [ 644545.966943398118019, 1891103.373950413893908 ], [ 644545.966943398118019, 1891103.373950413893908 ], [ 644536.477136091561988, 1891093.367256825324148 ], [ 644536.546447315602563, 1891083.427221149438992 ], [ 644536.61575818574056, 1891073.487185556674376 ], [ 644546.174890831578523, 1891073.5538424635306 ], [ 644546.244205935043283, 1891063.613806646782905 ], [ 644555.803343465202488, 1891063.680467657279223 ], [ 644565.362481290008873, 1891063.747133079217747 ], [ 644574.921619410859421, 1891063.813802912365645 ], [ 644584.480757826357149, 1891063.880477156955749 ], [ 644594.039896540576592, 1891063.947155812988058 ], [ 644603.59903554955963, 1891064.013838879996911 ], [ 644613.158174854470417, 1891064.0805263586808 ], [ 644622.717314455658197, 1891064.147218248341233 ], [ 644632.27645435417071, 1891064.213914550142363 ], [ 644641.835594547446817, 1891064.280615262454376 ], [ 644641.904955168138258, 1891054.340576449641958 ], [ 644651.46410024468787, 1891054.407281265594065 ], [ 644661.023245617398061, 1891054.473990492988378 ], [ 644670.582391287665814, 1891054.540704131126404 ], [ 644680.141537252813578, 1891054.607422181637958 ], [ 644689.700683512841351, 1891054.674144642660394 ], [ 644689.770066714845598, 1891044.734104372793809 ], [ 644699.32921785954386, 1891044.80083093768917 ], [ 644708.8883693019161, 1891044.867561913328245 ], [ 644718.44752103916835, 1891044.934297300642356 ], [ 644728.006673072697595, 1891045.001037099398673 ], [ 644737.565825402503833, 1891045.067781309364364 ], [ 644737.565825402503833, 1891045.067781309364364 ], [ 644747.055567305535078, 1891055.074572048848495 ], [ 644756.614715640898794, 1891055.141325389733538 ], [ 644766.17386427288875, 1891055.208083141595125 ], [ 644775.733013201039284, 1891055.274845304898918 ], [ 644785.292162427096628, 1891055.341611879412085 ], [ 644785.292162427096628, 1891055.341611879412085 ], [ 644794.781877932371572, 1891065.348426608368754 ], [ 644794.781877932371572, 1891065.348426608368754 ], [ 644804.271584206609987, 1891075.35524644725956 ], [ 644813.830725146457553, 1891075.422026872867718 ], [ 644813.830725146457553, 1891075.422026872867718 ], [ 644823.320417899056338, 1891085.428856542799622 ], [ 644823.320417899056338, 1891085.428856542799622 ], [ 644832.810101417941041, 1891095.435691324528307 ], [ 644832.810101417941041, 1891095.435691324528307 ], [ 644842.299775704392232, 1891105.442531216191128 ], [ 644851.858904068707488, 1891105.509330212371424 ], [ 644851.858904068707488, 1891105.509330212371424 ], [ 644861.348564833402634, 1891115.516179936239496 ], [ 644861.348564833402634, 1891115.516179936239496 ], [ 644870.838216364150867, 1891125.523034771205857 ], [ 644870.838216364150867, 1891125.523034771205857 ], [ 644880.327858662349172, 1891135.529894716804847 ], [ 644880.327858662349172, 1891135.529894716804847 ], [ 644889.817491727881134, 1891145.53675977489911 ], [ 644899.376603226177394, 1891145.603582062060013 ], [ 644899.376603226177394, 1891145.603582062060013 ], [ 644908.866222768323496, 1891155.610456950962543 ], [ 644908.866222768323496, 1891155.610456950962543 ], [ 644918.355833077686839, 1891165.617336951429024 ], [ 644918.355833077686839, 1891165.617336951429024 ], [ 644927.845434154383838, 1891175.624222064390779 ], [ 644927.845434154383838, 1891175.624222064390779 ], [ 644937.335025999462232, 1891185.631112288217992 ], [ 644937.335025999462232, 1891185.631112288217992 ], [ 644946.824608610244468, 1891195.638007624074817 ], [ 644946.824608610244468, 1891195.638007624074817 ], [ 644956.314181988011114, 1891205.644908072426915 ], [ 644965.873268038965762, 1891205.711763091851026 ], [ 644965.873268038965762, 1891205.711763091851026 ], [ 644975.362827894510701, 1891215.718673371244222 ], [ 644975.362827894510701, 1891215.718673371244222 ], [ 644975.293301046011038, 1891225.658724303357303 ], [ 644984.782846724614501, 1891235.665640087332577 ], [ 644984.782846724614501, 1891235.665640087332577 ], [ 644994.272383170085959, 1891245.672560983104631 ], [ 644994.272383170085959, 1891245.672560983104631 ], [ 645003.761910380912013, 1891255.679486991139129 ], [ 645003.761910380912013, 1891255.679486991139129 ], [ 645013.2514283611672, 1891265.686418110504746 ], [ 645013.2514283611672, 1891265.686418110504746 ], [ 645022.740937106776983, 1891275.693354343064129 ], [ 645022.740937106776983, 1891275.693354343064129 ], [ 645032.230436618905514, 1891285.700295688118786 ], [ 645032.230436618905514, 1891285.700295688118786 ], [ 645041.719926897669211, 1891295.707242145435885 ], [ 645051.278974333545193, 1891295.774139648769051 ], [ 645051.278974333545193, 1891295.774139648769051 ], [ 645060.768451088108122, 1891305.781095938989893 ], [ 645070.32749452884309, 1891305.848002575337887 ], [ 645070.32749452884309, 1891305.848002575337887 ], [ 645079.816957758972421, 1891315.854968698695302 ], [ 645089.375997207476757, 1891315.921884467825294 ], [ 645089.375997207476757, 1891315.921884467825294 ], [ 645098.865446913288906, 1891325.928860424086452 ], [ 645098.865446913288906, 1891325.928860424086452 ], [ 645108.35488738422282, 1891335.935841494472697 ], [ 645108.35488738422282, 1891335.935841494472697 ], [ 645108.285292047890835, 1891345.875897745369002 ], [ 645108.215696356259286, 1891355.815954079618677 ], [ 645117.705117708654143, 1891365.822941046440974 ], [ 645117.705117708654143, 1891365.822941046440974 ], [ 645127.194529828499071, 1891375.829933125060052 ], [ 645127.194529828499071, 1891375.829933125060052 ], [ 645136.683932713116519, 1891385.836930317338556 ], [ 645136.683932713116519, 1891385.836930317338556 ], [ 645146.17332636367064, 1891395.843932622810826 ], [ 645146.17332636367064, 1891395.843932622810826 ], [ 645155.662710780277848, 1891405.85094004124403 ], [ 645155.662710780277848, 1891405.85094004124403 ], [ 645165.152085964102298, 1891415.857952572871 ], [ 645165.152085964102298, 1891415.857952572871 ], [ 645174.641451912466437, 1891425.864970217691734 ], [ 645174.641451912466437, 1891425.864970217691734 ], [ 645184.130808626534417, 1891435.871992975240573 ], [ 645184.130808626534417, 1891435.871992975240573 ], [ 645193.620156106539071, 1891445.879020847380161 ], [ 645193.620156106539071, 1891445.879020847380161 ], [ 645203.109494353528135, 1891455.886053831782192 ], [ 645212.668473431491293, 1891455.953031283104792 ], [ 645212.668473431491293, 1891455.953031283104792 ], [ 645222.157798151951283, 1891465.960074102738872 ], [ 645222.157798151951283, 1891465.960074102738872 ], [ 645231.6471136379987, 1891475.967122036265209 ], [ 645231.6471136379987, 1891475.967122036265209 ], [ 645241.136419891030528, 1891485.97417508228682 ], [ 645241.136419891030528, 1891485.97417508228682 ], [ 645250.625716908136383, 1891495.98123324313201 ], [ 645250.625716908136383, 1891495.98123324313201 ], [ 645250.556047065416351, 1891505.921295459149405 ], [ 645260.045329904183745, 1891515.928359124809504 ], [ 645260.045329904183745, 1891515.928359124809504 ], [ 645269.534603508189321, 1891525.93542790482752 ], [ 645279.093552553094923, 1891526.002438406925648 ], [ 645279.093552553094923, 1891526.002438406925648 ], [ 645288.582812631735578, 1891536.009517022641376 ], [ 645288.582812631735578, 1891536.009517022641376 ], [ 645298.072063475381583, 1891546.016600752016529 ], [ 645298.072063475381583, 1891546.016600752016529 ], [ 645307.561305084382184, 1891556.023689595749602 ], [ 645307.561305084382184, 1891556.023689595749602 ], [ 645317.050537458388135, 1891566.030783554306254 ], [ 645326.609469636110589, 1891566.097817355068401 ], [ 645336.16840211127419, 1891566.164855567971244 ], [ 645336.16840211127419, 1891566.164855567971244 ], [ 645345.657616668730043, 1891576.171964083099738 ], [ 645345.657616668730043, 1891576.171964083099738 ], [ 645345.587898097583093, 1891586.112030056072399 ], [ 645355.077098477166146, 1891596.119144078809768 ], [ 645355.077098477166146, 1891596.119144078809768 ], [ 645364.56628962024115, 1891606.126263215206563 ], [ 645364.56628962024115, 1891606.126263215206563 ], [ 645364.49656080477871, 1891616.066330056171864 ], [ 645373.985737768467516, 1891626.073454699711874 ], [ 645373.985737768467516, 1891626.073454699711874 ], [ 645383.474905496928841, 1891636.080584458308294 ], [ 645383.474905496928841, 1891636.080584458308294 ], [ 645392.964063991326839, 1891646.087719331029803 ], [ 645392.964063991326839, 1891646.087719331029803 ], [ 645402.453213248983957, 1891656.094859317643568 ], [ 645402.453213248983957, 1891656.094859317643568 ], [ 645411.942353271297179, 1891666.102004420477897 ], [ 645411.942353271297179, 1891666.102004420477897 ], [ 645421.431484056869522, 1891676.109154637437314 ], [ 645421.431484056869522, 1891676.109154637437314 ], [ 645430.92060560954269, 1891686.11630996898748 ], [ 645430.92060560954269, 1891686.11630996898748 ], [ 645440.409717925242148, 1891696.123470415594056 ], [ 645440.409717925242148, 1891696.123470415594056 ], [ 645449.89882100536488, 1891706.130635976791382 ], [ 645459.457693110685796, 1891706.197735886787996 ], [ 645459.457693110685796, 1891706.197735886787996 ], [ 645468.946782665676437, 1891716.204911285778508 ], [ 645478.505650777951814, 1891716.272020330652595 ], [ 645488.064519188017584, 1891716.339133788365871 ], [ 645497.623387895990163, 1891716.406251658685505 ] ] } },
{ "type": "Feature", "properties": { "year": 2018, "month": null }, "geometry": { "type": "LineString", "coordinates": [ [ 645248.953542545204982, 1891734.54274933366105 ], [ 645258.442711670417339, 1891744.549822021275759 ], [ 645258.442711670417339, 1891744.549822021275759 ], [ 645258.373028349597007, 1891754.489886621944606 ], [ 645258.303344673244283, 1891764.429951304802671 ], [ 645258.233660641359165, 1891774.370016071945429 ], [ 645258.16397625382524, 1891784.310080921277404 ], [ 645258.094291510758922, 1891794.250145854428411 ], [ 645248.53546695318073, 1891794.183135828468949 ], [ 645248.465786443441175, 1891804.123200535075739 ], [ 645238.906966772163287, 1891804.056194612756371 ], [ 645229.348147396813147, 1891803.989193103509024 ], [ 645219.789328320184723, 1891803.922196006868035 ], [ 645210.230509540764615, 1891803.855203323997557 ], [ 645200.671691059949808, 1891803.788215053267777 ], [ 645191.182525850250386, 1891793.781168343266472 ], [ 645191.182525850250386, 1891793.781168343266472 ], [ 645181.69335140590556, 1891783.774126747855917 ], [ 645181.762999082566239, 1891773.834064371883869 ], [ 645181.832646403927356, 1891763.894002077868208 ], [ 645191.391482647042722, 1891763.960980286356062 ], [ 645191.461134201847017, 1891754.020917767193168 ], [ 645201.019975332310423, 1891754.087900080019608 ], [ 645201.089631120325066, 1891744.147837333846837 ], [ 645210.648477134061977, 1891744.214823750313371 ], [ 645210.718137155519798, 1891734.274760778527707 ], [ 645220.276988056721166, 1891734.341751298401505 ], [ 645229.835839255014434, 1891734.408746230416 ], [ 645239.394690752145834, 1891734.475745575502515 ], [ 645248.953542545204982, 1891734.54274933366105 ], [ 645248.953542545204982, 1891734.54274933366105 ] ] } }
]
}
